{"type":"FeatureCollection","features":[{"type":"Feature","properties":{"name":"Lake Chad"},"geometry":{"type":"Polygon","coordinates":[[[14.742,13.078],[14.743,13.062],[14.716,13.047],[14.694,13.024],[14.686,12.993],[14.661,12.982],[14.62,12.992],[14.592,12.99],[14.516,12.98],[14.475,12.952],[14.407,12.899],[14.347,12.877],[14.295,12.884],[14.275,12.903],[14.259,12.986],[14.259,13.004],[14.282,13.014],[14.289,13.029],[14.307,13.065],[14.311,13.082],[14.312,13.087],[14.33,13.116],[14.33,13.135],[14.342,13.162],[14.37,13.185],[14.415,13.209],[14.496,13.239],[14.554,13.238],[14.591,13.214],[14.653,13.208],[14.668,13.195],[14.707,13.137],[14.742,13.078],[14.742,13.078],[14.742,13.078]]]}},{"type":"Feature","properties":{"name":"Lake Tana"},"geometry":{"type":"Polygon","coordinates":[[[37.286,11.794],[37.253,11.82],[37.211,11.822],[37.169,11.817],[37.146,11.833],[37.113,11.855],[37.096,11.84],[37.078,11.829],[37.058,11.834],[37.04,11.852],[37.024,11.88],[37.002,11.907],[37.006,11.972],[37.008,12.029],[37.017,12.087],[37.028,12.165],[37.048,12.21],[37.072,12.243],[37.096,12.266],[37.126,12.27],[37.164,12.26],[37.195,12.231],[37.219,12.23],[37.269,12.224],[37.333,12.272],[37.377,12.288],[37.413,12.291],[37.46,12.303],[37.496,12.286],[37.529,12.259],[37.555,12.223],[37.566,12.164],[37.592,12.117],[37.585,12.084],[37.583,12.049],[37.577,12.018],[37.56,11.986],[37.55,11.942],[37.513,11.91],[37.501,11.876],[37.496,11.835],[37.44,11.753],[37.387,11.632],[37.361,11.635],[37.342,11.632],[37.327,11.636],[37.32,11.648],[37.301,11.668],[37.322,11.709],[37.309,11.741],[37.289,11.771],[37.286,11.794],[37.286,11.794],[37.286,11.794]]]}},{"type":"Feature","properties":{"name":"Issyk-Kul"},"geometry":{"type":"Polygon","coordinates":[[[78.303,42.588],[78.292,42.564],[78.158,42.55],[78.014,42.487],[77.871,42.428],[77.852,42.402],[77.854,42.367],[77.716,42.24],[77.595,42.2],[77.515,42.182],[77.137,42.168],[77.023,42.173],[76.921,42.19],[76.578,42.291],[76.432,42.32],[76.329,42.33],[76.263,42.328],[76.227,42.389],[76.215,42.435],[76.226,42.461],[76.453,42.489],[76.747,42.565],[76.965,42.612],[77.19,42.647],[77.337,42.67],[77.535,42.651],[77.684,42.702],[78.064,42.727],[78.249,42.734],[78.151,42.672],[78.119,42.642],[78.136,42.608],[78.303,42.588],[78.303,42.588],[78.303,42.588]]]}},{"type":"Feature","properties":{"name":"Lake Tharthar"},"geometry":{"type":"Polygon","coordinates":[[[43.261,33.728],[43.196,33.792],[43.106,33.915],[43.074,34.113],[43.066,34.258],[43.084,34.315],[43.116,34.329],[43.239,34.141],[43.362,34.043],[43.467,33.95],[43.493,33.888],[43.476,33.807],[43.478,33.729],[43.42,33.706],[43.332,33.717],[43.261,33.728],[43.261,33.728],[43.261,33.728],[43.261,33.728]]]}},{"type":"Feature","properties":{"name":"Razzaza Lake"},"geometry":{"type":"Polygon","coordinates":[[[43.878,32.688],[43.863,32.612],[43.793,32.535],[43.739,32.531],[43.668,32.553],[43.629,32.58],[43.577,32.596],[43.482,32.642],[43.438,32.715],[43.423,32.81],[43.432,32.869],[43.451,32.879],[43.475,32.919],[43.469,33.011],[43.508,33.06],[43.55,33.079],[43.583,33.039],[43.72,32.808],[43.821,32.732],[43.878,32.688],[43.878,32.688],[43.878,32.688],[43.878,32.688]]]}},{"type":"Feature","properties":{"name":"Dead Sea"},"geometry":{"type":"Polygon","coordinates":[[[35.585,31.724],[35.567,31.574],[35.545,31.359],[35.521,31.327],[35.423,31.325],[35.403,31.348],[35.402,31.492],[35.421,31.619],[35.463,31.71],[35.522,31.756],[35.559,31.766],[35.585,31.724],[35.585,31.724],[35.585,31.724],[35.585,31.724]]]}},{"type":"Feature","properties":{"name":"Kainji Reservoir"},"geometry":{"type":"Polygon","coordinates":[[[4.685,10.365],[4.679,10.344],[4.598,10.196],[4.6,10.113],[4.617,10.003],[4.659,9.885],[4.626,9.865],[4.594,9.867],[4.566,9.903],[4.537,10.028],[4.496,10.066],[4.474,10.07],[4.468,10.098],[4.495,10.126],[4.51,10.148],[4.506,10.174],[4.47,10.186],[4.464,10.196],[4.485,10.229],[4.465,10.306],[4.4,10.375],[4.4,10.403],[4.438,10.418],[4.451,10.438],[4.459,10.46],[4.47,10.627],[4.492,10.644],[4.567,10.603],[4.606,10.617],[4.656,10.607],[4.68,10.585],[4.65,10.517],[4.667,10.41],[4.685,10.365],[4.685,10.365],[4.685,10.365]]]}},{"type":"Feature","properties":{"name":"Lake Urmia"},"geometry":{"type":"Polygon","coordinates":[[[45.666,37.742],[45.666,37.742],[45.666,37.742],[45.666,37.742],[45.747,37.701],[45.749,37.663],[45.755,37.578],[45.858,37.426],[45.831,37.341],[45.703,37.303],[45.663,37.288],[45.612,37.212],[45.536,37.135],[45.449,37.149],[45.365,37.227],[45.292,37.438],[45.257,37.615],[45.253,37.685],[45.234,37.764],[45.087,37.885],[45.08,37.988],[45.155,38.045],[45.188,38.108],[45.171,38.144],[45.092,38.14],[45.015,38.144],[45.026,38.193],[45.106,38.264],[45.357,38.264],[45.458,38.173],[45.487,38.073],[45.447,37.932],[45.436,37.806],[45.483,37.754],[45.546,37.754],[45.666,37.742]]]}},{"type":"Feature","properties":{"name":"Sarygamysh K\u00f6li"},"geometry":{"type":"Polygon","coordinates":[[[57.865,41.773],[57.818,41.7],[57.685,41.636],[57.527,41.594],[57.43,41.579],[57.346,41.573],[57.247,41.653],[57.174,41.735],[57.116,41.731],[57.062,41.725],[57.053,41.773],[57.094,41.968],[57.183,42.185],[57.273,42.303],[57.392,42.335],[57.55,42.261],[57.627,42.15],[57.613,42.105],[57.632,42.066],[57.682,42.01],[57.7,41.913],[57.845,41.838],[57.865,41.773],[57.865,41.773],[57.865,41.773]]]}},{"type":"Feature","properties":{"name":"Lake Tuz"},"geometry":{"type":"Polygon","coordinates":[[[33.458,38.854],[33.525,38.812],[33.597,38.799],[33.674,38.712],[33.617,38.578],[33.533,38.523],[33.423,38.559],[33.326,38.611],[33.236,38.667],[33.158,38.772],[33.219,38.876],[33.293,38.967],[33.309,39.057],[33.305,39.127],[33.35,39.12],[33.424,39.056],[33.454,38.992],[33.44,38.938],[33.458,38.854],[33.458,38.854],[33.458,38.854]]]}},{"type":"Feature","properties":{"name":"Lake Geneva"},"geometry":{"type":"Polygon","coordinates":[[[6.874,46.432],[6.866,46.403],[6.845,46.385],[6.665,46.402],[6.469,46.389],[6.336,46.361],[6.157,46.205],[6.133,46.205],[6.158,46.302],[6.344,46.458],[6.588,46.529],[6.819,46.466],[6.874,46.432],[6.874,46.432],[6.874,46.432]]]}},{"type":"Feature","properties":{"name":"Lake Van"},"geometry":{"type":"Polygon","coordinates":[[[42.989,38.346],[42.923,38.39],[42.912,38.426],[42.882,38.477],[42.856,38.484],[42.781,38.459],[42.683,38.457],[42.586,38.482],[42.538,38.49],[42.353,38.5],[42.365,38.549],[42.434,38.61],[42.458,38.643],[42.458,38.692],[42.526,38.745],[42.723,38.782],[42.845,38.794],[42.935,38.794],[43.079,38.809],[43.163,38.846],[43.159,38.869],[43.126,38.882],[43.088,38.881],[43.075,38.916],[43.152,38.948],[43.285,38.964],[43.436,38.988],[43.56,38.978],[43.611,38.947],[43.531,38.898],[43.383,38.836],[43.292,38.813],[43.21,38.716],[43.186,38.603],[43.287,38.548],[43.318,38.489],[43.235,38.407],[43.148,38.337],[43.088,38.326],[42.989,38.346],[42.989,38.346],[42.989,38.346]]]}},{"type":"Feature","properties":{"name":"Lake Balaton"},"geometry":{"type":"Polygon","coordinates":[[[17.586,46.766],[17.476,46.724],[17.277,46.721],[17.269,46.742],[17.271,46.76],[17.309,46.763],[17.383,46.779],[17.479,46.8],[17.665,46.852],[17.824,46.911],[17.881,46.943],[17.955,46.987],[18.039,47.037],[18.078,47.055],[18.13,47.039],[18.164,47.011],[18.143,46.963],[17.881,46.866],[17.672,46.791],[17.586,46.766],[17.586,46.766],[17.586,46.766],[17.586,46.766]]]}},{"type":"Feature","properties":{"name":"Lake Sevan"},"geometry":{"type":"Polygon","coordinates":[[[44.99,40.515],[44.972,40.542],[44.989,40.582],[44.986,40.612],[45.015,40.614],[45.095,40.59],[45.242,40.51],[45.311,40.488],[45.373,40.479],[45.437,40.435],[45.537,40.365],[45.602,40.318],[45.636,40.279],[45.656,40.243],[45.659,40.215],[45.651,40.195],[45.608,40.172],[45.543,40.156],[45.481,40.156],[45.389,40.151],[45.313,40.149],[45.276,40.164],[45.248,40.197],[45.218,40.296],[45.183,40.385],[45.153,40.404],[45.125,40.428],[45.095,40.461],[45.04,40.49],[44.99,40.515],[44.99,40.515],[44.99,40.515],[44.99,40.515]]]}},{"type":"Feature","properties":{"name":"Lake Hammar"},"geometry":{"type":"Polygon","coordinates":[[[47.608,30.689],[47.573,30.664],[47.491,30.663],[47.407,30.678],[47.245,30.711],[47.104,30.74],[47.04,30.742],[46.953,30.733],[46.879,30.727],[46.852,30.722],[46.822,30.725],[46.807,30.738],[46.804,30.764],[46.802,30.786],[46.792,30.803],[46.765,30.817],[46.75,30.823],[46.719,30.837],[46.712,30.867],[46.748,30.903],[46.801,30.913],[46.818,30.915],[46.861,30.917],[46.897,30.9],[46.926,30.892],[46.983,30.857],[47.063,30.828],[47.103,30.826],[47.146,30.814],[47.194,30.8],[47.29,30.772],[47.357,30.782],[47.429,30.812],[47.472,30.814],[47.5,30.809],[47.504,30.797],[47.53,30.768],[47.59,30.713],[47.608,30.689],[47.608,30.689],[47.608,30.689],[47.608,30.689]]]}},{"type":"Feature","properties":{"name":"Lake Assal"},"geometry":{"type":"Polygon","coordinates":[[[42.447,11.677],[42.441,11.64],[42.417,11.629],[42.399,11.645],[42.396,11.672],[42.399,11.693],[42.411,11.712],[42.436,11.697],[42.447,11.677],[42.447,11.677],[42.447,11.677]]]}},{"type":"Feature","properties":{"name":"Bodensee"},"geometry":{"type":"Polygon","coordinates":[[[9.731,47.527],[9.719,47.515],[9.685,47.506],[9.554,47.511],[9.452,47.514],[9.25,47.598],[9.183,47.671],[9.113,47.772],[9.132,47.782],[9.231,47.733],[9.373,47.677],[9.514,47.625],[9.644,47.566],[9.731,47.527],[9.731,47.527],[9.731,47.527],[9.731,47.527]]]}},{"type":"Feature","properties":{"name":"Dead Sea"},"geometry":{"type":"Polygon","coordinates":[[[35.522,31.177],[35.517,31.154],[35.508,31.125],[35.498,31.105],[35.459,31.096],[35.417,31.104],[35.391,31.135],[35.377,31.178],[35.382,31.216],[35.401,31.231],[35.446,31.232],[35.494,31.205],[35.522,31.177],[35.522,31.177],[35.522,31.177],[35.522,31.177]]]}},{"type":"Feature","properties":{"name":"Sea of Galilee"},"geometry":{"type":"Polygon","coordinates":[[[35.632,32.782],[35.616,32.749],[35.577,32.72],[35.551,32.75],[35.534,32.803],[35.539,32.856],[35.565,32.892],[35.599,32.9],[35.623,32.878],[35.636,32.834],[35.632,32.782],[35.632,32.782],[35.632,32.782],[35.632,32.782]]]}},{"type":"Feature","properties":{"name":"Toktogul Res."},"geometry":{"type":"Polygon","coordinates":[[[73.291,41.759],[73.266,41.755],[73.202,41.745],[73.107,41.757],[72.972,41.755],[72.839,41.74],[72.679,41.663],[72.654,41.667],[72.635,41.687],[72.658,41.701],[72.689,41.728],[72.709,41.767],[72.688,41.822],[72.658,41.874],[72.685,41.9],[72.817,41.898],[72.94,41.878],[73.011,41.855],[73.086,41.828],[73.24,41.801],[73.3,41.776],[73.291,41.759],[73.291,41.759],[73.291,41.759]]]}},{"type":"Feature","properties":{"name":"Lake Volta"},"geometry":{"type":"Polygon","coordinates":[[[0.272,6.675],[0.272,6.675],[0.272,6.675],[0.299,6.719],[0.317,6.738],[0.309,6.698],[0.276,6.648],[0.23,6.616],[0.192,6.607],[0.172,6.615],[0.16,6.618],[0.152,6.611],[0.154,6.597],[0.151,6.57],[0.147,6.538],[0.14,6.505],[0.133,6.45],[0.138,6.366],[0.103,6.338],[0.081,6.353],[0.073,6.404],[0.041,6.405],[-0.011,6.379],[-0.033,6.408],[-0.06,6.452],[-0.099,6.49],[-0.175,6.533],[-0.255,6.585],[-0.324,6.622],[-0.428,6.668],[-0.55,6.717],[-0.634,6.753],[-0.674,6.802],[-0.684,6.834],[-0.66,6.836],[-0.616,6.807],[-0.58,6.785],[-0.551,6.811],[-0.518,6.794],[-0.491,6.737],[-0.467,6.723],[-0.442,6.727],[-0.419,6.731],[-0.409,6.766],[-0.406,6.816],[-0.393,6.828],[-0.368,6.773],[-0.335,6.716],[-0.305,6.717],[-0.271,6.722],[-0.228,6.734],[-0.194,6.741],[-0.175,6.724],[-0.163,6.686],[-0.144,6.648],[-0.096,6.629],[-0.057,6.63],[-0.041,6.677],[-0.026,6.72],[-0.017,6.733],[-0.023,6.748],[-0.049,6.769],[-0.067,6.789],[-0.071,6.809],[-0.066,6.825],[-0.042,6.847],[-0.011,6.853],[0.012,6.845],[0.03,6.85],[0.077,6.87],[0.112,6.897],[0.104,6.91],[0.059,6.914],[0.042,6.946],[0.087,6.974],[0.12,6.971],[0.123,6.983],[0.099,7.004],[0.088,7.023],[0.093,7.037],[0.101,7.053],[0.098,7.08],[0.086,7.121],[0.085,7.147],[0.066,7.151],[0.045,7.164],[0.028,7.176],[0.01,7.187],[0.007,7.209],[0.015,7.211],[0.035,7.2],[0.063,7.195],[0.083,7.194],[0.099,7.193],[0.118,7.203],[0.142,7.222],[0.153,7.241],[0.16,7.252],[0.174,7.252],[0.184,7.266],[0.184,7.287],[0.172,7.304],[0.156,7.309],[0.135,7.313],[0.102,7.343],[0.068,7.393],[0.05,7.432],[0.051,7.449],[0.047,7.46],[0.046,7.478],[-0.002,7.5],[-0.063,7.508],[-0.058,7.466],[-0.066,7.444],[-0.107,7.458],[-0.128,7.472],[-0.136,7.496],[-0.157,7.51],[-0.207,7.512],[-0.242,7.517],[-0.232,7.532],[-0.208,7.546],[-0.169,7.55],[-0.134,7.553],[-0.105,7.551],[-0.071,7.549],[-0.027,7.546],[0.012,7.543],[-0.018,7.592],[-0.064,7.641],[-0.11,7.645],[-0.182,7.647],[-0.242,7.639],[-0.336,7.618],[-0.432,7.594],[-0.475,7.589],[-0.498,7.597],[-0.531,7.576],[-0.603,7.554],[-0.654,7.551],[-0.611,7.567],[-0.543,7.6],[-0.483,7.625],[-0.422,7.649],[-0.357,7.664],[-0.294,7.667],[-0.262,7.684],[-0.256,7.706],[-0.254,7.72],[-0.21,7.714],[-0.161,7.721],[-0.125,7.74],[-0.098,7.746],[-0.1,7.755],[-0.134,7.767],[-0.157,7.779],[-0.159,7.794],[-0.152,7.813],[-0.152,7.841],[-0.17,7.89],[-0.186,7.927],[-0.192,7.955],[-0.224,7.977],[-0.285,8.015],[-0.315,8.04],[-0.344,8.038],[-0.351,8.002],[-0.384,7.98],[-0.417,7.972],[-0.394,8.0],[-0.379,8.048],[-0.415,8.079],[-0.446,8.091],[-0.498,8.057],[-0.527,8.062],[-0.526,8.128],[-0.543,8.154],[-0.561,8.134],[-0.591,8.1],[-0.624,8.085],[-0.643,8.087],[-0.643,8.106],[-0.693,8.11],[-0.756,8.102],[-0.761,8.118],[-0.748,8.135],[-0.721,8.135],[-0.655,8.142],[-0.604,8.159],[-0.6,8.173],[-0.621,8.191],[-0.676,8.239],[-0.724,8.28],[-0.754,8.297],[-0.795,8.315],[-0.801,8.334],[-0.784,8.366],[-0.838,8.447],[-0.912,8.555],[-0.965,8.604],[-0.999,8.63],[-1.041,8.646],[-1.087,8.64],[-1.128,8.632],[-1.141,8.595],[-1.153,8.551],[-1.18,8.604],[-1.219,8.658],[-1.254,8.668],[-1.304,8.697],[-1.351,8.724],[-1.405,8.739],[-1.443,8.731],[-1.488,8.697],[-1.545,8.664],[-1.605,8.644],[-1.664,8.629],[-1.715,8.63],[-1.663,8.673],[-1.591,8.695],[-1.519,8.731],[-1.466,8.761],[-1.412,8.781],[-1.376,8.805],[-1.355,8.792],[-1.294,8.75],[-1.269,8.726],[-1.126,8.705],[-1.062,8.722],[-1.067,8.75],[-1.096,8.784],[-1.134,8.813],[-1.145,8.874],[-1.174,8.945],[-1.179,8.979],[-1.178,9.027],[-1.174,9.074],[-1.152,9.117],[-1.13,9.076],[-1.127,9.028],[-1.125,8.981],[-1.121,8.929],[-1.106,8.897],[-1.075,8.853],[-1.045,8.843],[-1.026,8.844],[-0.997,8.775],[-0.931,8.653],[-0.873,8.586],[-0.843,8.579],[-0.817,8.6],[-0.818,8.65],[-0.823,8.707],[-0.809,8.743],[-0.791,8.761],[-0.782,8.756],[-0.795,8.721],[-0.806,8.689],[-0.77,8.656],[-0.722,8.639],[-0.705,8.643],[-0.707,8.625],[-0.757,8.578],[-0.805,8.52],[-0.797,8.497],[-0.782,8.469],[-0.721,8.402],[-0.66,8.357],[-0.627,8.329],[-0.594,8.288],[-0.566,8.275],[-0.554,8.251],[-0.527,8.232],[-0.485,8.209],[-0.449,8.209],[-0.394,8.221],[-0.355,8.243],[-0.318,8.244],[-0.286,8.253],[-0.245,8.245],[-0.202,8.213],[-0.193,8.186],[-0.257,8.185],[-0.321,8.177],[-0.33,8.158],[-0.308,8.142],[-0.263,8.108],[-0.19,8.053],[-0.128,8.011],[-0.103,7.976],[-0.082,7.876],[-0.052,7.811],[-0.024,7.793],[0.002,7.793],[0.019,7.789],[0.055,7.792],[0.07,7.821],[0.058,7.863],[0.056,7.886],[0.059,7.92],[0.073,7.969],[0.079,8.003],[0.062,8.041],[0.07,8.081],[0.099,8.093],[0.129,8.086],[0.154,8.078],[0.17,8.086],[0.165,8.115],[0.152,8.161],[0.123,8.21],[0.105,8.242],[0.137,8.254],[0.169,8.289],[0.198,8.338],[0.217,8.363],[0.161,8.381],[0.092,8.403],[0.081,8.429],[0.093,8.461],[0.091,8.5],[0.085,8.548],[0.106,8.583],[0.135,8.598],[0.15,8.633],[0.16,8.7],[0.184,8.742],[0.198,8.738],[0.185,8.69],[0.168,8.625],[0.152,8.592],[0.128,8.574],[0.121,8.518],[0.113,8.457],[0.103,8.434],[0.115,8.416],[0.178,8.399],[0.242,8.379],[0.261,8.355],[0.28,8.341],[0.294,8.334],[0.284,8.327],[0.242,8.322],[0.214,8.314],[0.217,8.296],[0.19,8.251],[0.184,8.206],[0.201,8.166],[0.231,8.125],[0.268,8.106],[0.267,8.094],[0.24,8.088],[0.198,8.079],[0.161,8.06],[0.146,8.021],[0.121,7.972],[0.108,7.939],[0.124,7.913],[0.146,7.894],[0.168,7.863],[0.221,7.883],[0.258,7.905],[0.251,7.876],[0.252,7.863],[0.248,7.849],[0.237,7.834],[0.248,7.803],[0.278,7.762],[0.279,7.699],[0.281,7.617],[0.282,7.575],[0.259,7.581],[0.24,7.578],[0.228,7.556],[0.229,7.536],[0.242,7.511],[0.25,7.491],[0.285,7.515],[0.32,7.542],[0.313,7.506],[0.302,7.47],[0.297,7.453],[0.295,7.416],[0.287,7.382],[0.276,7.353],[0.277,7.339],[0.277,7.33],[0.292,7.303],[0.294,7.278],[0.276,7.258],[0.272,7.234],[0.279,7.218],[0.281,7.201],[0.279,7.182],[0.276,7.172],[0.271,7.138],[0.289,7.106],[0.305,7.099],[0.3,7.071],[0.281,7.047],[0.273,7.001],[0.263,6.948],[0.24,6.896],[0.237,6.768],[0.254,6.673],[0.272,6.675]],[[0.13,6.679],[0.13,6.679],[0.13,6.679],[0.181,6.726],[0.159,6.767],[0.115,6.796],[0.062,6.808],[0.017,6.779],[0.011,6.718],[0.049,6.695],[0.09,6.659],[0.13,6.679]]]}},{"type":"Feature","properties":{"name":"South Aral Sea"},"geometry":{"type":"Polygon","coordinates":[[[58.312,45.062],[58.372,45.131],[58.417,45.291],[58.549,45.408],[58.574,45.532],[58.638,45.59],[58.653,45.722],[58.712,45.835],[58.838,45.834],[58.814,45.882],[58.849,45.918],[59.06,45.895],[59.079,45.943],[59.179,45.926],[59.24,45.994],[59.303,46.002],[59.244,45.892],[59.105,45.897],[58.914,45.795],[58.869,45.596],[58.766,45.563],[58.672,45.46],[58.629,45.264],[58.682,45.13],[58.547,45.008],[58.588,44.99],[58.567,44.915],[58.624,44.818],[58.563,44.772],[58.524,44.569],[58.483,44.504],[58.364,44.425],[58.26,44.431],[58.235,44.461],[58.237,44.524],[58.321,44.603],[58.221,44.847],[58.312,45.062]]]}},{"type":"Feature","properties":{"name":"North Aral Sea"},"geometry":{"type":"Polygon","coordinates":[[[60.783,46.086],[60.752,46.118],[60.825,46.201],[60.722,46.374],[60.58,46.293],[60.348,46.403],[60.133,46.357],[59.988,46.438],[60.002,46.572],[60.287,46.7],[60.368,46.617],[60.401,46.509],[60.41,46.504],[60.42,46.508],[60.453,46.618],[60.459,46.623],[60.471,46.622],[60.58,46.563],[60.741,46.627],[60.746,46.639],[60.745,46.653],[60.526,46.751],[60.525,46.777],[60.58,46.784],[60.811,46.747],[60.776,46.581],[60.892,46.473],[61.134,46.45],[61.256,46.493],[61.264,46.5],[61.265,46.513],[61.203,46.577],[61.297,46.611],[61.315,46.648],[61.528,46.677],[61.45,46.584],[61.37,46.528],[61.283,46.448],[61.3,46.385],[61.217,46.237],[60.977,46.17],[60.862,46.09],[60.783,46.086]]]}},{"type":"Feature","properties":{"name":"Barsakelmes Lake"},"geometry":{"type":"Polygon","coordinates":[[[59.729,46.083],[59.592,46.209],[59.504,46.319],[59.731,46.322],[59.785,46.284],[59.813,46.124],[59.729,46.083]]]}},{"type":"Feature","properties":{"name":"Lake Balkhash"},"geometry":{"type":"Polygon","coordinates":[[[78.991,46.749],[78.991,46.749],[78.991,46.749],[78.991,46.749],[79.019,46.768],[79.022,46.795],[79.052,46.808],[79.084,46.81],[79.122,46.799],[79.177,46.764],[79.222,46.72],[79.245,46.68],[79.245,46.645],[79.236,46.634],[79.217,46.61],[79.157,46.603],[79.095,46.582],[79.068,46.526],[79.023,46.447],[78.971,46.406],[78.89,46.37],[78.787,46.385],[78.711,46.396],[78.625,46.38],[78.544,46.401],[78.465,46.392],[78.438,46.377],[78.435,46.352],[78.462,46.313],[78.445,46.297],[78.409,46.299],[78.367,46.339],[78.317,46.35],[78.233,46.337],[78.161,46.319],[78.128,46.319],[78.075,46.328],[78.018,46.343],[77.865,46.429],[77.817,46.439],[77.781,46.423],[77.726,46.407],[77.652,46.415],[77.563,46.435],[77.429,46.5],[77.355,46.502],[77.282,46.473],[77.165,46.489],[77.104,46.454],[77.004,46.464],[76.853,46.492],[76.742,46.532],[76.464,46.542],[76.238,46.555],[76.176,46.532],[76.033,46.512],[75.909,46.536],[75.867,46.536],[75.715,46.516],[75.611,46.507],[75.558,46.53],[75.515,46.567],[75.492,46.596],[75.49,46.631],[75.508,46.636],[75.548,46.634],[75.562,46.646],[75.56,46.653],[75.553,46.673],[75.509,46.678],[75.463,46.671],[75.417,46.641],[75.404,46.61],[75.432,46.542],[75.448,46.498],[75.406,46.471],[75.35,46.47],[75.33,46.513],[75.304,46.519],[75.278,46.515],[75.256,46.474],[75.241,46.448],[75.212,46.427],[75.152,46.438],[75.121,46.446],[75.093,46.461],[75.067,46.451],[75.013,46.417],[74.911,46.405],[74.888,46.377],[74.857,46.294],[74.815,46.216],[74.794,46.13],[74.771,46.108],[74.599,46.022],[74.55,46.006],[74.37,46.02],[74.278,46.004],[74.258,45.977],[74.253,45.942],[74.303,45.79],[74.289,45.765],[74.251,45.761],[74.243,45.752],[74.245,45.74],[74.311,45.695],[74.313,45.671],[74.289,45.651],[74.231,45.615],[74.101,45.537],[74.089,45.509],[74.083,45.352],[74.087,45.344],[74.128,45.337],[74.151,45.317],[74.156,45.271],[74.143,45.103],[74.136,45.07],[74.101,45.059],[74.094,45.04],[74.12,45.0],[74.1,44.989],[74.056,44.994],[74.017,45.013],[74.01,45.034],[74.016,45.056],[73.993,45.112],[74.008,45.147],[73.999,45.189],[73.981,45.204],[73.877,45.239],[73.84,45.264],[73.663,45.436],[73.615,45.513],[73.465,45.582],[73.437,45.609],[73.444,45.657],[73.494,45.687],[73.532,45.734],[73.519,45.763],[73.451,45.78],[73.44,45.806],[73.463,45.826],[73.488,45.831],[73.56,45.816],[73.633,45.907],[73.715,45.983],[73.737,46.013],[73.663,46.062],[73.654,46.093],[73.646,46.15],[73.679,46.183],[73.752,46.203],[73.775,46.206],[73.829,46.185],[73.898,46.208],[73.982,46.186],[74.021,46.205],[74.027,46.222],[73.95,46.288],[74.023,46.369],[74.094,46.428],[74.28,46.47],[74.375,46.518],[74.43,46.578],[74.524,46.623],[74.553,46.69],[74.625,46.752],[74.804,46.781],[74.939,46.817],[74.974,46.814],[75.089,46.814],[75.163,46.775],[75.201,46.759],[75.338,46.73],[75.427,46.737],[75.826,46.818],[75.951,46.795],[76.203,46.78],[76.298,46.753],[76.336,46.729],[76.405,46.662],[76.45,46.641],[76.496,46.636],[76.6,46.665],[76.668,46.673],[76.7,46.667],[76.793,46.631],[76.859,46.644],[77.082,46.625],[77.175,46.556],[77.226,46.567],[77.266,46.611],[77.37,46.623],[77.602,46.64],[77.645,46.656],[77.69,46.659],[77.86,46.648],[78.136,46.595],[78.169,46.58],[78.297,46.469],[78.324,46.482],[78.348,46.512],[78.359,46.623],[78.368,46.643],[78.397,46.658],[78.433,46.652],[78.452,46.618],[78.476,46.625],[78.504,46.665],[78.551,46.707],[78.581,46.723],[78.63,46.747],[78.761,46.724],[78.784,46.735],[78.787,46.755],[78.793,46.78],[78.823,46.795],[78.868,46.799],[78.93,46.788],[78.991,46.749]]]}},{"type":"Feature","properties":{"name":"Syvash"},"geometry":{"type":"Polygon","coordinates":[[[35.399,45.255],[35.276,45.302],[35.089,45.358],[35.062,45.379],[35.043,45.402],[35.04,45.429],[35.08,45.499],[35.052,45.565],[35.024,45.604],[35.0,45.631],[34.882,45.687],[34.834,45.725],[34.762,45.743],[34.743,45.786],[34.683,45.804],[34.676,45.819],[34.645,45.837],[34.495,45.785],[34.495,45.803],[34.618,45.915],[34.619,45.935],[34.608,45.944],[34.568,45.952],[34.525,45.907],[34.497,45.899],[34.46,45.917],[34.412,45.89],[34.39,45.888],[34.38,45.901],[34.388,45.95],[34.382,45.979],[34.362,46.0],[34.271,46.027],[34.227,46.021],[34.19,46.03],[34.182,46.016],[34.187,45.977],[34.187,45.956],[34.164,45.944],[34.14,45.963],[34.133,46.01],[34.121,46.026],[34.072,46.059],[33.998,46.072],[33.978,46.052],[33.96,46.04],[33.924,46.039],[33.885,46.06],[33.831,46.143],[33.815,46.142],[33.771,46.133],[33.708,46.182],[33.696,46.2],[33.704,46.215],[33.728,46.228],[33.778,46.234],[33.848,46.231],[33.922,46.213],[34.03,46.157],[34.078,46.142],[34.107,46.144],[34.103,46.182],[34.112,46.193],[34.13,46.19],[34.147,46.191],[34.164,46.203],[34.158,46.248],[34.159,46.267],[34.175,46.266],[34.236,46.214],[34.27,46.191],[34.298,46.181],[34.312,46.18],[34.329,46.19],[34.544,46.161],[34.555,46.138],[34.548,46.115],[34.492,46.113],[34.469,46.101],[34.429,46.022],[34.443,45.999],[34.479,45.983],[34.523,45.988],[34.588,46.021],[34.64,46.153],[34.667,46.173],[34.716,46.165],[34.754,46.131],[34.755,46.113],[34.718,46.09],[34.713,46.053],[34.74,46.035],[34.789,46.024],[34.816,45.959],[34.84,45.843],[34.909,45.793],[35.032,45.638],[35.182,45.472],[35.3,45.364],[35.426,45.295],[35.439,45.275],[35.399,45.255],[35.399,45.255],[35.399,45.255]]]}},{"type":"Feature","properties":{"name":"Kakhovka Reservoir"},"geometry":{"type":"Polygon","coordinates":[[[35.302,47.492],[35.269,47.45],[35.213,47.45],[35.049,47.428],[34.961,47.406],[34.808,47.463],[34.592,47.52],[34.419,47.487],[34.19,47.42],[34.177,47.389],[34.183,47.346],[34.173,47.325],[34.097,47.316],[33.904,47.159],[33.718,46.941],[33.7,46.899],[33.687,46.861],[33.559,46.822],[33.54,46.831],[33.576,46.883],[33.63,47.034],[33.655,47.05],[33.667,47.042],[33.705,47.061],[33.761,47.119],[33.777,47.163],[33.835,47.212],[33.933,47.282],[33.963,47.331],[33.965,47.359],[33.947,47.451],[33.936,47.541],[33.984,47.556],[34.067,47.558],[34.148,47.542],[34.211,47.536],[34.24,47.575],[34.266,47.59],[34.316,47.567],[34.38,47.558],[34.436,47.569],[34.487,47.593],[34.731,47.578],[34.997,47.588],[35.088,47.676],[35.086,47.824],[35.106,47.842],[35.13,47.84],[35.242,47.647],[35.302,47.492],[35.302,47.492],[35.302,47.492]]]}},{"type":"Feature","properties":{"name":"Lake Nasser"},"geometry":{"type":"Polygon","coordinates":[[[32.234,22.674],[32.167,22.68],[32.127,22.688],[32.096,22.683],[32.056,22.665],[32.02,22.634],[31.986,22.6],[31.962,22.573],[31.953,22.535],[31.936,22.481],[31.897,22.441],[31.855,22.415],[31.831,22.381],[31.826,22.351],[31.791,22.358],[31.746,22.363],[31.714,22.351],[31.694,22.334],[31.679,22.327],[31.664,22.322],[31.645,22.312],[31.64,22.297],[31.648,22.273],[31.625,22.242],[31.552,22.209],[31.487,22.159],[31.441,22.102],[31.412,22.057],[31.391,21.984],[31.355,21.881],[31.319,21.812],[31.295,21.785],[31.257,21.764],[31.203,21.709],[31.156,21.649],[31.124,21.612],[31.091,21.609],[31.112,21.671],[31.169,21.749],[31.236,21.848],[31.303,21.932],[31.336,22.01],[31.372,22.103],[31.45,22.21],[31.593,22.339],[31.684,22.43],[31.704,22.453],[31.74,22.47],[31.785,22.483],[31.752,22.535],[31.679,22.604],[31.676,22.626],[31.729,22.603],[31.794,22.569],[31.824,22.565],[31.841,22.583],[31.864,22.614],[31.884,22.639],[31.911,22.661],[31.965,22.698],[32.024,22.734],[32.061,22.752],[32.088,22.764],[32.132,22.781],[32.167,22.788],[32.191,22.779],[32.222,22.769],[32.292,22.723],[32.337,22.691],[32.413,22.694],[32.501,22.758],[32.526,22.795],[32.542,22.829],[32.562,22.899],[32.582,22.929],[32.614,22.968],[32.636,23.004],[32.667,23.078],[32.7,23.151],[32.739,23.229],[32.788,23.273],[32.819,23.278],[32.833,23.293],[32.843,23.318],[32.856,23.342],[32.851,23.382],[32.853,23.438],[32.841,23.483],[32.787,23.503],[32.743,23.516],[32.706,23.493],[32.661,23.472],[32.622,23.477],[32.599,23.496],[32.65,23.534],[32.707,23.57],[32.697,23.587],[32.676,23.594],[32.661,23.58],[32.646,23.567],[32.624,23.587],[32.655,23.633],[32.739,23.624],[32.798,23.584],[32.834,23.619],[32.854,23.677],[32.843,23.708],[32.848,23.733],[32.87,23.76],[32.873,23.792],[32.863,23.829],[32.828,23.873],[32.823,23.91],[32.879,23.988],[32.933,23.941],[32.945,23.791],[32.986,23.695],[32.981,23.655],[32.951,23.643],[32.921,23.634],[32.909,23.61],[32.911,23.584],[32.924,23.567],[32.941,23.563],[32.951,23.555],[32.988,23.53],[33.005,23.509],[32.951,23.509],[32.922,23.485],[32.944,23.43],[32.979,23.396],[32.99,23.371],[32.995,23.337],[33.006,23.3],[33.007,23.26],[33.007,23.237],[32.995,23.231],[32.957,23.241],[32.921,23.249],[32.929,23.204],[32.911,23.161],[32.865,23.156],[32.853,23.142],[32.855,23.117],[32.869,23.088],[32.907,23.051],[32.944,23.004],[32.99,22.955],[32.972,22.935],[32.859,22.978],[32.785,23.039],[32.744,23.033],[32.739,23.008],[32.722,22.972],[32.705,22.947],[32.69,22.938],[32.66,22.922],[32.632,22.906],[32.618,22.896],[32.611,22.869],[32.607,22.823],[32.586,22.783],[32.516,22.725],[32.429,22.651],[32.368,22.604],[32.332,22.581],[32.328,22.55],[32.297,22.531],[32.254,22.536],[32.248,22.547],[32.27,22.564],[32.299,22.592],[32.296,22.612],[32.279,22.623],[32.256,22.642],[32.238,22.659],[32.234,22.674],[32.234,22.674],[32.234,22.674],[32.234,22.674]]]}},{"type":"Feature","properties":{"name":"Lake Volta"},"geometry":{"type":"Polygon","coordinates":[[[0.272,6.675],[0.272,6.675],[0.272,6.675],[0.299,6.719],[0.317,6.738],[0.309,6.698],[0.276,6.648],[0.23,6.616],[0.192,6.607],[0.172,6.615],[0.16,6.618],[0.152,6.611],[0.154,6.597],[0.151,6.57],[0.147,6.538],[0.14,6.505],[0.133,6.45],[0.138,6.366],[0.103,6.338],[0.081,6.353],[0.073,6.404],[0.041,6.405],[-0.011,6.379],[-0.033,6.408],[-0.06,6.452],[-0.099,6.49],[-0.175,6.533],[-0.255,6.585],[-0.324,6.622],[-0.428,6.668],[-0.55,6.717],[-0.634,6.753],[-0.674,6.802],[-0.684,6.834],[-0.66,6.836],[-0.616,6.807],[-0.58,6.785],[-0.551,6.811],[-0.518,6.794],[-0.491,6.737],[-0.467,6.723],[-0.442,6.727],[-0.419,6.731],[-0.409,6.766],[-0.406,6.816],[-0.393,6.828],[-0.368,6.773],[-0.335,6.716],[-0.305,6.717],[-0.271,6.722],[-0.228,6.734],[-0.194,6.741],[-0.175,6.724],[-0.163,6.686],[-0.144,6.648],[-0.096,6.629],[-0.057,6.63],[-0.041,6.677],[-0.026,6.72],[-0.017,6.733],[-0.023,6.748],[-0.049,6.769],[-0.067,6.789],[-0.071,6.809],[-0.066,6.825],[-0.042,6.847],[-0.011,6.853],[0.012,6.845],[0.03,6.85],[0.077,6.87],[0.112,6.897],[0.104,6.91],[0.059,6.914],[0.042,6.946],[0.087,6.974],[0.12,6.971],[0.123,6.983],[0.099,7.004],[0.088,7.023],[0.093,7.037],[0.101,7.053],[0.098,7.08],[0.086,7.121],[0.085,7.147],[0.066,7.151],[0.045,7.164],[0.028,7.176],[0.01,7.187],[0.007,7.209],[0.015,7.211],[0.035,7.2],[0.063,7.195],[0.083,7.194],[0.099,7.193],[0.118,7.203],[0.142,7.222],[0.153,7.241],[0.16,7.252],[0.174,7.252],[0.184,7.266],[0.184,7.287],[0.172,7.304],[0.156,7.309],[0.135,7.313],[0.102,7.343],[0.068,7.393],[0.05,7.432],[0.051,7.449],[0.047,7.46],[0.046,7.478],[-0.002,7.5],[-0.063,7.508],[-0.058,7.466],[-0.066,7.444],[-0.107,7.458],[-0.128,7.472],[-0.136,7.496],[-0.157,7.51],[-0.207,7.512],[-0.242,7.517],[-0.232,7.532],[-0.208,7.546],[-0.169,7.55],[-0.134,7.553],[-0.105,7.551],[-0.071,7.549],[-0.027,7.546],[0.012,7.543],[-0.018,7.592],[-0.064,7.641],[-0.11,7.645],[-0.182,7.647],[-0.242,7.639],[-0.336,7.618],[-0.432,7.594],[-0.475,7.589],[-0.498,7.597],[-0.531,7.576],[-0.603,7.554],[-0.654,7.551],[-0.611,7.567],[-0.543,7.6],[-0.483,7.625],[-0.422,7.649],[-0.357,7.664],[-0.294,7.667],[-0.262,7.684],[-0.256,7.706],[-0.254,7.72],[-0.21,7.714],[-0.161,7.721],[-0.125,7.74],[-0.098,7.746],[-0.1,7.755],[-0.134,7.767],[-0.157,7.779],[-0.159,7.794],[-0.152,7.813],[-0.152,7.841],[-0.17,7.89],[-0.186,7.927],[-0.192,7.955],[-0.224,7.977],[-0.285,8.015],[-0.315,8.04],[-0.344,8.038],[-0.351,8.002],[-0.384,7.98],[-0.417,7.972],[-0.394,8.0],[-0.379,8.048],[-0.415,8.079],[-0.446,8.091],[-0.498,8.057],[-0.527,8.062],[-0.526,8.128],[-0.543,8.154],[-0.561,8.134],[-0.591,8.1],[-0.624,8.085],[-0.643,8.087],[-0.643,8.106],[-0.693,8.11],[-0.756,8.102],[-0.761,8.118],[-0.748,8.135],[-0.721,8.135],[-0.655,8.142],[-0.604,8.159],[-0.6,8.173],[-0.621,8.191],[-0.676,8.239],[-0.724,8.28],[-0.754,8.297],[-0.795,8.315],[-0.801,8.334],[-0.784,8.366],[-0.838,8.447],[-0.912,8.555],[-0.965,8.604],[-0.999,8.63],[-1.041,8.646],[-1.087,8.64],[-1.128,8.632],[-1.141,8.595],[-1.153,8.551],[-1.18,8.604],[-1.219,8.658],[-1.254,8.668],[-1.304,8.697],[-1.351,8.724],[-1.405,8.739],[-1.443,8.731],[-1.488,8.697],[-1.545,8.664],[-1.605,8.644],[-1.664,8.629],[-1.715,8.63],[-1.663,8.673],[-1.591,8.695],[-1.519,8.731],[-1.466,8.761],[-1.412,8.781],[-1.376,8.805],[-1.355,8.792],[-1.294,8.75],[-1.269,8.726],[-1.126,8.705],[-1.062,8.722],[-1.067,8.75],[-1.096,8.784],[-1.134,8.813],[-1.145,8.874],[-1.174,8.945],[-1.179,8.979],[-1.178,9.027],[-1.174,9.074],[-1.152,9.117],[-1.13,9.076],[-1.127,9.028],[-1.125,8.981],[-1.121,8.929],[-1.106,8.897],[-1.075,8.853],[-1.045,8.843],[-1.026,8.844],[-0.997,8.775],[-0.931,8.653],[-0.873,8.586],[-0.843,8.579],[-0.817,8.6],[-0.818,8.65],[-0.823,8.707],[-0.809,8.743],[-0.791,8.761],[-0.782,8.756],[-0.795,8.721],[-0.806,8.689],[-0.77,8.656],[-0.722,8.639],[-0.705,8.643],[-0.707,8.625],[-0.757,8.578],[-0.805,8.52],[-0.797,8.497],[-0.782,8.469],[-0.721,8.402],[-0.66,8.357],[-0.627,8.329],[-0.594,8.288],[-0.566,8.275],[-0.554,8.251],[-0.527,8.232],[-0.485,8.209],[-0.449,8.209],[-0.394,8.221],[-0.355,8.243],[-0.318,8.244],[-0.286,8.253],[-0.245,8.245],[-0.202,8.213],[-0.193,8.186],[-0.257,8.185],[-0.321,8.177],[-0.33,8.158],[-0.308,8.142],[-0.263,8.108],[-0.19,8.053],[-0.128,8.011],[-0.103,7.976],[-0.082,7.876],[-0.052,7.811],[-0.024,7.793],[0.002,7.793],[0.019,7.789],[0.055,7.792],[0.07,7.821],[0.058,7.863],[0.056,7.886],[0.059,7.92],[0.073,7.969],[0.079,8.003],[0.062,8.041],[0.07,8.081],[0.099,8.093],[0.129,8.086],[0.154,8.078],[0.17,8.086],[0.165,8.115],[0.152,8.161],[0.123,8.21],[0.105,8.242],[0.137,8.254],[0.169,8.289],[0.198,8.338],[0.217,8.363],[0.161,8.381],[0.092,8.403],[0.081,8.429],[0.093,8.461],[0.091,8.5],[0.085,8.548],[0.106,8.583],[0.135,8.598],[0.15,8.633],[0.16,8.7],[0.184,8.742],[0.198,8.738],[0.185,8.69],[0.168,8.625],[0.152,8.592],[0.128,8.574],[0.121,8.518],[0.113,8.457],[0.103,8.434],[0.115,8.416],[0.178,8.399],[0.242,8.379],[0.261,8.355],[0.28,8.341],[0.294,8.334],[0.284,8.327],[0.242,8.322],[0.214,8.314],[0.217,8.296],[0.19,8.251],[0.184,8.206],[0.201,8.166],[0.231,8.125],[0.268,8.106],[0.267,8.094],[0.24,8.088],[0.198,8.079],[0.161,8.06],[0.146,8.021],[0.121,7.972],[0.108,7.939],[0.124,7.913],[0.146,7.894],[0.168,7.863],[0.221,7.883],[0.258,7.905],[0.251,7.876],[0.252,7.863],[0.248,7.849],[0.237,7.834],[0.248,7.803],[0.278,7.762],[0.279,7.699],[0.281,7.617],[0.282,7.575],[0.259,7.581],[0.24,7.578],[0.228,7.556],[0.229,7.536],[0.242,7.511],[0.25,7.491],[0.285,7.515],[0.32,7.542],[0.313,7.506],[0.302,7.47],[0.297,7.453],[0.295,7.416],[0.287,7.382],[0.276,7.353],[0.277,7.339],[0.277,7.33],[0.292,7.303],[0.294,7.278],[0.276,7.258],[0.272,7.234],[0.279,7.218],[0.281,7.201],[0.279,7.182],[0.276,7.172],[0.271,7.138],[0.289,7.106],[0.305,7.099],[0.3,7.071],[0.281,7.047],[0.273,7.001],[0.263,6.948],[0.24,6.896],[0.237,6.768],[0.254,6.673],[0.272,6.675]],[[0.13,6.679],[0.13,6.679],[0.13,6.679],[0.181,6.726],[0.159,6.767],[0.115,6.796],[0.062,6.808],[0.017,6.779],[0.011,6.718],[0.049,6.695],[0.09,6.659],[0.13,6.679]]]}},{"type":"Feature","properties":{"name":"Lake Habbaniyah"},"geometry":{"type":"Polygon","coordinates":[[[43.595,33.306],[43.595,33.306],[43.595,33.306],[43.595,33.306],[43.566,33.219],[43.483,33.19],[43.434,33.199],[43.402,33.257],[43.304,33.309],[43.309,33.349],[43.382,33.435],[43.428,33.39],[43.477,33.338],[43.554,33.348],[43.595,33.306]]]}},{"type":"Feature","properties":{"name":"Lake Skadar"},"geometry":{"type":"Polygon","coordinates":[[[19.293,42.265],[19.293,42.265],[19.293,42.265],[19.293,42.265],[19.364,42.29],[19.392,42.228],[19.451,42.157],[19.481,42.108],[19.467,42.079],[19.394,42.088],[19.216,42.158],[19.099,42.278],[19.175,42.277],[19.293,42.265]]]}},{"type":"Feature","properties":{},"geometry":{"type":"Polygon","coordinates":[[[9.128,47.671],[9.128,47.671],[9.128,47.671],[8.881,47.656],[8.948,47.686],[8.981,47.702],[8.977,47.73],[8.999,47.752],[9.094,47.716],[9.128,47.671]]]}},{"type":"Feature","properties":{"name":"Shardara B\u00f6geni"},"geometry":{"type":"Polygon","coordinates":[[[67.991,41.255],[67.991,41.255],[67.991,41.255],[67.991,41.255],[68.162,41.2],[68.243,41.189],[68.393,41.161],[68.456,41.107],[68.403,41.078],[68.28,41.052],[68.135,41.048],[68.024,41.099],[67.933,41.225],[67.991,41.255]]]}},{"type":"Feature","properties":{},"geometry":{"type":"Polygon","coordinates":[[[76.169,31.9],[76.169,31.9],[76.169,31.9],[76.169,31.9],[76.082,31.909],[75.975,31.972],[75.938,32.061],[75.936,32.139],[75.983,32.153],[76.095,32.073],[76.171,31.962],[76.169,31.9]]]}},{"type":"Feature","properties":{"name":"Banggong Co"},"geometry":{"type":"Polygon","coordinates":[[[78.443,33.939],[78.443,33.939],[78.443,33.939],[78.443,33.939],[78.49,33.974],[78.658,33.816],[78.758,33.747],[78.961,33.741],[78.976,33.723],[78.914,33.697],[78.734,33.677],[78.553,33.851],[78.443,33.939]]]}}]}