{"type":"FeatureCollection","features":[{"type":"Feature","properties":{"name":"Abay"},"geometry":{"type":"MultiLineString","coordinates":[[[37.113,11.855],[37.15,11.894],[37.197,11.906],[37.264,11.903],[37.32,11.834],[37.387,11.632]]]}},{"type":"Feature","properties":{"name":"Al Furat"},"geometry":{"type":"MultiLineString","coordinates":[[[38.561,35.863],[38.365,35.903],[38.246,35.951],[38.139,36.02],[38.079,36.074],[38.066,36.114],[38.092,36.167],[38.157,36.232],[38.188,36.284],[38.184,36.342]]]}},{"type":"Feature","properties":{"name":"Atbara"},"geometry":{"type":"MultiLineString","coordinates":[[[35.924,14.935],[35.9,14.863],[35.895,14.62]]]}},{"type":"Feature","properties":{"name":"Dniester"},"geometry":{"type":"MultiLineString","coordinates":[[[30.478,46.101],[30.311,46.233],[30.259,46.288],[30.269,46.32]]]}},{"type":"Feature","properties":{"name":"Dnipro"},"geometry":{"type":"MultiLineString","coordinates":[[[33.54,46.831],[33.606,46.869],[33.662,46.957],[33.739,47.05],[33.859,47.149],[33.976,47.307],[33.998,47.411],[34.155,47.49],[34.448,47.542],[34.712,47.553],[34.946,47.521],[35.088,47.528],[35.138,47.573],[35.149,47.657],[35.106,47.842]],[[33.194,49.094],[32.884,49.225],[32.603,49.302],[31.886,49.555]],[[31.44,50.0],[31.48,49.933],[31.486,49.871],[31.467,49.754]],[[30.508,51.217],[30.478,50.904],[30.479,50.749],[30.515,50.597]]]}},{"type":"Feature","properties":{"name":"Don"},"geometry":{"type":"MultiLineString","coordinates":[[[42.11,47.602],[42.303,47.661],[42.484,47.728],[42.663,47.794],[42.832,47.838],[42.881,47.885],[42.927,47.961],[43.042,48.186],[43.132,48.294],[43.237,48.389],[43.459,48.539],[43.528,48.614],[43.522,48.653],[43.481,48.699],[43.465,48.737],[43.474,48.769],[43.522,48.821],[43.606,48.892],[43.69,48.929],[43.773,48.931],[43.844,48.949],[43.896,48.968],[43.923,49.01],[43.938,49.072],[43.985,49.136],[43.956,49.186],[43.905,49.204],[43.785,49.203],[43.749,49.207],[43.708,49.25],[43.7,49.328],[43.659,49.402],[43.602,49.486],[43.549,49.507]]]}},{"type":"Feature","properties":{"name":"El Bahr el Azraq"},"geometry":{"type":"MultiLineString","coordinates":[[[34.38,11.783],[34.409,11.639],[34.509,11.517],[34.778,11.296]]]}},{"type":"Feature","properties":{"name":"Firat"},"geometry":{"type":"MultiLineString","coordinates":[[[38.768,38.813],[38.813,38.875],[38.74,39.078]]]}},{"type":"Feature","properties":{"name":"Indus"},"geometry":{"type":"MultiLineString","coordinates":[[[72.782,34.623],[72.835,34.371],[72.848,34.258],[72.838,34.198],[72.802,34.148],[72.707,34.086]]]}},{"type":"Feature","properties":{"name":"Jordan"},"geometry":{"type":"MultiLineString","coordinates":[[[35.423,31.325],[35.465,31.562],[35.499,31.672],[35.559,31.766]],[[35.599,32.9],[35.577,32.72]]]}},{"type":"Feature","properties":{"name":"Krishna"},"geometry":{"type":"MultiLineString","coordinates":[[[78.997,16.23],[79.157,16.235],[79.211,16.301],[79.213,16.429],[79.238,16.515],[79.313,16.579]]]}},{"type":"Feature","properties":{"name":"Nakanb\u00e9"},"geometry":{"type":"MultiLineString","coordinates":[[[-0.974,8.661],[-1.111,8.856],[-1.155,8.97],[-1.152,9.117]]]}},{"type":"Feature","properties":{"name":"Naryn"},"geometry":{"type":"MultiLineString","coordinates":[[[73.3,41.776],[72.932,41.79],[72.771,41.762],[72.654,41.667]]]}},{"type":"Feature","properties":{"name":"Niger"},"geometry":{"type":"MultiLineString","coordinates":[[[4.626,9.865],[4.529,10.239],[4.537,10.425],[4.657,10.609]],[[-3.98,15.281],[-4.166,15.365],[-4.247,15.421],[-4.304,15.507]]]}},{"type":"Feature","properties":{"name":"Nile"},"geometry":{"type":"MultiLineString","coordinates":[[[32.879,23.988],[32.909,23.808],[32.903,23.696],[32.872,23.591],[32.878,23.481],[32.903,23.415],[32.914,23.332],[32.855,23.208],[32.68,23.009],[32.587,22.876],[32.576,22.806],[32.514,22.74],[32.418,22.672],[32.326,22.653],[32.232,22.718],[32.137,22.733],[32.042,22.699],[31.961,22.63],[31.894,22.526],[31.735,22.395],[31.544,22.252],[31.4,22.093],[31.362,21.98],[31.28,21.845],[31.091,21.609]]]}},{"type":"Feature","properties":{"name":"Rhein"},"geometry":{"type":"MultiLineString","coordinates":[[[9.128,47.671],[8.881,47.656]],[[9.183,47.671],[9.554,47.511]]]}},{"type":"Feature","properties":{"name":"Rh\u00f4ne"},"geometry":{"type":"MultiLineString","coordinates":[[[6.133,46.205],[6.235,46.333],[6.322,46.394],[6.429,46.431],[6.578,46.437],[6.866,46.403]]]}},{"type":"Feature","properties":{"name":"Suez Canal"},"geometry":{"type":"MultiLineString","coordinates":[[[32.561,30.181],[32.36,30.424]]]}},{"type":"Feature","properties":{"name":"Sutlej"},"geometry":{"type":"MultiLineString","coordinates":[[[81.295,30.792],[81.199,30.852]],[[76.765,31.409],[76.744,31.334],[76.715,31.298],[76.671,31.278],[76.596,31.306],[76.435,31.422]]]}},{"type":"Feature","properties":{"name":"Syr Darya"},"geometry":{"type":"MultiLineString","coordinates":[[[70.355,40.435],[70.319,40.371],[70.186,40.331],[69.827,40.273]],[[68.456,41.107],[68.173,41.13],[68.05,41.165],[68.003,41.212],[67.991,41.255]],[[61.76,46.021],[61.562,46.11]]]}},{"type":"Feature","properties":{"name":"Tajo"},"geometry":{"type":"MultiLineString","coordinates":[[[-5.996,39.852],[-5.851,39.807],[-5.656,39.797],[-5.215,39.812]],[[-2.734,40.528],[-2.577,40.724]]]}},{"type":"Feature","properties":{"name":"Abay"},"geometry":{"type":"MultiLineString","coordinates":[[[37.179,11.036],[37.022,11.192],[36.981,11.287],[37.015,11.416],[37.05,11.58],[37.097,11.656],[37.167,11.7],[37.18,11.755],[37.113,11.855]]]}},{"type":"Feature","properties":{"name":"Abay"},"geometry":{"type":"MultiLineString","coordinates":[[[37.387,11.634],[37.393,11.571],[37.45,11.534],[37.56,11.504],[37.68,11.421],[37.812,11.288],[38.019,11.186],[38.302,11.116],[38.462,11.037],[38.5,10.949],[38.514,10.772],[38.503,10.505],[38.478,10.314],[38.439,10.199],[38.376,10.136],[38.289,10.123],[38.11,10.048],[37.839,9.911],[37.66,9.884],[37.574,9.966],[37.49,10.021],[37.409,10.049],[37.354,10.052],[37.328,10.032],[37.308,10.04],[37.296,10.076],[37.263,10.105],[37.212,10.125],[37.189,10.164],[37.194,10.224],[37.159,10.266],[37.046,10.303],[36.677,10.36],[36.541,10.404],[36.514,10.453],[36.483,10.469],[36.45,10.454],[36.395,10.375],[36.32,10.232],[36.207,10.155],[36.055,10.143],[35.957,10.111],[35.912,10.058],[35.849,10.036],[35.768,10.044],[35.726,10.03],[35.724,10.009],[35.72,9.998],[35.706,9.996],[35.628,10.017],[35.369,10.14],[35.353,10.155]]]}},{"type":"Feature","properties":{"name":"Al Furat"},"geometry":{"type":"MultiLineString","coordinates":[[[38.56,35.863],[38.916,35.913],[39.227,35.881],[39.613,35.784],[39.833,35.683],[39.889,35.579],[40.004,35.473],[40.179,35.363],[40.263,35.298],[40.257,35.277],[40.294,35.253],[40.377,35.225],[40.424,35.167],[40.438,35.079],[40.475,35.016],[40.535,34.978],[40.584,34.918],[40.62,34.837],[40.711,34.752],[40.855,34.663],[40.928,34.581],[40.93,34.506],[40.946,34.458],[40.993,34.428]],[[38.026,36.836],[38.056,36.741],[38.103,36.694],[38.174,36.663],[38.231,36.618],[38.272,36.558],[38.266,36.482],[38.184,36.342]]]}},{"type":"Feature","properties":{"name":"Amu  Darya"},"geometry":{"type":"MultiLineString","coordinates":[[[68.212,37.022],[68.068,36.95],[67.958,36.972],[67.834,37.064],[67.766,37.14],[67.753,37.2],[67.7,37.227],[67.607,37.223],[67.547,37.236],[67.517,37.267],[67.442,37.258],[67.32,37.21],[67.195,37.235],[67.069,37.335],[66.828,37.371],[66.472,37.345],[66.108,37.415],[65.737,37.582],[65.48,37.68],[65.337,37.712],[65.22,37.797],[65.131,37.938],[64.907,38.088],[64.549,38.247],[64.272,38.432],[64.076,38.642],[63.953,38.8],[63.904,38.904],[63.724,39.049],[63.413,39.232],[63.198,39.33],[63.081,39.344],[63.014,39.4],[62.998,39.5],[62.897,39.608],[62.71,39.723],[62.573,39.845],[62.442,40.036],[62.375,40.332],[62.298,40.468],[62.188,40.541],[62.095,40.683],[62.018,40.894],[61.954,41.031],[61.903,41.094],[61.8,41.163],[61.645,41.24],[61.497,41.276],[61.357,41.272],[61.263,41.3],[61.215,41.36],[61.031,41.487],[60.71,41.68],[60.527,41.825],[60.482,41.919],[60.42,41.978],[60.343,42.0],[60.291,42.04],[60.266,42.1],[60.203,42.164],[60.102,42.232],[59.95,42.291],[59.745,42.341],[59.587,42.416],[59.475,42.516],[59.387,42.574],[59.322,42.591],[59.3,42.632],[59.319,42.697],[59.298,42.744],[59.236,42.772],[59.21,42.808],[59.222,42.852],[59.204,42.904],[59.156,42.966],[59.139,43.026],[59.153,43.084],[59.141,43.152],[59.103,43.23],[59.093,43.288],[59.097,43.294]],[[59.099,43.292],[59.097,43.294]],[[59.097,43.294],[59.112,43.326],[59.098,43.379],[59.052,43.446],[59.036,43.498],[59.05,43.533],[59.106,43.561],[59.204,43.581],[59.255,43.633],[59.26,43.716],[59.211,43.805],[59.107,43.901],[59.082,43.971],[59.134,44.016],[59.255,44.066],[59.541,44.148]],[[59.097,43.294],[59.005,43.423],[58.993,43.526],[59.032,43.643],[59.019,43.732],[58.952,43.792],[58.831,43.839],[58.655,43.872],[58.57,43.948],[58.575,44.067],[58.512,44.202],[58.316,44.426]]]}},{"type":"Feature","properties":{"name":"Atbara"},"geometry":{"type":"MultiLineString","coordinates":[[[35.583,16.0],[35.352,16.313],[35.273,16.445],[35.268,16.503],[35.19,16.632],[35.036,16.834],[34.955,16.963],[34.945,17.02],[34.767,17.138],[34.421,17.319],[34.228,17.453],[34.188,17.541],[34.122,17.606],[33.952,17.699]],[[35.586,16.004],[35.613,15.716],[35.714,15.469],[35.9,15.169],[35.95,15.045],[35.958,14.999],[35.924,14.935]]]}},{"type":"Feature","properties":{"name":"Bahr el  Zeraf"},"geometry":{"type":"MultiLineString","coordinates":[[[30.536,7.767],[30.621,8.031],[30.646,8.212],[30.641,8.4],[30.669,8.516],[30.731,8.56],[30.784,8.641],[30.829,8.758],[30.84,8.873],[30.819,8.986],[30.891,9.138],[31.139,9.426]]]}},{"type":"Feature","properties":{"name":"Bahr el Jebel"},"geometry":{"type":"MultiLineString","coordinates":[[[31.148,6.83],[30.922,6.983],[30.77,7.153],[30.617,7.39],[30.547,7.521],[30.56,7.545],[30.549,7.582],[30.512,7.632],[30.508,7.693],[30.536,7.765],[30.508,7.88],[30.426,8.037],[30.366,8.124],[30.329,8.141],[30.323,8.227],[30.348,8.383],[30.339,8.485],[30.296,8.534],[30.284,8.59],[30.301,8.654],[30.289,8.704],[30.248,8.742],[30.218,8.818],[30.2,8.933],[30.233,9.043],[30.316,9.147],[30.35,9.237],[30.333,9.311],[30.37,9.395],[30.46,9.489],[30.618,9.531],[30.846,9.52],[31.001,9.494],[31.125,9.433]]]}},{"type":"Feature","properties":{"name":"Benue"},"geometry":{"type":"MultiLineString","coordinates":[[[11.924,9.491],[11.783,9.497],[11.574,9.409],[11.249,9.23],[11.038,9.061],[10.941,8.901],[10.858,8.795],[10.788,8.745],[10.636,8.707],[10.401,8.684],[10.218,8.59],[10.086,8.427],[9.977,8.327],[9.847,8.272],[9.53,8.121],[9.395,8.039],[9.337,7.976],[9.141,7.892],[8.807,7.788],[8.437,7.799],[7.829,7.99],[7.422,8.019],[7.156,7.968],[6.776,7.793]]]}},{"type":"Feature","properties":{"name":"Borcea"},"geometry":{"type":"MultiLineString","coordinates":[[[27.267,44.138],[27.769,44.363],[27.93,44.486],[27.935,44.592],[27.922,44.67],[27.877,44.744]]]}},{"type":"Feature","properties":{"name":"Bratul Chillia"},"geometry":{"type":"MultiLineString","coordinates":[[[29.706,45.26],[29.652,45.314],[29.568,45.371],[29.404,45.42],[29.224,45.403],[29.027,45.321],[28.894,45.29],[28.824,45.311],[28.782,45.31],[28.767,45.286],[28.77,45.267],[28.791,45.252],[28.788,45.241],[28.761,45.234],[28.781,45.218],[28.883,45.18]]]}},{"type":"Feature","properties":{"name":"Bratul Sfintu Gheorghe"},"geometry":{"type":"MultiLineString","coordinates":[[[28.883,45.18],[29.075,45.1],[29.147,45.084],[29.175,45.089],[29.205,45.08],[29.276,45.007],[29.348,44.97],[29.42,44.97],[29.495,44.95],[29.605,44.915]]]}},{"type":"Feature","properties":{"name":"Bratul Sulina"},"geometry":{"type":"MultiLineString","coordinates":[[[28.883,45.18],[29.679,45.152]]]}},{"type":"Feature","properties":{"name":"B\u00e9nou\u00e9"},"geometry":{"type":"MultiLineString","coordinates":[[[13.524,7.777],[13.674,7.855],[13.717,7.922],[13.705,8.006],[13.736,8.071],[13.85,8.138],[13.96,8.24],[13.998,8.312],[13.999,8.388],[13.977,8.453],[13.93,8.506],[13.927,8.597],[13.966,8.726],[13.925,8.833],[13.801,8.917],[13.681,9.054],[13.565,9.244],[13.475,9.314],[13.412,9.264],[13.319,9.226],[13.197,9.199],[13.084,9.223],[12.927,9.335],[12.821,9.375],[12.717,9.351],[12.581,9.277],[12.456,9.307],[12.342,9.443],[12.195,9.506],[11.924,9.491]]]}},{"type":"Feature","properties":{"name":"Chari"},"geometry":{"type":"MultiLineString","coordinates":[[[18.886,8.836],[18.842,8.816],[18.76,8.844],[18.625,8.914],[18.476,9.041],[18.231,9.319],[17.791,9.722],[17.623,9.913],[17.582,10.026],[17.521,10.129],[17.372,10.296],[17.316,10.35],[17.248,10.388],[17.17,10.41],[17.104,10.456],[17.051,10.525],[17.004,10.564],[16.963,10.573],[16.876,10.548],[16.742,10.489],[16.611,10.481],[16.483,10.522],[16.34,10.598],[16.18,10.708],[16.017,10.773],[15.849,10.793],[15.711,10.834],[15.603,10.895],[15.521,10.957],[15.466,11.019],[15.433,11.105],[15.423,11.214],[15.386,11.344],[15.322,11.495],[15.301,11.638],[15.322,11.773],[15.283,11.895],[15.184,12.007],[15.075,12.085]],[[15.075,12.085],[14.95,12.043],[14.843,12.073],[14.692,12.144],[14.584,12.219],[14.519,12.298],[14.415,12.344],[14.273,12.357],[14.197,12.384],[14.176,12.471]],[[15.075,12.085],[14.957,12.13],[14.881,12.269],[14.847,12.502],[14.761,12.656],[14.623,12.73],[14.545,12.82],[14.516,12.98]]]}},{"type":"Feature","properties":{"name":"Chenab"},"geometry":{"type":"MultiLineString","coordinates":[[[72.139,31.183],[72.139,31.116],[72.103,31.048],[71.995,30.909],[71.771,30.614],[71.679,30.583],[71.577,30.508],[71.435,30.38],[71.316,30.206],[71.221,29.986],[71.173,29.829],[71.172,29.736],[71.131,29.649],[71.049,29.571],[71.017,29.505],[71.036,29.452],[71.035,29.392],[71.014,29.326],[70.987,29.275],[70.955,29.238],[70.912,29.221],[70.857,29.223],[70.797,29.178],[70.732,29.084],[70.684,29.037],[70.612,29.023]],[[77.436,32.293],[77.134,32.457],[76.94,32.593],[76.767,32.671],[76.552,32.736],[76.437,32.842],[76.423,32.989],[76.338,33.122],[76.182,33.243],[76.02,33.323],[75.854,33.363],[75.759,33.371],[75.737,33.347],[75.746,33.305],[75.788,33.246],[75.802,33.202],[75.788,33.171],[75.677,33.152],[75.468,33.144],[75.308,33.174],[75.198,33.241],[75.122,33.246],[75.08,33.191],[74.999,33.17],[74.879,33.186],[74.809,33.123],[74.789,32.982],[74.583,32.789],[74.188,32.542],[73.844,32.371],[73.548,32.275],[73.335,32.146],[73.139,31.902],[72.974,31.758],[72.854,31.699],[72.722,31.677],[72.582,31.622],[72.435,31.533],[72.334,31.457],[72.279,31.395],[72.247,31.328],[72.238,31.256],[72.21,31.211],[72.139,31.183]]]}},{"type":"Feature","properties":{"name":"Damietta Branch"},"geometry":{"type":"MultiLineString","coordinates":[[[31.163,30.151],[31.078,30.325],[31.107,30.419],[31.21,30.508],[31.25,30.623],[31.226,30.766],[31.224,30.869],[31.245,30.932],[31.31,31.019],[31.42,31.128],[31.509,31.186],[31.579,31.192],[31.671,31.278],[31.839,31.526]]]}},{"type":"Feature","properties":{"name":"Danube"},"geometry":{"type":"MultiLineString","coordinates":[[[17.206,48.061],[17.481,47.888],[17.635,47.81],[17.762,47.77],[18.146,47.763],[18.754,47.788],[18.795,47.809],[19.0,47.819],[19.071,47.807],[19.103,47.779],[19.123,47.731],[19.124,47.709],[19.073,47.552],[19.06,47.481],[19.03,47.413],[18.959,47.365],[18.907,47.26],[18.884,47.151],[18.928,47.083],[18.935,47.033],[18.94,47.0],[18.936,46.885],[18.945,46.804],[18.983,46.74],[18.966,46.685],[18.894,46.638],[18.874,46.586],[18.905,46.528],[18.919,46.423],[18.916,46.271],[18.859,46.151],[18.748,46.063],[18.727,46.014],[18.759,45.935],[18.839,45.836],[18.894,45.767],[18.947,45.656],[18.918,45.601],[18.954,45.558],[19.055,45.527],[19.064,45.515],[19.033,45.502],[19.008,45.466],[19.005,45.4],[19.093,45.337],[19.273,45.278],[19.475,45.243],[19.699,45.233],[19.828,45.241],[19.863,45.269],[19.907,45.259],[19.959,45.213],[20.045,45.186],[20.163,45.179],[20.253,45.15],[20.282,45.126],[20.315,45.099],[20.339,45.038],[20.326,44.969],[20.353,44.911],[20.421,44.864],[20.5,44.843],[20.591,44.847],[20.636,44.828],[20.634,44.786],[20.666,44.741],[20.731,44.693],[20.913,44.708],[21.36,44.827],[21.523,44.79],[21.597,44.755],[21.636,44.71],[21.74,44.681],[21.909,44.666],[22.027,44.62],[22.093,44.542],[22.201,44.561],[22.351,44.676],[22.498,44.706],[22.642,44.651],[22.721,44.606],[22.734,44.57],[22.701,44.556],[22.62,44.562],[22.554,44.54],[22.502,44.49],[22.495,44.435],[22.531,44.378],[22.582,44.338],[22.648,44.316],[22.683,44.286],[22.688,44.248],[22.775,44.195],[22.945,44.127],[23.028,44.078],[23.024,44.047],[22.985,44.017],[22.911,43.987],[22.868,43.948],[22.856,43.899],[22.868,43.865],[22.919,43.834],[23.225,43.874],[23.535,43.854],[23.951,43.787],[24.227,43.763],[24.431,43.794],[25.16,43.686],[25.497,43.671],[25.686,43.712],[25.819,43.767],[25.933,43.871],[26.216,44.007],[26.489,44.084],[26.848,44.146],[27.087,44.167],[27.222,44.143],[27.267,44.138],[27.338,44.133],[27.412,44.138],[27.594,44.179],[27.86,44.263],[28.022,44.343],[28.08,44.419],[28.083,44.476],[28.032,44.513],[28.013,44.558],[28.025,44.611],[27.992,44.664],[27.907,44.719],[27.877,44.744],[27.85,44.768],[27.83,44.796],[27.831,44.83],[27.863,44.865],[27.895,44.968],[27.926,45.139],[27.965,45.269],[28.011,45.358],[28.079,45.414],[28.212,45.45],[28.318,45.347],[28.451,45.292],[28.761,45.234]]]}},{"type":"Feature","properties":{"name":"Dicle"},"geometry":{"type":"MultiLineString","coordinates":[[[39.643,38.416],[40.018,38.348],[40.024,38.306],[40.068,38.269],[40.15,38.223],[40.178,38.179],[40.153,38.136],[40.171,38.106],[40.235,38.091],[40.262,38.023],[40.252,37.903],[40.427,37.832],[40.969,37.8],[41.155,37.757],[41.358,37.744],[41.64,37.746],[41.8,37.709],[41.84,37.632],[41.854,37.556],[41.841,37.481],[41.882,37.441],[41.979,37.435],[42.094,37.395],[42.226,37.322],[42.313,37.23],[42.377,37.062]]]}},{"type":"Feature","properties":{"name":"Dniester"},"geometry":{"type":"MultiLineString","coordinates":[[[30.478,46.101],[30.493,46.09]],[[22.847,49.267],[23.082,49.461],[23.388,49.554],[23.607,49.565],[23.841,49.524],[24.019,49.481],[24.139,49.436],[24.227,49.372],[24.281,49.29],[24.36,49.245],[24.466,49.237],[24.594,49.182],[24.745,49.08],[24.851,49.028],[24.912,49.026],[24.987,48.998],[25.122,48.918],[25.155,48.878],[25.185,48.882],[25.211,48.885],[25.23,48.864],[25.251,48.842],[25.302,48.842],[25.339,48.832],[25.398,48.845],[25.521,48.809],[25.668,48.689],[25.731,48.659],[25.781,48.66],[25.827,48.649],[25.894,48.608],[25.958,48.602],[26.005,48.614],[26.037,48.617],[26.072,48.572],[26.093,48.563],[26.13,48.572],[26.169,48.547],[26.253,48.529],[26.398,48.535],[26.498,48.517],[26.555,48.474],[26.591,48.466],[26.607,48.493],[26.639,48.504],[26.668,48.517],[26.694,48.539],[26.72,48.55],[26.759,48.562],[26.784,48.565],[26.804,48.579],[26.835,48.583],[26.884,48.558],[26.997,48.56],[27.272,48.601],[27.433,48.584],[27.48,48.51],[27.574,48.465],[27.714,48.449],[27.82,48.416],[27.891,48.365],[27.963,48.334],[28.038,48.321],[28.08,48.296],[28.088,48.257],[28.159,48.238],[28.291,48.239],[28.347,48.213],[28.327,48.161],[28.341,48.144],[28.388,48.162],[28.423,48.147],[28.442,48.109],[28.463,48.091],[28.496,48.096],[28.539,48.104],[28.574,48.069],[28.572,48.028],[28.604,48.009],[28.653,48.017],[28.766,47.987],[28.934,47.898],[29.01,47.796],[28.994,47.68],[29.017,47.583],[29.079,47.504],[29.103,47.45],[29.089,47.421],[29.103,47.392],[29.12,47.369],[29.116,47.341],[29.104,47.31],[29.154,47.235],[29.145,47.181],[29.132,47.153],[29.137,47.136],[29.172,47.136],[29.215,47.143],[29.265,47.146],[29.314,47.116],[29.359,47.066],[29.36,47.029],[29.317,47.005],[29.3,46.984],[29.311,46.967],[29.424,46.955],[29.472,46.912],[29.499,46.829],[29.537,46.801],[29.589,46.827],[29.635,46.813],[29.677,46.756],[29.69,46.715],[29.674,46.689],[29.693,46.665],[29.748,46.641],[29.763,46.62],[29.77,46.601],[29.805,46.581],[29.898,46.553],[30.131,46.423],[30.22,46.426],[30.254,46.401],[30.269,46.32]]]}},{"type":"Feature","properties":{"name":"Dnipro"},"geometry":{"type":"MultiLineString","coordinates":[[[32.578,46.616],[32.645,46.65],[32.934,46.717],[33.067,46.759],[33.237,46.777],[33.357,46.786],[33.451,46.809],[33.54,46.831]],[[35.105,47.84],[35.13,47.972],[35.118,48.038],[35.077,48.081],[35.087,48.108],[35.149,48.12],[35.185,48.15],[35.194,48.199],[35.17,48.28],[35.113,48.394],[34.959,48.477],[34.819,48.492],[34.708,48.53],[34.41,48.64],[34.225,48.736],[34.065,48.808],[33.717,48.942],[33.508,49.008],[33.363,49.065],[33.194,49.094]],[[31.888,49.554],[31.691,49.636],[31.462,49.757]],[[31.44,50.0],[31.244,49.979],[31.071,50.023],[30.856,50.126],[30.707,50.222],[30.625,50.312],[30.567,50.417],[30.515,50.597]],[[30.034,52.954],[30.081,52.809],[30.143,52.71],[30.222,52.658],[30.258,52.606],[30.252,52.555],[30.279,52.507],[30.342,52.462],[30.365,52.43],[30.351,52.409],[30.397,52.38],[30.503,52.342],[30.546,52.306],[30.525,52.272],[30.584,52.197],[30.722,52.08],[30.796,51.996],[30.805,51.944],[30.773,51.894],[30.699,51.844],[30.625,51.766],[30.551,51.658],[30.547,51.545],[30.612,51.427],[30.611,51.33],[30.508,51.217]]]}},{"type":"Feature","properties":{"name":"Don"},"geometry":{"type":"MultiLineString","coordinates":[[[42.11,47.602],[42.015,47.56],[41.853,47.564],[41.755,47.59],[41.593,47.599],[41.407,47.599],[41.295,47.564],[41.184,47.547],[41.073,47.549],[41.009,47.567],[40.993,47.601],[40.97,47.61],[40.926,47.586],[40.588,47.491],[40.412,47.401],[40.283,47.284],[40.112,47.222],[39.9,47.216],[39.689,47.187],[39.378,47.111],[39.293,47.106]],[[43.549,49.507],[43.379,49.487],[43.316,49.456],[43.302,49.408],[43.252,49.365],[43.165,49.329],[43.095,49.324],[43.042,49.351],[43.016,49.38],[43.017,49.412],[42.957,49.442],[42.835,49.472],[42.797,49.516],[42.77,49.573],[42.731,49.582],[42.647,49.567],[42.446,49.579],[42.297,49.599],[42.006,49.61],[41.833,49.597],[41.713,49.616],[41.467,49.613],[41.38,49.588],[41.314,49.587],[41.27,49.609],[41.261,49.63],[41.288,49.648],[41.279,49.683],[41.235,49.734],[41.14,49.77],[40.997,49.791],[40.921,49.827],[40.914,49.879],[40.89,49.922],[40.849,49.956],[40.778,49.964],[40.677,49.945],[40.644,49.953],[40.621,49.977],[40.596,50.027],[40.502,50.12],[40.432,50.139],[40.386,50.083],[40.322,50.065],[40.198,50.096],[40.04,50.103],[40.001,50.133],[40.03,50.186],[40.027,50.238],[39.99,50.289],[40.002,50.346],[40.064,50.408],[40.036,50.475],[39.92,50.547],[39.907,50.617],[39.879,50.65],[39.794,50.692],[39.757,50.733],[39.768,50.775],[39.794,50.797],[39.814,50.833],[39.789,50.874],[39.775,50.919],[39.778,50.952],[39.745,50.962],[39.677,50.955],[39.513,50.96],[39.266,50.987],[39.143,51.024],[39.144,51.071],[39.182,51.111],[39.256,51.142],[39.262,51.173],[39.199,51.203],[39.177,51.238],[39.16,51.294],[39.131,51.364],[39.052,51.43],[39.052,51.477],[39.059,51.507],[39.037,51.54],[39.018,51.568],[39.012,51.597],[39.038,51.626],[39.046,51.657],[39.035,51.69],[39.06,51.757],[39.122,51.859],[39.14,51.934],[39.133,52.012]],[[39.133,52.019],[39.152,52.052],[39.164,52.084],[39.154,52.125],[39.096,52.179],[38.99,52.248],[38.958,52.289],[38.958,52.327],[38.905,52.438],[38.931,52.576],[38.933,52.665],[38.911,52.703],[38.964,52.794],[39.093,52.938]]]}},{"type":"Feature","properties":{"name":"Donau"},"geometry":{"type":"MultiLineString","coordinates":[[[8.22,48.047],[8.49,47.931],[8.696,47.936],[8.836,47.976],[8.979,48.053],[9.132,48.086],[9.295,48.078],[9.421,48.116],[9.509,48.202],[9.589,48.244],[9.661,48.241],[9.784,48.289],[9.959,48.388],[10.127,48.453],[10.289,48.483],[10.385,48.516],[10.415,48.552],[10.524,48.607],[10.712,48.679],[11.025,48.735],[11.684,48.794],[11.766,48.871],[11.85,48.906],[11.964,48.925],[12.024,48.958],[12.033,49.027],[12.242,49.018],[12.361,48.992],[12.507,48.924]],[[17.206,48.061],[17.165,48.117],[17.111,48.146],[17.029,48.167],[16.878,48.172],[16.659,48.161],[16.486,48.213],[16.36,48.327],[16.209,48.38],[16.034,48.369],[15.861,48.379],[15.693,48.411],[15.573,48.424],[15.502,48.417],[15.431,48.371],[15.36,48.286],[15.265,48.229],[15.147,48.198],[15.036,48.198],[14.932,48.227],[14.829,48.227],[14.726,48.197],[14.583,48.219],[14.4,48.292],[14.243,48.328],[14.114,48.329],[14.037,48.352],[14.012,48.399],[13.872,48.462],[13.487,48.582],[13.316,48.602],[13.2,48.636],[13.081,48.691],[13.005,48.748],[12.972,48.806],[12.909,48.836],[12.816,48.836],[12.704,48.86],[12.507,48.931]]]}},{"type":"Feature","properties":{"name":"Drava"},"geometry":{"type":"MultiLineString","coordinates":[[[13.822,47.09],[14.367,47.147],[14.507,47.209],[14.62,47.224],[14.752,47.214],[14.861,47.245],[14.946,47.319],[15.062,47.371],[15.145,47.4],[15.208,47.402],[15.303,47.394],[15.346,47.347],[15.352,47.316],[15.323,47.3],[15.316,47.253],[15.329,47.174],[15.361,47.121],[15.413,47.095],[15.476,46.997],[15.56,46.831],[15.582,46.767],[15.63,46.736],[15.701,46.723],[16.042,46.663],[16.211,46.57],[16.321,46.535],[16.428,46.524],[16.57,46.485],[16.748,46.416],[16.871,46.339],[16.94,46.254],[17.033,46.187],[17.15,46.14],[17.242,46.077],[17.311,45.996],[17.406,45.951],[17.529,45.941],[17.607,45.914],[17.64,45.868],[17.706,45.827],[17.807,45.79],[17.964,45.77],[18.283,45.765],[18.551,45.627],[18.712,45.574],[18.954,45.558]]]}},{"type":"Feature","properties":{"name":"Duero"},"geometry":{"type":"MultiLineString","coordinates":[[[-2.837,41.928],[-2.542,41.85],[-2.444,41.797],[-2.445,41.743],[-2.424,41.688],[-2.357,41.605],[-2.498,41.521],[-2.617,41.505],[-2.76,41.528],[-2.866,41.529],[-2.935,41.508],[-3.038,41.524],[-3.176,41.578],[-3.411,41.633],[-3.743,41.688],[-3.941,41.693],[-4.002,41.649],[-4.146,41.631],[-4.372,41.64],[-4.682,41.592],[-5.075,41.489],[-5.307,41.464],[-5.378,41.516],[-5.518,41.527],[-5.726,41.498],[-5.838,41.492],[-5.888,41.474],[-5.971,41.49],[-6.092,41.543],[-6.178,41.55],[-6.244,41.516],[-6.289,41.455],[-6.403,41.375],[-6.566,41.304],[-6.69,41.214],[-6.776,41.108],[-6.883,41.062],[-7.011,41.079],[-7.085,41.113],[-7.103,41.166],[-7.244,41.189],[-7.651,41.181],[-8.235,41.092],[-8.425,41.084],[-8.555,41.128],[-8.675,41.154]]]}},{"type":"Feature","properties":{"name":"Ebro"},"geometry":{"type":"MultiLineString","coordinates":[[[-4.189,43.011],[-4.102,43.001],[-4.055,42.953],[-4.017,42.861],[-3.963,42.825],[-3.89,42.844],[-3.822,42.842],[-3.757,42.817],[-3.709,42.833],[-3.678,42.888],[-3.627,42.898],[-3.522,42.845],[-3.451,42.807],[-3.337,42.792],[-3.155,42.787],[-3.011,42.755],[-2.905,42.695],[-2.843,42.644],[-2.823,42.602],[-2.756,42.56],[-2.641,42.518],[-2.563,42.507],[-2.522,42.527],[-2.395,42.514],[-2.183,42.466],[-1.994,42.391],[-1.748,42.236],[-1.405,41.978],[-1.11,41.802],[-0.748,41.622],[-0.526,41.479],[-0.444,41.374],[-0.301,41.309],[-0.097,41.284],[0.04,41.306],[0.111,41.375],[0.167,41.411],[0.208,41.413],[0.263,41.399],[0.331,41.368],[0.362,41.328],[0.357,41.28],[0.364,41.256],[0.395,41.254],[0.525,41.249],[0.59,41.22],[0.632,41.165],[0.652,41.119],[0.652,41.083],[0.614,41.038],[0.538,40.982],[0.517,40.904],[0.551,40.802],[0.651,40.745],[0.891,40.722]]]}},{"type":"Feature","properties":{"name":"El Bahr el Abyad"},"geometry":{"type":"MultiLineString","coordinates":[[[31.125,9.433],[31.346,9.366],[31.453,9.354],[31.518,9.376],[31.581,9.445],[31.64,9.562],[31.746,9.657],[31.899,9.731],[32.036,9.834],[32.158,9.968],[32.235,10.072],[32.267,10.148],[32.27,10.246],[32.244,10.369],[32.201,10.435],[32.139,10.446],[32.108,10.471],[32.106,10.51],[32.24,10.656],[32.511,10.908],[32.645,11.103],[32.642,11.24],[32.673,11.414],[32.737,11.624],[32.764,11.795],[32.749,11.995],[32.73,12.19],[32.743,12.333],[32.783,12.489],[32.791,12.652],[32.765,12.822],[32.767,12.939],[32.796,13.004],[32.752,13.117],[32.635,13.277],[32.586,13.424],[32.604,13.559],[32.587,13.638],[32.535,13.662],[32.5,13.704],[32.481,13.764],[32.439,13.825],[32.373,13.886],[32.295,14.032],[32.205,14.264],[32.172,14.465],[32.196,14.637],[32.262,14.783],[32.37,14.902],[32.44,15.13],[32.49,15.635]]]}},{"type":"Feature","properties":{"name":"El Bahr el Azraq"},"geometry":{"type":"MultiLineString","coordinates":[[[35.353,10.155],[35.343,10.187],[35.293,10.411],[35.242,10.517],[35.147,10.573],[35.182,10.974],[35.161,11.14],[35.097,11.202],[34.993,11.249],[34.778,11.296]],[[34.38,11.783],[34.324,12.048],[34.317,12.194],[34.341,12.308],[34.301,12.403],[34.199,12.478],[34.157,12.534],[34.176,12.572],[34.175,12.637],[34.154,12.729],[34.117,12.804],[34.065,12.863],[34.04,12.872],[34.0,12.902],[33.981,12.958],[33.961,13.144],[33.93,13.258],[33.89,13.3],[33.828,13.325],[33.744,13.334],[33.692,13.381],[33.672,13.466],[33.639,13.53],[33.593,13.573],[33.582,13.619],[33.607,13.669],[33.602,13.708],[33.578,13.734],[33.581,13.756],[33.597,13.772],[33.599,13.793],[33.58,13.819],[33.574,13.839],[33.581,13.856],[33.596,13.867],[33.604,13.887],[33.591,13.937],[33.609,14.011],[33.657,14.109],[33.566,14.344],[33.337,14.716],[33.211,14.956],[33.189,15.064],[33.134,15.16],[33.046,15.244],[32.949,15.304],[32.842,15.339],[32.735,15.423],[32.628,15.553],[32.554,15.622],[32.49,15.635]]]}},{"type":"Feature","properties":{"name":"Euphrates"},"geometry":{"type":"MultiLineString","coordinates":[[[45.463,31.305],[45.541,31.229],[45.685,31.184],[45.922,31.146],[46.121,31.086],[46.363,30.965],[46.483,30.903],[46.58,30.902],[46.692,30.942],[46.886,30.959],[47.16,30.953],[47.331,30.967],[47.399,31.0],[47.442,31.004],[47.468,30.968]],[[40.993,34.428],[41.119,34.388],[41.177,34.393],[41.208,34.43],[41.276,34.443],[41.38,34.43],[41.43,34.436],[41.448,34.44],[41.471,34.449],[41.502,34.436],[41.591,34.448],[41.717,34.497],[41.827,34.509],[41.921,34.484],[41.99,34.446],[42.055,34.369],[42.122,34.302],[42.17,34.288],[42.22,34.306],[42.248,34.297],[42.263,34.29],[42.286,34.292],[42.303,34.334],[42.33,34.346],[42.366,34.329],[42.366,34.302],[42.331,34.264],[42.332,34.231],[42.369,34.205],[42.383,34.165],[42.375,34.114],[42.417,34.059],[42.447,34.041],[42.51,34.001],[42.551,33.944],[42.541,33.888],[42.563,33.87],[42.617,33.891],[42.673,33.89],[42.73,33.865],[42.748,33.82],[42.724,33.752],[42.767,33.671],[42.877,33.577],[42.965,33.521],[43.032,33.503],[43.079,33.505],[43.106,33.526],[43.155,33.515],[43.228,33.471],[43.288,33.455],[43.334,33.466],[43.454,33.442],[43.536,33.418],[43.65,33.384],[43.776,33.311],[43.832,33.226],[43.872,33.199],[43.905,33.199],[43.948,33.195],[44.029,33.16],[44.122,33.053],[44.254,32.828],[44.263,32.793],[44.264,32.727],[44.237,32.624],[44.255,32.496],[44.321,32.349],[44.355,32.235],[44.356,32.157],[44.387,32.072],[44.448,31.981],[44.477,31.878],[44.475,31.762],[44.548,31.648],[44.77,31.479],[45.042,31.441],[45.158,31.403],[45.209,31.352],[45.293,31.321],[45.467,31.305]]]}},{"type":"Feature","properties":{"name":"Ferenc Csatorna"},"geometry":{"type":"MultiLineString","coordinates":[[[18.92,46.267],[18.909,45.95],[18.905,45.932],[18.894,45.866],[18.839,45.836]]]}},{"type":"Feature","properties":{"name":"Firat"},"geometry":{"type":"MultiLineString","coordinates":[[[38.768,38.813],[38.555,38.768],[38.45,38.714],[38.383,38.635],[38.355,38.581],[38.367,38.551],[38.452,38.508],[38.61,38.45],[38.719,38.426],[38.78,38.435],[38.847,38.413],[38.921,38.358],[38.997,38.334],[39.075,38.34],[39.115,38.306],[39.115,38.23],[39.149,38.19],[39.218,38.183],[39.248,38.154],[39.239,38.102],[39.171,38.034],[39.042,37.949],[38.978,37.887],[38.978,37.849],[38.956,37.82],[38.949,37.797],[38.924,37.745],[38.841,37.713],[38.829,37.69],[38.838,37.666],[38.813,37.645],[38.701,37.631],[38.608,37.593],[38.533,37.532],[38.439,37.495],[38.328,37.483],[38.25,37.461],[38.207,37.429],[38.137,37.421],[38.039,37.437],[37.966,37.425],[37.92,37.384],[37.855,37.292],[37.848,37.217],[37.862,37.116],[37.897,37.061],[37.951,37.054],[37.991,36.996],[38.026,36.836]],[[41.455,40.18],[41.328,40.016],[40.985,39.944],[40.77,39.928],[40.569,39.945],[40.396,39.942],[40.251,39.919],[40.169,39.895],[40.15,39.869],[40.17,39.824],[40.23,39.76],[40.24,39.694],[40.203,39.626],[40.163,39.584],[40.122,39.568],[39.939,39.595],[39.613,39.666],[39.415,39.683],[39.343,39.648],[39.196,39.619],[38.976,39.594],[38.74,39.536],[38.488,39.445],[38.426,39.342],[38.555,39.229],[38.643,39.17],[38.689,39.167],[38.718,39.144],[38.74,39.078]]]}},{"type":"Feature","properties":{"name":"Ganges"},"geometry":{"type":"MultiLineString","coordinates":[[[79.841,30.888],[79.82,30.837],[79.829,30.787],[79.859,30.722],[79.865,30.679],[79.834,30.648],[79.745,30.543],[79.667,30.522],[79.571,30.55],[79.47,30.516],[79.313,30.372],[79.232,30.301],[79.159,30.285],[79.067,30.3],[78.939,30.292],[78.777,30.26],[78.669,30.201],[78.614,30.116],[78.52,30.09],[78.387,30.124],[78.281,30.093],[78.203,29.998],[78.17,29.889],[78.183,29.768],[78.139,29.673],[78.04,29.606],[78.022,29.492],[78.086,29.332],[78.106,29.181],[78.084,29.04],[78.098,28.882],[78.176,28.621],[78.242,28.522],[78.271,28.443],[78.284,28.352],[78.337,28.253],[78.43,28.146],[78.603,28.026],[78.855,27.893],[79.025,27.825],[79.112,27.82],[79.167,27.786],[79.192,27.723],[79.255,27.68],[79.358,27.658],[79.446,27.62],[79.519,27.568],[79.591,27.466],[79.662,27.316],[79.733,27.217],[79.838,27.145],[79.922,27.126],[79.998,27.025],[80.094,26.837],[80.238,26.648],[80.43,26.459],[80.544,26.317],[80.58,26.222],[80.652,26.138],[80.76,26.066],[80.869,26.038],[80.978,26.053],[81.123,25.989],[81.303,25.844],[81.395,25.746],[81.398,25.692],[81.458,25.646],[81.573,25.606],[81.649,25.564],[81.686,25.518],[81.756,25.499],[81.857,25.507],[81.907,25.487],[81.903,25.413],[82.042,25.312],[82.12,25.285],[82.183,25.296],[82.215,25.272],[82.217,25.259],[82.226,25.243],[82.239,25.241],[82.254,25.246],[82.274,25.262],[82.3,25.26],[82.318,25.23],[82.345,25.227],[82.38,25.249],[82.436,25.235],[82.513,25.184],[82.552,25.184],[82.563,25.203],[82.585,25.218],[82.62,25.22],[82.786,25.144],[82.879,25.142],[82.965,25.188],[83.017,25.239],[83.033,25.295],[83.074,25.33],[83.139,25.344],[83.159,25.377],[83.135,25.427],[83.139,25.472],[83.17,25.51],[83.242,25.519],[83.353,25.498],[83.44,25.466],[83.489,25.444],[83.513,25.462],[83.513,25.497],[83.518,25.534],[83.6,25.584],[83.67,25.607],[83.713,25.59],[83.752,25.542],[83.803,25.519],[83.866,25.522],[83.959,25.577],[84.082,25.683],[84.171,25.722],[84.226,25.694],[84.284,25.701],[84.343,25.744],[84.428,25.747],[84.54,25.711],[84.634,25.708],[84.711,25.738],[84.827,25.747],[84.981,25.734]]]}},{"type":"Feature","properties":{"name":"Ari\u00e8ge"},"geometry":{"type":"MultiLineString","coordinates":[[[1.809,42.627],[1.825,42.693],[1.791,42.732],[1.675,42.783],[1.616,42.856],[1.594,42.97],[1.587,43.149],[1.54,43.298],[1.454,43.415]]]}},{"type":"Feature","properties":{"name":"Gharraf Canal"},"geometry":{"type":"MultiLineString","coordinates":[[[45.809,32.502],[45.901,32.431],[45.928,32.377],[45.923,32.316],[45.943,32.264],[45.989,32.219],[45.998,32.133],[45.97,32.005],[45.986,31.922],[46.046,31.883],[46.089,31.773],[46.116,31.592],[46.154,31.457],[46.203,31.367],[46.276,31.282],[46.371,31.202],[46.405,31.112],[46.366,30.964]]]}},{"type":"Feature","properties":{"name":"God\u00e4vari"},"geometry":{"type":"MultiLineString","coordinates":[[[81.739,16.942],[81.833,16.669],[81.856,16.553],[81.839,16.503],[81.8,16.465],[81.736,16.441],[81.706,16.4],[81.712,16.334]],[[81.739,16.942],[81.888,16.777],[82.034,16.713],[82.339,16.707]],[[73.652,20.013],[73.889,19.99],[73.99,19.999],[74.035,20.031],[74.084,20.036],[74.163,20.003],[74.422,19.918],[74.589,19.835],[74.749,19.726],[74.917,19.652],[75.093,19.613],[75.197,19.579],[75.247,19.533],[75.473,19.425],[75.591,19.38],[75.678,19.362],[75.769,19.361],[75.846,19.376],[75.905,19.363],[75.917,19.326],[75.941,19.314],[75.987,19.333],[76.011,19.326],[76.027,19.31],[76.092,19.291],[76.319,19.257],[76.347,19.241],[76.353,19.202],[76.337,19.14],[76.347,19.124],[76.368,19.12],[76.396,19.111],[76.427,19.077],[76.473,19.073],[76.535,19.099],[76.582,19.086],[76.614,19.035],[76.657,19.002],[76.71,18.986],[76.748,18.996],[76.77,19.034],[76.856,19.07],[77.005,19.105],[77.093,19.108],[77.12,19.081],[77.196,19.089],[77.319,19.134],[77.405,19.12],[77.453,19.048],[77.579,18.966],[77.784,18.873],[77.968,18.87],[78.133,18.958],[78.235,18.984],[78.275,18.948],[78.319,18.946],[78.367,18.976],[78.429,18.98],[78.504,18.956],[78.575,18.966],[78.643,19.012],[78.701,19.027],[78.751,19.014],[78.835,19.026],[78.953,19.063],[79.05,19.033],[79.125,18.937],[79.201,18.871],[79.317,18.816],[79.401,18.843],[79.496,18.809],[79.631,18.723],[79.727,18.69],[79.785,18.711],[79.822,18.762],[79.874,18.802],[79.925,18.807],[80.029,18.744],[80.142,18.702],[80.244,18.709],[80.319,18.686],[80.366,18.632],[80.39,18.573],[80.389,18.509],[80.408,18.463],[80.447,18.434],[80.473,18.388],[80.485,18.324],[80.541,18.261],[80.688,18.166],[80.84,17.996],[80.892,17.865],[80.895,17.716],[80.986,17.622],[81.165,17.582],[81.267,17.543],[81.291,17.506],[81.352,17.482],[81.45,17.472],[81.528,17.448],[81.587,17.41],[81.647,17.279],[81.739,16.942]]]}},{"type":"Feature","properties":{"name":"Helmand"},"geometry":{"type":"MultiLineString","coordinates":[[[61.604,31.204],[61.754,31.014],[61.817,30.802],[61.842,30.506],[62.031,30.31],[62.383,30.216],[62.685,30.192],[62.937,30.238],[63.194,30.342],[63.457,30.503],[63.663,30.57],[63.812,30.543],[63.908,30.538],[63.949,30.557],[64.002,30.617],[64.065,30.719],[64.12,30.872],[64.166,31.075],[64.236,31.239],[64.328,31.366],[64.371,31.488],[64.366,31.578],[64.391,31.657],[64.455,31.728],[64.64,31.847],[64.801,31.999],[64.932,32.181],[65.064,32.289],[65.195,32.322],[65.332,32.486],[65.475,32.782],[65.62,32.964],[65.842,33.065],[65.937,33.121],[66.017,33.202],[66.114,33.326],[66.193,33.393],[66.255,33.402],[66.309,33.441],[66.356,33.509],[66.452,33.585],[66.599,33.668],[66.728,33.716],[66.84,33.731],[66.959,33.792],[67.086,33.898],[67.172,33.952],[67.216,33.953],[67.233,33.989],[67.222,34.057],[67.229,34.109],[67.266,34.157],[67.498,34.306],[67.734,34.395],[68.212,34.513],[68.307,34.493],[68.376,34.507],[68.489,34.572]]]}},{"type":"Feature","properties":{"name":"Indus"},"geometry":{"type":"MultiLineString","coordinates":[[[67.86,23.903],[67.925,24.001]],[[67.646,23.92],[67.711,23.957],[67.714,24.001],[67.713,24.066]],[[67.925,24.001],[68.0,24.007],[68.017,23.991],[68.025,23.934],[68.042,23.892],[68.037,23.848]],[[67.925,24.001],[67.924,24.056],[67.801,24.059],[67.76,24.053],[67.713,24.066]],[[67.713,24.066],[67.661,24.105]],[[79.735,32.444],[79.43,32.745]],[[79.437,32.738],[79.341,32.881],[79.22,32.996],[79.044,33.133],[78.907,33.189],[78.809,33.165],[78.64,33.208],[78.245,33.398],[78.183,33.445],[78.152,33.493],[78.15,33.542],[78.077,33.62],[77.931,33.727],[77.792,33.857],[77.66,34.011],[77.53,34.106],[77.339,34.16],[76.967,34.288],[76.782,34.386],[76.661,34.498],[76.529,34.583],[76.388,34.639],[76.285,34.708],[76.222,34.789],[76.196,34.861],[76.209,34.924],[76.142,35.008],[75.995,35.113],[75.902,35.21],[75.863,35.297],[75.791,35.335],[75.688,35.321],[75.568,35.357],[75.431,35.443],[75.353,35.511],[75.333,35.561],[75.264,35.59],[75.145,35.598],[75.001,35.632],[74.83,35.694],[74.74,35.753],[74.73,35.812],[74.701,35.836],[74.654,35.826],[74.631,35.748],[74.632,35.601],[74.575,35.5],[74.461,35.445],[74.342,35.415],[74.22,35.408],[74.058,35.436],[73.857,35.497],[73.645,35.531],[73.423,35.538],[73.302,35.471],[73.28,35.33],[73.175,35.204],[72.986,35.093],[72.885,35.004],[72.872,34.939],[72.895,34.886],[72.955,34.845],[72.945,34.809],[72.864,34.777],[72.814,34.726],[72.782,34.623]],[[72.707,34.086],[72.652,34.032],[72.592,34.015],[72.509,34.019],[72.411,34.0],[72.297,33.959],[72.239,33.895],[72.236,33.809],[72.197,33.772],[72.124,33.784],[72.071,33.779],[72.038,33.757],[71.986,33.665],[71.914,33.504],[71.839,33.406],[71.762,33.372],[71.722,33.274],[71.72,33.111],[71.651,32.994],[71.516,32.923],[71.425,32.838],[71.355,32.689],[71.344,32.484],[71.273,32.311],[71.07,31.999],[70.861,31.569],[70.801,31.3],[70.829,30.92],[70.77,30.811],[70.775,30.716],[70.824,30.6],[70.83,30.485],[70.793,30.372],[70.792,30.212],[70.827,30.004],[70.792,29.825],[70.688,29.676],[70.657,29.55],[70.699,29.45],[70.702,29.353],[70.666,29.261],[70.651,29.176],[70.657,29.098],[70.612,29.023],[70.515,28.952],[70.443,28.916],[70.397,28.915],[70.287,28.835],[70.115,28.677],[69.962,28.576],[69.829,28.531],[69.715,28.444],[69.621,28.315],[69.535,28.246],[69.458,28.237],[69.409,28.212],[69.389,28.172],[69.356,28.157],[69.311,28.165],[69.249,28.141],[69.171,28.085],[69.107,28.058],[69.059,28.061],[69.026,28.04],[69.008,27.995],[68.98,27.975],[68.942,27.981],[68.929,27.955],[68.943,27.897],[68.928,27.853],[68.883,27.823],[68.884,27.792],[68.932,27.761],[68.95,27.737],[68.938,27.719],[68.826,27.678],[68.762,27.698],[68.705,27.759],[68.669,27.771],[68.654,27.731],[68.573,27.688],[68.426,27.641],[68.337,27.603],[68.307,27.572],[68.3,27.511],[68.318,27.42],[68.297,27.371],[68.239,27.366],[68.194,27.342],[68.162,27.3],[68.16,27.263],[68.188,27.231],[68.175,27.208],[68.121,27.193],[68.099,27.163],[68.109,27.117],[68.063,27.062],[67.963,26.998],[67.911,26.91],[67.905,26.742],[67.891,26.487],[67.9,26.369],[67.926,26.302],[67.982,26.243],[68.068,26.192],[68.117,26.14],[68.13,26.088],[68.202,25.999],[68.332,25.873],[68.379,25.795],[68.341,25.765],[68.348,25.728],[68.4,25.684],[68.398,25.621],[68.342,25.539],[68.323,25.444],[68.34,25.334],[68.337,25.262],[68.313,25.226],[68.319,25.192],[68.353,25.158],[68.352,25.139],[68.314,25.132],[68.286,25.089],[68.269,25.009],[68.245,24.979],[68.214,24.997],[68.183,24.973],[68.155,24.907],[68.116,24.873],[68.068,24.87],[68.025,24.76],[67.986,24.544],[67.936,24.43],[67.874,24.418],[67.85,24.396],[67.863,24.363],[67.849,24.344],[67.806,24.339],[67.796,24.318],[67.818,24.282],[67.787,24.239],[67.702,24.191],[67.659,24.146],[67.659,24.104],[67.627,24.078],[67.532,24.061],[67.454,24.04]]]}},{"type":"Feature","properties":{"name":"Ismailiya Canal"},"geometry":{"type":"MultiLineString","coordinates":[[[31.238,30.121],[31.282,30.129],[31.324,30.18],[31.378,30.278],[31.483,30.379],[31.64,30.484],[31.865,30.551],[32.303,30.593]]]}},{"type":"Feature","properties":{"name":"Jordan"},"geometry":{"type":"MultiLineString","coordinates":[[[35.424,31.325],[35.401,31.23]],[[35.577,32.72],[35.551,32.396],[35.572,32.238],[35.535,32.103],[35.532,31.985],[35.559,31.766]],[[35.864,33.596],[35.696,33.431],[35.619,33.244],[35.595,33.111],[35.599,32.9]]]}},{"type":"Feature","properties":{"name":"Krishna"},"geometry":{"type":"MultiLineString","coordinates":[[[79.313,16.579],[79.657,16.69],[79.818,16.703],[79.912,16.655],[79.993,16.678],[80.063,16.773],[80.121,16.768],[80.169,16.664],[80.262,16.607],[80.401,16.597],[80.524,16.553],[80.63,16.475],[80.717,16.393],[80.784,16.307],[80.834,16.201],[80.883,16.014],[80.892,15.971],[80.892,15.866],[80.878,15.82],[80.865,15.782]],[[73.796,17.992],[73.898,17.931],[73.962,17.854],[74.054,17.686],[74.118,17.633],[74.127,17.579],[74.103,17.507],[74.121,17.423],[74.18,17.329],[74.204,17.255],[74.193,17.203],[74.232,17.157],[74.322,17.119],[74.369,17.083],[74.376,17.049],[74.396,17.034],[74.429,17.038],[74.457,17.016],[74.492,16.942],[74.537,16.858],[74.587,16.808],[74.659,16.766],[74.672,16.733],[74.628,16.711],[74.623,16.667],[74.66,16.602],[74.754,16.596],[74.907,16.649],[75.013,16.634],[75.075,16.552],[75.126,16.54],[75.167,16.598],[75.231,16.621],[75.317,16.608],[75.383,16.58],[75.429,16.536],[75.449,16.492],[75.443,16.448],[75.49,16.43],[75.591,16.441],[75.677,16.422],[75.749,16.373],[75.838,16.338],[75.943,16.317],[76.016,16.279],[76.059,16.225],[76.124,16.188],[76.213,16.167],[76.405,16.227],[76.699,16.368],[76.882,16.47],[76.954,16.534],[77.057,16.528],[77.259,16.415],[77.616,16.349],[77.845,16.232],[78.066,16.044],[78.193,15.956],[78.227,15.97],[78.244,15.992],[78.244,16.023],[78.283,16.05],[78.361,16.072],[78.498,16.071],[78.693,16.047],[78.805,16.064],[78.833,16.122],[78.884,16.171],[78.997,16.23]]]}},{"type":"Feature","properties":{"name":"Mouhoun"},"geometry":{"type":"MultiLineString","coordinates":[[[-5.263,11.139],[-5.185,11.124],[-5.126,11.154],[-5.059,11.224],[-4.99,11.264],[-4.879,11.282],[-4.715,11.406],[-4.639,11.432],[-4.596,11.402],[-4.539,11.413],[-4.469,11.467],[-4.382,11.507],[-4.277,11.533],[-4.124,11.697],[-3.922,11.998],[-3.82,12.176],[-3.815,12.232],[-3.784,12.296],[-3.725,12.366],[-3.666,12.401],[-3.607,12.402],[-3.569,12.477],[-3.55,12.628],[-3.511,12.715],[-3.45,12.738],[-3.406,12.72],[-3.379,12.663],[-3.336,12.645],[-3.278,12.666],[-3.249,12.64],[-3.248,12.567],[-3.208,12.5],[-3.126,12.44],[-3.023,12.397],[-2.899,12.372],[-2.849,12.339],[-2.875,12.298],[-2.864,12.235],[-2.816,12.151],[-2.824,12.098],[-2.886,12.075],[-2.896,12.019],[-2.853,11.927],[-2.854,11.861],[-2.901,11.819],[-2.883,11.779],[-2.802,11.743],[-2.79,11.606],[-2.849,11.369],[-2.858,11.242],[-2.817,11.226],[-2.804,11.165],[-2.83,11.008],[-2.907,10.728],[-2.915,10.592],[-2.878,10.508],[-2.837,10.455],[-2.791,10.432],[-2.787,10.402],[-2.823,10.363],[-2.82,10.323],[-2.777,10.282],[-2.767,10.238],[-2.788,10.193],[-2.783,10.083],[-2.751,9.91],[-2.75,9.797],[-2.781,9.746],[-2.766,9.658],[-2.706,9.534],[-2.686,9.432],[-2.706,9.351],[-2.702,9.302],[-2.674,9.283],[-2.689,9.219],[-2.747,9.11],[-2.747,9.045],[-2.69,9.025],[-2.649,8.957],[-2.625,8.84],[-2.557,8.731],[-2.446,8.631],[-2.364,8.514],[-2.311,8.38],[-2.247,8.274],[-2.17,8.196],[-2.087,8.16],[-2.0,8.166],[-1.935,8.192],[-1.892,8.237],[-1.845,8.255],[-1.793,8.244],[-1.768,8.26],[-1.77,8.304],[-1.797,8.328],[-1.851,8.333],[-1.887,8.357],[-1.904,8.398],[-1.899,8.47],[-1.871,8.572],[-1.821,8.625],[-1.713,8.631]]]}},{"type":"Feature","properties":{"name":"Nakanb\u00e9"},"geometry":{"type":"MultiLineString","coordinates":[[[-2.083,14.01],[-2.055,13.681],[-2.108,13.566],[-2.104,13.473],[-2.063,13.365],[-2.069,13.253],[-2.123,13.138],[-2.135,13.068],[-2.105,13.042],[-1.989,13.038],[-1.787,13.055],[-1.628,13.032],[-1.511,12.966],[-1.411,12.946],[-1.327,12.97],[-1.262,12.962],[-1.216,12.921],[-1.183,12.836],[-1.163,12.708],[-1.141,12.651],[-1.115,12.667],[-1.096,12.658],[-1.083,12.624],[-1.092,12.333],[-1.045,12.153],[-0.94,11.975],[-0.858,11.867],[-0.798,11.829],[-0.771,11.754],[-0.778,11.64],[-0.724,11.557],[-0.609,11.505],[-0.534,11.454],[-0.499,11.405],[-0.492,11.37],[-0.512,11.35],[-0.483,11.291],[-0.406,11.194],[-0.373,11.081],[-0.384,10.954],[-0.374,10.867],[-0.344,10.82],[-0.339,10.784],[-0.359,10.76],[-0.361,10.72],[-0.336,10.638],[-0.608,10.546],[-0.7,10.546],[-0.703,10.608],[-0.724,10.64],[-0.765,10.642],[-0.817,10.604],[-0.88,10.526],[-0.937,10.499],[-0.988,10.522],[-1.027,10.522],[-1.054,10.497],[-1.067,10.445],[-1.067,10.367],[-1.05,10.303],[-1.018,10.253],[-1.024,10.206],[-1.068,10.161],[-1.07,10.117],[-1.031,10.074],[-1.0,9.961],[-0.977,9.777],[-1.021,9.696],[-1.13,9.715],[-1.237,9.686],[-1.342,9.608],[-1.385,9.523],[-1.366,9.431],[-1.328,9.359],[-1.27,9.307],[-1.242,9.254],[-1.246,9.199],[-1.223,9.158],[-1.152,9.117]]]}},{"type":"Feature","properties":{"name":"Narmada"},"geometry":{"type":"MultiLineString","coordinates":[[[81.574,22.754],[81.28,22.877],[81.096,22.956],[81.027,22.969],[81.01,22.943],[80.973,22.936],[80.917,22.947],[80.877,22.979],[80.854,23.03],[80.832,23.04],[80.812,23.01],[80.732,22.985],[80.59,22.964],[80.509,22.925],[80.487,22.87],[80.484,22.788],[80.498,22.678],[80.486,22.611],[80.448,22.586],[80.411,22.584],[80.373,22.602],[80.333,22.658],[80.29,22.75],[80.217,22.79],[80.06,22.775],[79.963,22.852],[79.933,22.934],[79.938,23.047],[79.834,23.112],[79.622,23.129],[79.419,23.122],[79.224,23.091],[79.116,23.061],[79.096,23.03],[78.997,23.024],[78.82,23.04],[78.672,23.038],[78.553,23.016],[78.442,22.97],[78.338,22.899],[78.257,22.868],[78.2,22.878],[78.158,22.859],[78.133,22.812],[78.075,22.794],[77.984,22.803],[77.919,22.825],[77.88,22.857],[77.79,22.825],[77.65,22.729],[77.457,22.639],[77.086,22.514],[76.884,22.458],[76.803,22.407],[76.776,22.342],[76.714,22.289],[76.615,22.248],[76.53,22.254],[76.458,22.309],[76.306,22.299],[76.071,22.225],[75.608,22.146],[74.567,22.021],[74.466,22.035],[74.387,22.012],[74.295,21.957],[74.202,21.932],[74.108,21.938],[73.985,21.914],[73.832,21.862],[73.703,21.872],[73.596,21.944],[73.518,21.981],[73.469,21.985],[73.417,21.961],[73.363,21.911],[73.311,21.897],[73.258,21.919],[73.235,21.908],[73.242,21.866],[73.218,21.844],[73.163,21.844],[73.135,21.821],[73.137,21.783],[73.112,21.75]]]}},{"type":"Feature","properties":{"name":"Naryn"},"geometry":{"type":"MultiLineString","coordinates":[[[72.654,41.667],[72.349,41.497],[72.222,41.376],[72.171,41.246],[72.053,41.117],[71.87,40.988],[71.597,40.907],[71.234,40.872],[71.101,40.842],[71.062,40.822],[71.026,40.809],[70.965,40.796],[70.863,40.756],[70.698,40.661],[70.355,40.435]],[[77.737,41.88],[77.978,41.869],[78.019,41.836],[77.901,41.75],[77.763,41.624],[77.673,41.567],[77.586,41.536],[77.278,41.518],[76.75,41.51],[76.388,41.492],[76.092,41.449],[75.882,41.459],[75.747,41.442],[75.617,41.4],[75.478,41.397],[75.33,41.431],[75.066,41.446],[74.686,41.443],[74.436,41.424],[74.317,41.39],[74.18,41.4],[74.025,41.456],[73.946,41.519],[73.942,41.591],[73.922,41.649],[73.886,41.696],[73.797,41.74],[73.655,41.783],[73.513,41.797],[73.298,41.776]]]}},{"type":"Feature","properties":{"name":"Niger"},"geometry":{"type":"MultiLineString","coordinates":[[[6.266,4.991],[6.224,4.919],[6.131,4.844],[6.078,4.71],[6.055,4.42],[6.077,4.291]],[[6.266,4.991],[6.271,4.432]],[[6.455,5.363],[6.374,5.346],[6.302,5.316],[6.24,5.274],[6.21,5.235],[6.21,5.201],[6.17,5.164],[6.09,5.124],[5.992,5.13],[5.876,5.182],[5.738,5.191],[5.476,5.154]],[[6.455,5.363],[6.394,5.301],[6.349,5.256],[6.33,5.221],[6.333,5.196],[6.358,5.18],[6.354,5.153],[6.321,5.114],[6.292,5.095],[6.266,5.095],[6.257,5.061],[6.266,4.991]],[[6.557,5.542],[6.606,5.386],[6.587,5.301],[6.522,5.235],[6.474,5.156],[6.443,5.065],[6.461,5.003],[6.526,4.97],[6.573,4.908],[6.599,4.816],[6.643,4.729],[6.709,4.607],[6.715,4.501],[6.71,4.452],[6.71,4.425],[6.715,4.342]],[[-10.732,9.09],[-10.665,9.154],[-10.622,9.235],[-10.58,9.355],[-10.583,9.453],[-10.656,9.566],[-10.642,9.75],[-10.684,9.915],[-10.779,10.121],[-10.816,10.248],[-10.796,10.294],[-10.747,10.322],[-10.668,10.331],[-10.634,10.359],[-10.644,10.403],[-10.613,10.426],[-10.541,10.426],[-10.481,10.452],[-10.433,10.503],[-10.363,10.524],[-10.271,10.513],[-10.218,10.491],[-10.199,10.478],[-10.174,10.472],[-10.151,10.482],[-10.053,10.569],[-9.97,10.608],[-9.901,10.602],[-9.866,10.625],[-9.848,10.642],[-9.801,10.662],[-9.658,10.678],[-9.535,10.781],[-9.433,10.969],[-9.343,11.065],[-9.268,11.067],[-9.199,11.097],[-9.136,11.154],[-9.117,11.239],[-9.14,11.352],[-9.089,11.419],[-8.962,11.438],[-8.852,11.505],[-8.759,11.62],[-8.651,11.719],[-8.527,11.801],[-8.433,11.905],[-8.367,12.031],[-8.281,12.144],[-8.175,12.243],[-8.098,12.375],[-8.051,12.539],[-7.964,12.627],[-7.837,12.636],[-7.666,12.747],[-7.453,12.958],[-7.279,13.104],[-7.078,13.224],[-6.949,13.325],[-6.788,13.362],[-6.551,13.368],[-6.367,13.409],[-6.237,13.484],[-6.146,13.572],[-6.094,13.672],[-6.021,13.71],[-5.902,13.719],[-5.785,13.745],[-5.595,13.887],[-5.435,13.962],[-5.305,13.969],[-5.214,14.008],[-5.164,14.079],[-4.996,14.155],[-4.712,14.236],[-4.549,14.266],[-4.487,14.274],[-4.414,14.313],[-4.201,14.551],[-4.117,14.772],[-4.042,14.885],[-3.948,14.964],[-3.921,15.073],[-3.979,15.281],[-3.954,15.29],[-3.914,15.307],[-3.852,15.354],[-3.82,15.395],[-3.818,15.432],[-3.853,15.456],[-3.927,15.467],[-3.923,15.504],[-3.796,15.603],[-3.787,15.62],[-3.861,15.642],[-3.849,15.66],[-3.812,15.674],[-3.748,15.684],[-3.714,15.732],[-3.708,15.818],[-3.682,15.872],[-3.635,15.894],[-3.598,15.939],[-3.57,16.005],[-3.503,16.047]],[[4.626,9.865],[4.644,9.755],[4.631,9.669],[4.593,9.571],[4.586,9.473],[4.612,9.374],[4.654,9.312],[4.713,9.287],[4.75,9.243],[4.764,9.18],[4.83,9.161],[4.947,9.185],[5.057,9.15],[5.159,9.055],[5.292,8.989],[5.456,8.949],[5.604,8.883],[5.802,8.742],[6.02,8.754],[6.159,8.742],[6.291,8.71],[6.385,8.628],[6.438,8.497],[6.521,8.377],[6.633,8.268],[6.716,8.144],[6.771,8.006],[6.776,7.793],[6.71,7.362],[6.664,6.973],[6.66,6.743],[6.691,6.44],[6.741,6.202],[6.707,5.978],[6.556,5.541],[6.495,5.464],[6.48,5.422],[6.49,5.388],[6.455,5.363]],[[-4.304,15.507],[-4.338,15.621],[-4.317,15.683],[-4.252,15.732],[-4.208,15.793],[-4.185,15.865],[-4.138,15.892],[-4.066,15.873],[-3.961,15.925],[-3.824,16.047],[-3.689,16.113],[-3.556,16.123],[-3.467,16.161]],[[-3.503,16.047],[-3.467,16.161]],[[-3.467,16.161],[-3.424,16.226],[-3.379,16.261],[-3.333,16.266],[-3.31,16.292],[-3.31,16.337],[-3.263,16.386],[-3.222,16.408]],[[-3.222,16.408],[-3.189,16.3],[-3.187,16.253],[-3.206,16.225],[-3.234,16.207],[-3.271,16.199],[-3.302,16.163],[-3.329,16.101],[-3.396,16.062],[-3.503,16.047]],[[-3.222,16.408],[-3.167,16.438],[-3.106,16.511],[-3.08,16.606],[-3.028,16.65],[-2.948,16.643],[-2.743,16.69],[-2.411,16.792],[-2.197,16.837],[-2.101,16.826],[-2.043,16.835],[-2.023,16.864],[-1.897,16.915],[-1.664,16.988],[-1.448,17.035],[-1.25,17.057],[-1.118,17.048],[-1.052,17.009],[-0.965,16.995],[-0.857,17.008],[-0.77,16.993],[-0.705,16.95],[-0.601,16.938],[-0.457,16.955],[-0.346,16.873],[-0.269,16.691],[-0.203,16.577],[-0.148,16.533],[-0.089,16.426],[0.003,16.17],[0.144,15.983],[0.259,15.872],[0.397,15.775],[0.471,15.679],[0.481,15.585],[0.548,15.51],[0.672,15.456],[0.739,15.41],[0.749,15.371],[0.727,15.283],[0.675,15.144],[0.657,15.046],[0.675,14.988],[0.722,14.948],[0.799,14.926],[0.855,14.861],[0.891,14.751],[0.965,14.63],[1.076,14.498],[1.208,14.381],[1.362,14.28],[1.463,14.146],[1.512,13.98],[1.581,13.847],[1.671,13.747],[1.812,13.651],[2.004,13.558],[2.125,13.476],[2.174,13.402],[2.236,13.343],[2.31,13.299],[2.355,13.176],[2.37,12.976],[2.415,12.818],[2.49,12.704],[2.521,12.627],[2.508,12.59],[2.515,12.552],[2.54,12.529],[2.571,12.53],[2.597,12.552],[2.615,12.552],[2.626,12.531],[2.653,12.522],[2.692,12.53],[2.718,12.519],[2.736,12.468],[2.768,12.432],[2.815,12.419],[2.844,12.399],[3.15,12.118],[3.267,11.992],[3.299,11.927],[3.36,11.88],[3.45,11.852],[3.532,11.787],[3.595,11.696],[3.695,11.62],[3.851,11.57],[4.022,11.484],[4.133,11.391],[4.241,11.261],[4.368,11.17],[4.513,11.115],[4.62,11.045],[4.688,10.957],[4.705,10.837],[4.656,10.607]]]}},{"type":"Feature","properties":{"name":"Nile"},"geometry":{"type":"MultiLineString","coordinates":[[[32.49,15.635],[32.535,16.04],[32.629,16.256],[32.785,16.418],[32.929,16.508],[33.061,16.526],[33.165,16.566],[33.241,16.628],[33.359,16.686],[33.519,16.738],[33.635,16.825],[33.706,16.944],[33.732,17.029],[33.712,17.079],[33.715,17.151],[33.74,17.246],[33.81,17.379],[33.925,17.55],[33.952,17.699],[33.969,17.792],[33.942,18.107],[33.9,18.278],[33.845,18.305],[33.784,18.364],[33.718,18.455],[33.682,18.555],[33.675,18.662],[33.645,18.724],[33.59,18.741],[33.567,18.847],[33.574,19.043],[33.539,19.173],[33.463,19.237],[33.413,19.308],[33.38,19.423],[33.138,19.503],[33.018,19.511],[32.938,19.474],[32.838,19.383],[32.717,19.238],[32.62,19.161],[32.546,19.152],[32.468,19.083],[32.385,18.954],[32.306,18.89],[32.23,18.891],[32.153,18.865],[32.076,18.812],[32.039,18.743],[32.044,18.661],[32.005,18.606],[31.921,18.58],[31.8,18.452],[31.642,18.223],[31.474,18.077],[31.296,18.015],[31.146,18.002],[31.023,18.036],[30.911,18.087],[30.809,18.154],[30.744,18.257],[30.717,18.397],[30.674,18.499],[30.616,18.562],[30.562,18.66],[30.511,18.794],[30.486,18.988],[30.488,19.243],[30.458,19.471],[30.396,19.672],[30.35,19.786],[30.348,19.822],[30.37,19.857],[30.5,19.914],[30.575,19.967],[30.594,20.016],[30.6,20.098],[30.591,20.214],[30.571,20.291],[30.539,20.329],[30.49,20.351],[30.422,20.358],[30.366,20.417],[30.321,20.527],[30.317,20.616],[30.352,20.683],[30.363,20.735],[30.37,20.774],[30.397,20.805],[30.51,20.84],[30.576,20.9],[30.595,20.985],[30.632,21.044],[30.687,21.076],[30.709,21.121],[30.699,21.177],[30.763,21.249],[30.903,21.337],[30.97,21.399],[30.965,21.436],[30.994,21.493],[31.091,21.609]],[[32.879,23.988],[32.913,24.328],[32.913,24.454],[32.889,24.478],[32.892,24.54],[32.92,24.639],[32.921,24.77],[32.895,24.933],[32.871,25.037],[32.848,25.082],[32.767,25.149],[32.629,25.239],[32.54,25.35],[32.502,25.483],[32.493,25.565],[32.523,25.612],[32.704,25.754],[32.764,25.879],[32.763,26.034],[32.734,26.129],[32.678,26.163],[32.553,26.143],[32.362,26.067],[32.229,26.077],[32.154,26.171],[32.094,26.189],[32.041,26.19],[32.015,26.2],[31.997,26.247],[31.966,26.297],[31.871,26.375],[31.82,26.445],[31.812,26.509],[31.782,26.542],[31.73,26.543],[31.706,26.564],[31.712,26.605],[31.695,26.632],[31.655,26.644],[31.553,26.762],[31.369,27.01],[31.341,27.057],[31.304,27.099],[31.278,27.123],[31.245,27.144],[30.969,27.356],[30.868,27.5],[30.889,27.619],[30.884,27.768],[30.877,27.902],[30.863,27.985],[30.837,28.038],[30.807,28.085],[30.774,28.12],[30.744,28.165],[30.74,28.23],[30.762,28.309],[30.811,28.401],[30.836,28.492],[30.837,28.582],[30.858,28.682],[30.899,28.791],[30.995,28.943],[31.146,29.136],[31.219,29.282],[31.215,29.38],[31.236,29.489],[31.281,29.609],[31.287,29.783],[31.255,29.999],[31.254,30.08],[31.238,30.121]]]}},{"type":"Feature","properties":{"name":"Omo"},"geometry":{"type":"MultiLineString","coordinates":[[[37.032,9.151],[37.031,9.052],[37.067,8.997],[37.14,8.953],[37.184,8.907],[37.204,8.838],[37.157,8.741],[37.149,8.692],[37.166,8.658],[37.41,8.364],[37.518,8.261],[37.574,8.228],[37.6,8.112],[37.59,7.877],[37.527,7.649],[37.411,7.426],[37.377,7.286],[37.427,7.23],[37.475,7.202],[37.521,7.202],[37.524,7.184],[37.483,7.147],[37.452,7.072],[37.43,6.958],[37.396,6.893],[37.35,6.877],[37.3,6.821],[37.247,6.724],[37.165,6.659],[37.054,6.626],[36.983,6.633],[36.954,6.681],[36.878,6.706],[36.754,6.71],[36.579,6.635],[36.355,6.481],[36.209,6.415],[36.143,6.435],[36.085,6.419],[36.036,6.367],[36.004,6.306],[35.983,6.198],[35.955,6.172],[35.96,6.119],[35.989,6.028],[35.978,5.84],[35.927,5.553],[35.912,5.391],[35.933,5.353],[35.984,5.344],[36.066,5.365],[36.113,5.41],[36.128,5.481],[36.155,5.501],[36.196,5.47],[36.202,5.418],[36.175,5.344],[36.171,5.285],[36.192,5.24],[36.167,5.208],[36.095,5.187],[36.066,5.165],[36.08,5.141],[36.072,5.114],[36.043,5.084],[36.048,5.043],[36.087,4.99],[36.074,4.914],[36.009,4.812],[35.994,4.706],[36.045,4.539]]]}},{"type":"Feature","properties":{"name":"Ouham"},"geometry":{"type":"MultiLineString","coordinates":[[[15.323,6.462],[15.398,6.342],[15.496,6.325],[15.714,6.393],[15.79,6.461],[15.846,6.486],[15.908,6.49],[15.96,6.437],[16.001,6.328],[16.075,6.27],[16.182,6.264],[16.276,6.302],[16.358,6.383],[16.404,6.448],[16.414,6.497],[16.474,6.56],[16.584,6.637],[16.663,6.671],[16.709,6.662],[16.774,6.609],[16.857,6.514],[16.933,6.472],[17.001,6.486],[17.082,6.475],[17.174,6.441],[17.281,6.448],[17.401,6.497],[17.509,6.52],[17.605,6.515],[17.709,6.558],[17.821,6.65],[17.9,6.772],[17.948,6.926],[18.002,7.023],[18.062,7.062],[18.127,7.139],[18.197,7.254],[18.249,7.313],[18.285,7.314],[18.275,7.362],[18.22,7.457],[18.145,7.49],[18.051,7.46],[17.984,7.469],[17.945,7.517],[17.877,7.548],[17.782,7.561],[17.749,7.611],[17.778,7.698],[17.768,7.826],[17.718,7.995],[17.699,8.127],[17.709,8.224],[17.77,8.369],[17.882,8.56],[17.945,8.744],[17.96,8.92],[17.992,9.011],[18.04,9.018],[18.098,9.056],[18.164,9.126],[18.207,9.2],[18.235,9.316]]]}},{"type":"Feature","properties":{"name":"Pamir"},"geometry":{"type":"MultiLineString","coordinates":[[[73.605,37.446],[73.481,37.472],[73.383,37.462],[73.211,37.409],[72.896,37.268],[72.757,37.173],[72.657,37.029]]]}},{"type":"Feature","properties":{"name":"Panj"},"geometry":{"type":"MultiLineString","coordinates":[[[72.657,37.029],[72.359,36.983],[72.154,36.901],[71.942,36.766],[71.802,36.694],[71.734,36.684],[71.666,36.697],[71.598,36.733],[71.531,36.845],[71.433,37.128],[71.505,37.603],[71.546,37.796],[71.58,37.864],[71.582,37.91],[71.552,37.933],[71.488,37.932],[71.39,37.906],[71.32,37.902],[71.279,37.918],[71.283,38.008],[71.333,38.17],[71.256,38.307],[71.052,38.418],[70.879,38.456],[70.736,38.423],[70.616,38.334],[70.519,38.192],[70.418,38.075],[70.313,37.985],[70.239,37.941],[70.215,37.924],[70.199,37.886],[70.255,37.765],[70.251,37.664],[70.189,37.582],[70.12,37.543],[70.045,37.547],[69.985,37.566],[69.941,37.6],[69.821,37.61],[69.626,37.594],[69.492,37.553],[69.42,37.487],[69.399,37.399],[69.43,37.291],[69.415,37.208],[69.354,37.15],[69.304,37.117],[69.265,37.108],[69.18,37.158],[69.05,37.267],[68.96,37.325],[68.912,37.334],[68.885,37.328],[68.855,37.317],[68.838,37.303],[68.824,37.271],[68.782,37.258],[68.723,37.268],[68.669,37.258],[68.637,37.224],[68.547,37.183],[68.387,37.137],[68.3,37.088],[68.285,37.036],[68.261,37.013],[68.212,37.022]]]}},{"type":"Feature","properties":{"name":"Po"},"geometry":{"type":"MultiLineString","coordinates":[[[7.11,44.706],[7.326,44.665],[7.424,44.687],[7.502,44.795],[7.619,44.849],[7.665,44.925],[7.677,45.041],[7.731,45.129],[7.824,45.19],[7.976,45.22],[8.185,45.219],[8.36,45.199],[8.5,45.161],[8.594,45.113],[8.644,45.054],[8.808,45.054],[9.224,45.141],[9.462,45.1],[9.505,45.093],[9.55,45.116],[9.607,45.129],[9.652,45.114],[9.699,45.086],[9.733,45.083],[9.754,45.104],[9.782,45.103],[9.816,45.08],[9.846,45.085],[9.87,45.118],[9.909,45.133],[9.96,45.13],[10.008,45.106],[10.05,45.06],[10.154,45.026],[10.317,45.003],[10.43,44.972],[10.491,44.935],[10.557,44.928],[10.628,44.953],[10.666,44.986],[10.671,45.028],[10.74,45.057],[10.871,45.072],[11.02,45.075],[11.188,45.065],[11.312,45.029],[11.392,44.968],[11.479,44.927],[11.574,44.906],[11.684,44.918],[11.869,44.985],[12.085,45.02],[12.199,45.013],[12.283,44.976],[12.377,44.961],[12.523,44.968]]]}},{"type":"Feature","properties":{"name":"Rhein"},"geometry":{"type":"MultiLineString","coordinates":[[[8.751,46.676],[9.046,46.758],[9.416,46.835]],[[9.409,46.835],[9.517,46.907],[9.534,46.963],[9.496,47.028],[9.479,47.098],[9.484,47.173],[9.528,47.271],[9.609,47.392],[9.626,47.467],[9.554,47.511]],[[9.128,47.671],[9.183,47.671]]]}},{"type":"Feature","properties":{"name":"Rhin"},"geometry":{"type":"MultiLineString","coordinates":[[[8.881,47.656],[8.7,47.686],[8.62,47.662],[8.58,47.595],[8.482,47.576],[8.328,47.607],[8.198,47.607],[8.094,47.576],[7.927,47.564],[7.698,47.57],[7.565,47.607],[7.529,47.674],[7.539,47.774],[7.593,47.906],[7.608,48.003],[7.584,48.064],[7.617,48.157],[7.706,48.28],[7.765,48.41],[7.795,48.547],[7.838,48.636],[7.923,48.699],[8.23,48.965]]]}},{"type":"Feature","properties":{"name":"Rh\u00f4ne"},"geometry":{"type":"MultiLineString","coordinates":[[[4.617,43.71],[4.514,43.702],[4.467,43.683],[4.44,43.65],[4.436,43.627],[4.444,43.613],[4.434,43.591],[4.379,43.56],[4.371,43.528],[4.41,43.447]],[[6.133,46.205],[5.902,46.123],[5.814,46.013],[5.793,45.849],[5.747,45.737],[5.676,45.676],[5.573,45.704],[5.437,45.821],[5.35,45.847],[5.285,45.812],[5.191,45.799],[5.058,45.817],[4.952,45.808],[4.871,45.771],[4.824,45.713],[4.809,45.633],[4.819,45.582],[4.853,45.561],[4.841,45.513],[4.784,45.439],[4.79,45.289],[4.858,45.063],[4.864,44.911],[4.806,44.834],[4.781,44.761],[4.786,44.693],[4.772,44.637],[4.721,44.573],[4.674,44.35],[4.675,44.228],[4.711,44.133],[4.759,44.071],[4.82,44.04],[4.843,44.012],[4.821,43.973],[4.69,43.906],[4.638,43.828],[4.619,43.715],[4.631,43.639],[4.695,43.579],[4.724,43.554],[4.735,43.508],[4.743,43.449],[4.787,43.401]],[[8.25,46.482],[8.068,46.374],[7.955,46.335],[7.799,46.325],[7.653,46.327],[7.471,46.277],[7.205,46.178],[7.089,46.152],[7.02,46.197],[6.866,46.403]]]}},{"type":"Feature","properties":{"name":"Rosetta Branch"},"geometry":{"type":"MultiLineString","coordinates":[[[31.238,30.121],[31.212,30.139],[31.163,30.151],[31.053,30.192],[30.972,30.245],[30.935,30.306],[30.896,30.335],[30.855,30.354],[30.858,30.384],[30.848,30.471],[30.786,30.666],[30.77,30.78],[30.785,30.811],[30.772,30.844],[30.762,30.866],[30.763,30.944],[30.747,31.011],[30.715,31.065],[30.656,31.118],[30.569,31.17],[30.523,31.229],[30.52,31.295],[30.488,31.357],[30.395,31.458]]]}},{"type":"Feature","properties":{"name":"Sassandra"},"geometry":{"type":"MultiLineString","coordinates":[[[-7.008,6.264],[-6.953,6.185],[-6.776,6.054],[-6.701,5.973],[-6.731,5.945],[-6.733,5.902],[-6.708,5.845],[-6.676,5.81],[-6.637,5.797],[-6.592,5.736],[-6.543,5.628],[-6.481,5.538],[-6.373,5.43],[-6.274,5.32],[-6.232,5.226],[-6.215,5.111],[-6.171,5.03],[-6.062,4.953]],[[-7.236,8.945],[-7.201,8.828],[-7.199,8.747],[-7.22,8.665],[-7.201,8.549],[-7.142,8.398],[-7.103,8.172],[-7.072,7.719],[-7.064,7.643],[-7.042,7.611],[-7.003,7.596],[-6.989,7.553],[-7.0,7.481],[-7.026,7.426],[-7.066,7.386],[-7.075,7.285],[-7.042,7.042]],[[-7.167,9.714],[-7.214,9.605],[-7.23,9.511],[-7.23,9.336],[-7.204,9.193],[-7.212,9.126],[-7.244,9.088],[-7.255,9.04],[-7.236,8.952]]]}},{"type":"Feature","properties":{"name":"Seine"},"geometry":{"type":"MultiLineString","coordinates":[[[4.708,47.578],[4.584,47.74],[4.554,47.812],[4.574,47.85],[4.565,47.891],[4.506,47.958],[4.408,48.082],[4.322,48.145],[4.214,48.19],[4.096,48.284],[3.969,48.427],[3.858,48.517],[3.763,48.551],[3.561,48.526],[3.252,48.44],[3.038,48.393],[2.922,48.385],[2.819,48.409],[2.687,48.492],[2.573,48.533],[2.499,48.582],[2.428,48.65],[2.405,48.699],[2.43,48.728],[2.43,48.766],[2.404,48.811],[2.352,48.834],[2.296,48.852],[2.27,48.875],[2.25,48.908],[2.217,48.912],[2.173,48.904],[2.144,48.928],[2.138,48.948],[2.111,48.958],[2.062,48.954],[2.008,48.961],[1.976,48.996],[1.908,49.006],[1.803,48.99],[1.718,48.992],[1.675,49.017],[1.668,49.047],[1.635,49.06],[1.585,49.052],[1.497,49.084],[1.397,49.16],[1.354,49.211],[1.314,49.219],[1.279,49.212],[1.244,49.221],[1.238,49.244],[1.228,49.282],[1.189,49.307],[1.092,49.312],[1.056,49.328],[1.043,49.355],[1.023,49.381],[0.972,49.378],[0.93,49.39],[0.897,49.424],[0.853,49.415],[0.828,49.426],[0.785,49.471],[0.719,49.48],[0.652,49.46],[0.585,49.453],[0.493,49.494],[0.439,49.473]]]}},{"type":"Feature","properties":{"name":"Setit"},"geometry":{"type":"MultiLineString","coordinates":[[[37.817,13.875],[37.7,13.91],[37.629,13.97],[37.535,14.117],[37.354,14.372],[37.257,14.454],[37.185,14.446],[37.133,14.406],[37.099,14.334],[37.064,14.289],[37.025,14.272],[36.941,14.281],[36.812,14.315],[36.679,14.308],[36.542,14.258],[36.427,14.25],[36.334,14.282],[36.22,14.279],[36.085,14.242],[35.977,14.258],[35.895,14.326],[35.865,14.425],[35.895,14.62]]]}},{"type":"Feature","properties":{"name":"Shatt al Arab"},"geometry":{"type":"MultiLineString","coordinates":[[[47.468,30.968],[47.582,30.831],[47.647,30.775],[47.702,30.754],[47.736,30.704],[47.749,30.625],[47.785,30.561],[47.845,30.512],[47.938,30.478],[48.066,30.458],[48.148,30.417],[48.182,30.355],[48.226,30.321],[48.279,30.316],[48.331,30.285],[48.383,30.23],[48.401,30.188],[48.388,30.16],[48.399,30.11],[48.435,30.038],[48.479,30.004],[48.547,29.962]]]}},{"type":"Feature","properties":{"name":"Shiquan"},"geometry":{"type":"MultiLineString","coordinates":[[[81.64,31.45],[81.549,31.404],[81.5,31.4],[81.446,31.432],[81.293,31.535],[81.225,31.602],[81.191,31.667],[81.187,31.743],[81.213,31.828],[81.268,31.9],[81.352,31.957],[81.366,32.002],[81.31,32.033],[81.282,32.08],[81.283,32.142],[81.252,32.224],[81.188,32.325],[81.029,32.42],[80.775,32.509],[80.535,32.553],[80.309,32.552],[80.08,32.525],[79.735,32.444]]]}},{"type":"Feature","properties":{"name":"Soroksari Duna"},"geometry":{"type":"MultiLineString","coordinates":[[[19.06,47.481],[19.091,47.439],[19.098,47.418],[19.094,47.394],[19.052,47.354],[18.974,47.275],[18.949,47.199],[18.973,47.145],[18.976,47.101],[18.935,47.033]]]}},{"type":"Feature","properties":{"name":"Suez Canal"},"geometry":{"type":"MultiLineString","coordinates":[[[32.561,30.182],[32.566,29.974]],[[32.36,30.424],[32.303,30.593],[32.334,30.689],[32.337,30.859],[32.324,31.256]]]}},{"type":"Feature","properties":{"name":"Sutlej"},"geometry":{"type":"MultiLineString","coordinates":[[[81.376,30.758],[81.294,30.792]],[[81.199,30.852],[80.874,31.054],[80.731,31.121],[80.628,31.121],[80.534,31.066],[80.474,31.053],[80.418,31.064],[80.296,31.125],[80.107,31.235],[79.98,31.336],[79.917,31.426],[79.795,31.481],[79.616,31.5],[79.456,31.55],[79.315,31.632],[79.171,31.67],[79.023,31.664],[78.922,31.697],[78.869,31.769],[78.811,31.816],[78.749,31.837],[78.652,31.804],[78.521,31.718],[78.452,31.657],[78.445,31.619],[78.405,31.6],[78.33,31.6],[78.284,31.581],[78.269,31.541],[78.153,31.532],[77.937,31.553],[77.757,31.512],[77.611,31.407],[77.495,31.356],[77.411,31.358],[77.353,31.338],[77.323,31.297],[77.27,31.267],[77.196,31.25],[77.09,31.273],[76.952,31.337],[76.883,31.38],[76.884,31.403],[76.854,31.413],[76.765,31.409]],[[76.435,31.422],[76.384,31.407],[76.37,31.387],[76.375,31.355],[76.535,31.144],[76.567,31.053],[76.526,31.003],[76.36,30.989],[76.069,31.011],[75.791,31.013],[75.527,30.994],[75.305,31.035],[75.124,31.134],[74.984,31.177],[74.886,31.165],[74.728,31.092],[74.51,30.96],[74.38,30.893],[74.339,30.894],[74.216,30.769],[74.009,30.52],[73.806,30.363],[73.505,30.268],[73.382,30.229],[73.325,30.194],[73.295,30.151],[73.268,30.139],[73.245,30.16],[73.158,30.124],[73.008,30.03],[72.858,29.96],[72.71,29.915],[72.631,29.876],[72.623,29.843],[72.554,29.829],[72.426,29.835],[72.309,29.794],[72.202,29.704],[72.153,29.64],[72.162,29.599],[72.121,29.557],[72.03,29.513],[71.905,29.487],[71.747,29.478],[71.65,29.452],[71.615,29.409],[71.565,29.382],[71.5,29.372],[71.418,29.382],[71.32,29.413],[71.209,29.413],[71.014,29.326]]]}},{"type":"Feature","properties":{"name":"Syr Darya"},"geometry":{"type":"MultiLineString","coordinates":[[[69.827,40.273],[69.684,40.302],[69.563,40.286],[69.414,40.234],[69.299,40.225],[69.218,40.259],[69.152,40.338],[69.101,40.461],[69.087,40.539],[69.094,40.577],[69.082,40.599],[69.02,40.658],[68.817,40.797],[68.702,40.898],[68.675,40.962],[68.61,41.022],[68.456,41.107]],[[67.991,41.255],[68.008,41.285],[68.069,41.336],[68.087,41.463],[68.051,41.658],[68.067,41.834],[68.134,41.991],[68.186,42.081],[68.201,42.099],[68.207,42.132],[68.192,42.15],[68.188,42.182],[68.255,42.237],[68.285,42.302],[68.277,42.377],[68.253,42.443],[68.211,42.501],[68.208,42.554],[68.243,42.603],[68.255,42.663],[68.245,42.735],[68.229,42.769],[68.224,42.794],[68.2,42.825],[68.135,42.866],[68.119,42.908],[68.129,42.947],[68.089,42.991],[67.929,43.031],[67.838,43.121],[67.818,43.26],[67.789,43.341],[67.751,43.365],[67.72,43.358],[67.693,43.331],[67.66,43.343],[67.646,43.389],[67.605,43.418],[67.548,43.421],[67.514,43.459],[67.504,43.534],[67.444,43.631],[67.333,43.751],[67.259,43.811],[67.222,43.812],[67.195,43.839],[67.176,43.894],[67.107,43.949],[66.988,44.003],[66.902,44.009],[66.85,43.967],[66.771,43.959],[66.665,43.985],[66.603,43.989],[66.561,44.009],[66.533,44.102],[66.494,44.152],[66.442,44.158],[66.418,44.181],[66.422,44.218],[66.382,44.268],[66.299,44.33],[66.263,44.371],[66.188,44.425],[66.019,44.457],[65.975,44.509],[65.957,44.54],[65.916,44.584],[65.833,44.64],[65.794,44.687],[65.791,44.723],[65.738,44.748],[65.616,44.756],[65.493,44.816],[65.37,44.927],[65.23,44.993],[65.072,45.014],[64.964,45.012],[64.904,44.989],[64.784,45.002],[64.602,45.052],[64.466,45.113],[64.375,45.187],[64.334,45.234],[64.318,45.27],[64.261,45.281],[64.221,45.322],[64.198,45.394],[64.112,45.446],[63.964,45.48],[63.883,45.511],[63.869,45.539],[63.877,45.567],[63.907,45.595],[63.876,45.632],[63.784,45.68],[63.752,45.713],[63.7,45.718],[63.336,45.635],[63.124,45.633],[63.005,45.7],[62.9,45.719],[62.809,45.691],[62.733,45.691],[62.673,45.72],[62.634,45.759],[62.616,45.809],[62.565,45.813],[62.483,45.772],[62.376,45.758],[62.246,45.772],[62.127,45.751],[62.019,45.696],[61.897,45.705],[61.76,45.776],[61.703,45.833],[61.725,45.875],[61.763,45.903],[61.817,45.918],[61.823,45.949],[61.76,46.021]],[[61.562,46.11],[61.264,46.051],[61.093,46.058],[60.878,46.137]]]}},{"type":"Feature","properties":{"name":"Tajo"},"geometry":{"type":"MultiLineString","coordinates":[[[-5.996,39.852],[-6.326,39.764],[-6.533,39.746],[-6.726,39.77],[-6.896,39.757],[-7.118,39.682]],[[-2.733,40.528],[-2.961,40.275],[-3.1,40.156],[-3.226,40.087],[-3.381,40.048],[-3.565,40.038],[-3.739,39.995],[-3.901,39.92],[-4.059,39.881],[-4.213,39.879],[-4.318,39.839],[-4.428,39.867],[-4.628,39.948],[-4.757,39.982],[-4.816,39.968],[-4.889,39.921],[-4.978,39.84],[-5.071,39.803],[-5.217,39.812]],[[-1.906,40.601],[-2.06,40.745],[-2.144,40.797],[-2.242,40.811],[-2.577,40.724]]]}},{"type":"Feature","properties":{"name":"Tejo"},"geometry":{"type":"MultiLineString","coordinates":[[[-7.118,39.682],[-7.454,39.681],[-7.653,39.634],[-7.828,39.541],[-7.982,39.492],[-8.185,39.485],[-8.376,39.468],[-8.521,39.371],[-8.661,39.249],[-8.742,39.115],[-8.792,39.078]]]}},{"type":"Feature","properties":{"name":"Tigris"},"geometry":{"type":"MultiLineString","coordinates":[[[42.377,37.062],[42.434,36.99],[42.466,36.967],[42.489,36.96],[42.509,36.941],[42.513,36.876],[42.559,36.832],[42.713,36.785],[42.759,36.755],[42.774,36.733],[42.761,36.719],[42.858,36.708],[42.895,36.691],[42.901,36.662],[42.886,36.646],[42.85,36.644],[42.811,36.609],[42.771,36.54],[42.844,36.478],[43.031,36.425],[43.169,36.334],[43.258,36.205],[43.317,36.076],[43.346,35.946],[43.343,35.858],[43.308,35.812],[43.297,35.765],[43.312,35.718],[43.299,35.682],[43.261,35.657],[43.248,35.586],[43.262,35.47],[43.348,35.316],[43.505,35.126],[43.568,35.006],[43.538,34.957],[43.584,34.832],[43.708,34.63],[43.785,34.453],[43.815,34.3],[43.854,34.194],[43.904,34.135],[43.96,34.098],[44.055,34.075],[44.232,34.05],[44.329,34.019],[44.403,33.974],[44.427,33.909],[44.402,33.825],[44.398,33.769],[44.417,33.739],[44.4,33.697],[44.348,33.641],[44.318,33.586],[44.31,33.531],[44.324,33.451],[44.361,33.347],[44.397,33.293],[44.431,33.291],[44.48,33.235],[44.544,33.127],[44.675,33.024],[44.871,32.925],[44.981,32.887],[45.027,32.891],[45.041,32.879],[45.041,32.856],[45.044,32.832],[45.08,32.803],[45.14,32.785],[45.225,32.778],[45.26,32.752],[45.259,32.714],[45.298,32.663],[45.384,32.604],[45.522,32.556],[45.809,32.502],[46.03,32.619],[46.137,32.632],[46.201,32.588],[46.344,32.542],[46.563,32.494],[46.692,32.443],[46.73,32.386],[46.735,32.321],[46.706,32.248],[46.699,32.191],[46.713,32.149],[46.755,32.112],[46.827,32.079],[46.888,32.014],[46.94,31.917],[47.008,31.868],[47.093,31.865],[47.139,31.826],[47.146,31.749],[47.221,31.627],[47.363,31.459],[47.434,31.286],[47.441,30.999]]]}},{"type":"Feature","properties":{"name":"Tisa"},"geometry":{"type":"MultiLineString","coordinates":[[[20.179,46.261],[20.087,46.166],[20.066,46.138],[20.064,46.117],[20.079,46.076],[20.074,46.049],[20.061,46.029],[20.08,46.001],[20.104,45.969],[20.124,45.922],[20.122,45.89],[20.098,45.873],[20.105,45.834],[20.14,45.778],[20.136,45.742],[20.11,45.724],[20.085,45.689],[20.07,45.632],[20.105,45.563],[20.188,45.483],[20.223,45.431],[20.209,45.407],[20.231,45.349],[20.289,45.256],[20.308,45.192],[20.282,45.126]]]}},{"type":"Feature","properties":{"name":"Tisza"},"geometry":{"type":"MultiLineString","coordinates":[[[21.346,48.026],[21.182,48.006],[21.103,47.944],[21.057,47.835],[20.871,47.69],[20.546,47.51],[20.4,47.382],[20.434,47.306],[20.426,47.27],[20.377,47.272],[20.306,47.242],[20.214,47.178],[20.175,47.119],[20.189,47.066],[20.218,47.038],[20.192,47.01],[20.155,46.98],[20.144,46.939],[20.125,46.912],[20.066,46.874],[20.08,46.811],[20.166,46.724],[20.192,46.653],[20.157,46.598],[20.163,46.5],[20.207,46.36],[20.217,46.283],[20.179,46.261]],[[24.256,48.322],[24.338,48.294],[24.332,48.234],[24.234,48.083],[24.17,47.955],[24.002,47.936],[23.709,47.983],[23.477,48.049],[23.307,48.136],[23.146,48.155],[22.996,48.106],[22.885,48.091],[22.815,48.111],[22.702,48.107],[22.545,48.078],[22.42,48.095],[22.325,48.159],[22.276,48.244],[22.273,48.35],[22.254,48.407],[22.219,48.415],[22.133,48.374],[21.997,48.284],[21.869,48.222],[21.75,48.186],[21.637,48.17],[21.53,48.175],[21.465,48.146],[21.443,48.082],[21.409,48.045],[21.339,48.026]]]}},{"type":"Feature","properties":{"name":"Ural"},"geometry":{"type":"MultiLineString","coordinates":[[[58.631,51.695],[58.628,51.619],[58.659,51.561],[58.723,51.496],[58.751,51.425],[58.744,51.347],[58.713,51.287],[58.657,51.247],[58.527,51.201],[58.325,51.149],[58.209,51.106],[58.181,51.072],[58.045,51.069],[57.801,51.096],[57.536,51.165],[57.248,51.275],[56.906,51.353],[56.51,51.399],[56.224,51.472],[56.049,51.573],[55.877,51.648],[55.709,51.696],[55.456,51.735],[55.119,51.766],[54.65,51.726],[54.047,51.613],[53.667,51.56],[53.511,51.566],[53.406,51.551],[53.35,51.514],[53.227,51.485],[53.038,51.464],[52.903,51.467],[52.82,51.495],[52.728,51.498],[52.626,51.478],[52.554,51.442],[52.512,51.391],[52.428,51.383],[52.301,51.418],[52.225,51.421],[52.199,51.392],[52.128,51.382],[52.012,51.391],[51.941,51.378],[51.916,51.343],[51.769,51.286],[51.499,51.205],[51.395,51.148],[51.364,51.075],[51.316,50.998],[51.221,50.904],[51.183,50.826],[51.201,50.765],[51.189,50.708],[51.148,50.657],[51.136,50.595],[51.154,50.523],[51.15,50.478],[51.121,50.46],[51.116,50.436],[51.133,50.406],[51.131,50.365],[51.11,50.312],[51.156,50.253],[51.269,50.187],[51.329,50.122],[51.341,50.027],[51.32,49.955],[51.347,49.913],[51.416,49.875],[51.471,49.802],[51.512,49.692],[51.558,49.631],[51.594,49.614],[51.608,49.585],[51.636,49.546],[51.707,49.488],[51.739,49.449],[51.744,49.42],[51.76,49.404],[51.828,49.374],[51.848,49.352],[51.847,49.336],[51.859,49.323],[51.884,49.314],[51.916,49.275],[51.948,49.206],[51.936,49.138],[51.881,49.071],[51.85,49.001],[51.841,48.927],[51.854,48.895],[51.88,48.869],[51.876,48.815],[51.804,48.623],[51.776,48.586],[51.73,48.56],[51.667,48.547],[51.625,48.515],[51.606,48.469],[51.603,48.443],[51.61,48.424],[51.635,48.405],[51.633,48.386],[51.602,48.37],[51.589,48.318],[51.592,48.229],[51.584,48.181],[51.569,48.167],[51.582,48.119],[51.64,48.016],[51.654,47.882],[51.623,47.716],[51.674,47.579],[51.806,47.47],[51.879,47.397],[51.895,47.36],[51.892,47.331],[51.872,47.31],[51.877,47.293],[51.908,47.28],[51.927,47.25],[51.934,47.204],[51.884,47.121],[51.724,46.944]],[[58.905,52.936],[58.904,52.811],[58.971,52.697],[58.996,52.62],[58.986,52.6],[58.99,52.569],[59.01,52.546],[59.058,52.527],[59.083,52.513],[59.08,52.47],[59.062,52.42],[58.834,52.196]]]}},{"type":"Feature","properties":{"name":"Volga"},"geometry":{"type":"MultiLineString","coordinates":[[[47.842,46.735],[48.114,46.683],[48.22,46.605],[48.25,46.484],[48.314,46.401],[48.411,46.356],[48.501,46.272],[48.684,46.086]],[[45.664,50.222],[45.49,50.122],[45.414,50.056],[45.379,49.991],[45.361,49.916],[45.36,49.832],[45.305,49.737],[45.198,49.632],[45.107,49.513],[45.048,49.408],[45.011,49.351],[44.996,49.313],[44.99,49.294],[44.987,49.259],[44.976,49.195],[44.842,49.013],[44.588,48.727],[44.544,48.665],[44.528,48.598],[44.596,48.545],[44.865,48.466],[45.043,48.434],[45.129,48.451],[45.228,48.447],[45.337,48.42],[45.411,48.424],[45.449,48.461],[45.559,48.451],[45.733,48.399],[45.798,48.383],[45.831,48.369],[45.865,48.353],[45.909,48.322],[46.078,48.218],[46.155,48.11],[46.147,47.994],[46.193,47.918],[46.295,47.881],[46.35,47.843],[46.359,47.802],[46.409,47.773],[46.498,47.756],[46.616,47.673],[46.764,47.525],[46.875,47.444],[46.948,47.431],[47.009,47.403],[47.057,47.359],[47.082,47.316],[47.085,47.252],[47.086,47.214],[47.212,47.144],[47.463,47.029],[47.585,46.942],[47.577,46.884],[47.612,46.855],[47.69,46.855],[47.8,46.773],[47.942,46.609],[48.002,46.506],[47.981,46.464],[47.98,46.418],[47.998,46.37],[47.916,46.25],[47.735,46.057],[47.641,45.929],[47.636,45.866],[47.61,45.834],[47.578,45.813],[47.561,45.79],[47.563,45.761],[47.587,45.737],[47.631,45.694],[47.65,45.657]],[[48.503,52.995],[48.561,52.919],[48.505,52.816],[48.334,52.688],[48.177,52.506],[48.035,52.271],[47.901,52.125],[47.775,52.066],[47.644,52.043],[47.507,52.055],[47.273,51.981],[47.114,51.919],[46.971,51.83],[46.843,51.773],[46.775,51.748]]]}},{"type":"Feature","properties":{"name":"Yamuna"},"geometry":{"type":"MultiLineString","coordinates":[[[78.34,30.915],[78.072,30.738],[77.987,30.568],[77.942,30.518],[77.91,30.532],[77.815,30.511],[77.655,30.456],[77.574,30.391],[77.57,30.278],[77.528,30.203],[77.443,30.127],[77.301,30.027],[77.187,29.871],[77.101,29.661],[77.074,29.538],[77.105,29.502],[77.107,29.469],[77.094,29.45],[77.093,29.427],[77.121,29.401],[77.145,29.34],[77.137,29.191],[77.156,29.066],[77.199,28.965],[77.221,28.858],[77.222,28.745],[77.249,28.647],[77.327,28.52],[77.455,28.425],[77.489,28.374],[77.474,28.335],[77.484,28.282],[77.521,28.215],[77.521,28.147],[77.486,28.08],[77.496,27.985],[77.552,27.86],[77.607,27.797],[77.662,27.797],[77.681,27.749],[77.664,27.653],[77.668,27.601],[77.693,27.592],[77.7,27.57],[77.69,27.533],[77.711,27.467],[77.765,27.371],[77.821,27.305],[77.88,27.269],[77.92,27.263],[77.942,27.286],[77.966,27.29],[77.994,27.274],[78.012,27.245],[78.02,27.202],[78.068,27.183],[78.156,27.188],[78.203,27.165],[78.21,27.113],[78.249,27.096],[78.292,27.106],[78.309,27.095],[78.313,27.079],[78.327,27.062],[78.383,27.058],[78.437,27.024],[78.488,26.961],[78.508,26.953],[78.522,26.96],[78.544,26.958],[78.609,26.91],[78.663,26.894],[78.707,26.911],[78.779,26.88],[78.879,26.801],[78.948,26.762],[78.986,26.762],[79.024,26.721],[79.064,26.639],[79.136,26.58],[79.24,26.542],[79.263,26.511],[79.262,26.485],[79.251,26.472],[79.266,26.446],[79.28,26.433],[79.311,26.428],[79.402,26.436],[79.473,26.416],[79.494,26.372],[79.518,26.359],[79.536,26.355],[79.545,26.335],[79.538,26.306],[79.592,26.244],[79.712,26.156],[79.804,26.108],[79.868,26.099],[79.912,26.112],[79.932,26.125],[79.947,26.125],[79.956,26.095],[79.989,26.072],[80.05,26.071],[80.08,26.053],[80.08,26.017],[80.113,25.979],[80.211,25.92],[80.442,25.889],[80.524,25.87],[80.535,25.852],[80.523,25.835],[80.489,25.819],[80.524,25.781],[80.63,25.723],[80.716,25.702],[80.784,25.72],[80.844,25.717],[80.897,25.696],[80.93,25.668],[80.944,25.632],[80.969,25.617],[81.005,25.623],[81.022,25.605],[81.019,25.563],[81.059,25.531],[81.142,25.507],[81.181,25.466],[81.176,25.407],[81.222,25.367],[81.318,25.345],[81.377,25.319],[81.399,25.289],[81.472,25.295],[81.598,25.337],[81.694,25.351],[81.762,25.337],[81.804,25.352],[81.82,25.395],[81.847,25.416],[81.903,25.415]]]}},{"type":"Feature","properties":{"name":"Yarkant"},"geometry":{"type":"MultiLineString","coordinates":[[[77.525,35.521],[77.638,35.582],[77.683,35.631],[77.708,35.715],[77.585,35.857],[77.597,35.971],[77.704,36.105],[77.701,36.196],[77.588,36.243],[77.511,36.308],[77.471,36.389],[77.358,36.437],[77.172,36.452],[77.017,36.44],[76.891,36.402],[76.783,36.388],[76.69,36.396],[76.52,36.43],[76.464,36.468],[76.435,36.524],[76.341,36.586],[76.182,36.655],[76.058,36.756],[75.969,36.889],[75.947,37.011],[75.992,37.122],[75.988,37.212],[75.941,37.272],[75.952,37.293],[75.97,37.303],[76.006,37.296],[76.056,37.286],[76.142,37.311],[76.214,37.382],[76.229,37.523],[76.188,37.732],[76.216,37.875],[76.314,37.95],[76.402,37.989],[76.479,37.993],[76.523,37.978],[76.533,37.947],[76.597,37.919],[76.716,37.895],[76.927,37.997],[77.23,38.225],[77.368,38.4],[77.343,38.522],[77.39,38.655],[77.512,38.799],[77.568,38.905],[77.56,38.973],[77.579,39.04],[77.625,39.106],[77.67,39.141],[77.713,39.146],[77.802,39.204],[77.937,39.316],[78.121,39.425],[78.354,39.531],[78.607,39.597],[78.882,39.622],[79.101,39.66],[79.265,39.713],[79.597,39.862],[80.097,40.108],[80.377,40.274],[80.437,40.361],[80.572,40.42],[80.888,40.467]]]}},{"type":"Feature","properties":{"name":"Garonne"},"geometry":{"type":"MultiLineString","coordinates":[[[1.454,43.415],[1.453,43.417],[1.409,43.514],[1.409,43.588],[1.361,43.689],[1.22,43.881],[1.082,44.031],[0.861,44.126],[0.509,44.215],[0.323,44.295],[0.304,44.366],[0.255,44.422],[0.137,44.484],[0.003,44.561],[-0.102,44.587],[-0.224,44.588],[-0.343,44.636],[-0.534,44.796],[-0.562,44.83],[-0.567,44.86],[-0.542,44.898],[-0.536,44.952],[-0.548,45.001]]]}},{"type":"Feature","properties":{"name":"Loire"},"geometry":{"type":"MultiLineString","coordinates":[[[3.083,46.985],[3.022,47.149],[2.916,47.287],[2.893,47.363],[2.917,47.423],[2.883,47.499],[2.789,47.59],[2.614,47.691],[2.36,47.804],[2.145,47.871],[1.971,47.894],[1.845,47.893],[1.769,47.866],[1.608,47.764],[1.364,47.587],[1.158,47.474],[0.99,47.425],[0.815,47.396],[0.635,47.386],[0.428,47.341],[0.207,47.244],[0.075,47.218],[-0.038,47.249],[-0.216,47.364],[-0.418,47.402],[-0.731,47.371],[-1.056,47.375],[-1.249,47.336],[-1.417,47.258],[-1.559,47.216],[-1.633,47.202],[-1.743,47.216]],[[3.083,46.985],[3.168,46.977],[3.249,46.952],[3.329,46.846],[3.49,46.829],[3.625,46.74],[3.724,46.639],[3.749,46.558],[3.86,46.507],[3.984,46.46],[3.99,46.379],[4.039,46.238],[4.101,46.166],[4.101,46.063],[4.033,45.977],[4.052,45.925],[4.157,45.852],[4.213,45.745],[4.219,45.628],[4.256,45.477],[4.2,45.368],[4.132,45.307],[4.083,45.238],[3.953,45.199],[3.91,45.116],[3.922,45.037],[3.904,44.972],[3.928,44.871],[4.07,44.81],[4.169,44.775],[4.2,44.823]]]}}]}