{"type":"FeatureCollection","features":[{"type":"Feature","properties":{"name":"Black Sea"},"geometry":{"type":"Polygon","coordinates":[[[36.575,45.394],[36.617,45.392],[36.7,45.378],[36.721,45.372],[36.762,45.349],[36.811,45.34],[36.941,45.29],[36.873,45.252],[36.619,45.186],[36.627,45.151],[36.651,45.126],[36.944,45.07],[37.205,44.972],[37.284,44.905],[37.352,44.788],[37.411,44.735],[37.495,44.695],[37.573,44.671],[37.705,44.661],[37.851,44.699],[38.181,44.42],[38.312,44.374],[38.636,44.318],[38.717,44.288],[39.329,43.897],[39.517,43.728],[39.874,43.473],[39.978,43.42],[40.191,43.312],[40.462,43.146],[40.524,43.121],[40.836,43.064],[41.061,42.931],[41.129,42.828],[41.42,42.738],[41.489,42.659],[41.578,42.398],[41.663,42.147],[41.763,41.97],[41.761,41.885],[41.759,41.817],[41.702,41.705],[41.51,41.517],[41.414,41.424],[41.084,41.261],[40.96,41.212],[40.82,41.19],[40.687,41.107],[40.265,40.961],[40.128,40.943],[40.0,40.977],[39.911,40.967],[39.808,40.982],[39.426,41.106],[38.852,41.018],[38.557,40.936],[38.381,40.925],[37.91,41.002],[37.766,41.079],[37.431,41.114],[37.066,41.185],[36.992,41.276],[36.778,41.363],[36.647,41.352],[36.587,41.327],[36.509,41.262],[36.405,41.275],[36.278,41.336],[36.179,41.426],[36.052,41.683],[35.978,41.705],[35.92,41.714],[35.558,41.634],[35.298,41.729],[35.209,41.794],[35.122,41.891],[35.114,41.957],[35.141,41.989],[35.155,42.028],[35.007,42.064],[34.751,41.957],[34.193,41.963],[33.382,42.017],[33.285,42.005],[32.947,41.892],[32.542,41.806],[32.306,41.73],[32.087,41.589],[31.458,41.32],[31.346,41.158],[31.255,41.108],[30.81,41.085],[30.345,41.197],[29.919,41.151],[29.322,41.228],[29.148,41.221],[29.133,41.209],[29.054,41.215],[29.057,41.23],[28.947,41.249],[28.347,41.467],[28.198,41.554],[28.05,41.729],[27.987,41.855],[28.014,41.969],[27.982,42.048],[27.822,42.208],[27.708,42.35],[27.64,42.401],[27.485,42.468],[27.754,42.706],[27.818,42.717],[27.889,42.75],[27.897,43.021],[27.929,43.186],[27.979,43.23],[28.035,43.268],[28.134,43.395],[28.32,43.427],[28.466,43.389],[28.562,43.501],[28.585,43.742],[28.59,43.798],[28.659,43.984],[28.646,44.296],[28.699,44.374],[28.852,44.506],[28.888,44.575],[28.807,44.565],[28.814,44.602],[28.847,44.637],[28.849,44.716],[28.87,44.75],[28.926,44.81],[28.892,44.919],[28.931,44.966],[28.98,44.993],[29.095,44.975],[29.048,44.926],[29.069,44.871],[29.081,44.799],[29.048,44.758],[29.557,44.843],[29.605,44.916],[29.636,44.98],[29.678,45.152],[29.689,45.193],[29.706,45.26],[29.727,45.343],[29.671,45.541],[29.601,45.6],[29.602,45.682],[29.628,45.723],[29.685,45.754],[29.821,45.732],[29.902,45.752],[30.007,45.798],[30.184,45.85],[30.219,45.867],[30.493,46.09],[30.511,46.105],[30.657,46.267],[30.672,46.304],[30.721,46.366],[30.773,46.473],[30.796,46.552],[31.137,46.624],[31.32,46.613],[31.403,46.629],[31.497,46.738],[31.563,46.777],[31.532,46.665],[31.657,46.642],[31.78,46.632],[31.873,46.65],[31.901,46.722],[31.913,46.926],[31.866,47.003],[31.837,47.087],[31.759,47.213],[31.838,47.157],[31.865,47.095],[31.94,46.982],[31.964,46.855],[31.945,46.784],[31.975,46.709],[32.044,46.642],[32.127,46.597],[32.354,46.565],[32.578,46.615],[32.552,46.592],[32.419,46.518],[32.361,46.475],[32.132,46.51],[31.878,46.522],[31.716,46.555],[31.555,46.555],[31.624,46.51],[31.714,46.472],[31.856,46.462],[32.008,46.43],[32.013,46.387],[31.991,46.365],[31.916,46.349],[31.843,46.346],[31.78,46.325],[31.831,46.281],[31.925,46.287],[32.036,46.261],[32.33,46.13],[32.477,46.084],[32.797,46.132],[32.942,46.124],[33.202,46.176],[33.264,46.126],[33.43,46.058],[33.499,46.079],[33.594,46.096],[33.637,46.033],[33.665,45.947],[33.466,45.838],[33.28,45.765],[33.142,45.749],[32.828,45.593],[32.508,45.404],[32.552,45.35],[32.612,45.328],[32.773,45.359],[32.919,45.348],[33.187,45.195],[33.261,45.171],[33.393,45.188],[33.555,45.098],[33.601,44.981],[33.612,44.908],[33.53,44.68],[33.491,44.619],[33.463,44.597],[33.451,44.554],[33.656,44.433],[33.756,44.399],[33.91,44.388],[34.074,44.424],[34.282,44.538],[34.47,44.722],[34.717,44.807],[34.888,44.824],[35.088,44.802],[35.155,44.896],[35.358,44.979],[35.473,45.098],[35.57,45.119],[35.678,45.102],[35.76,45.071],[35.804,45.04],[35.87,45.005],[36.055,45.031],[36.23,45.026],[36.394,45.065],[36.429,45.153],[36.451,45.232],[36.514,45.304],[36.575,45.394]]]}},{"type":"Feature","properties":{"name":"Arabian Sea"},"geometry":{"type":"Polygon","coordinates":[[[73.123,-0.68],[51.388,10.409],[51.39,10.423],[51.369,10.475],[51.296,10.499],[51.193,10.555],[51.185,10.53],[51.188,10.48],[51.063,10.434],[51.032,10.445],[51.051,10.472],[51.094,10.489],[51.105,10.536],[51.131,10.596],[51.141,10.657],[51.122,11.077],[51.084,11.336],[51.136,11.505],[51.218,11.658],[51.232,11.745],[51.255,11.831],[51.267,11.831],[51.267,15.187],[51.261,15.209],[51.322,15.226],[51.604,15.337],[51.682,15.379],[51.748,15.44],[51.831,15.459],[51.966,15.536],[52.087,15.586],[52.218,15.655],[52.222,15.761],[52.174,15.957],[52.237,16.171],[52.328,16.294],[52.449,16.391],[52.581,16.47],[53.086,16.648],[53.298,16.723],[53.61,16.76],[53.775,16.856],[53.955,16.918],[54.068,17.005],[54.377,17.033],[54.567,17.031],[54.665,17.009],[54.772,16.965],[55.064,17.039],[55.174,17.158],[55.275,17.321],[55.295,17.382],[55.282,17.446],[55.238,17.505],[55.255,17.586],[55.479,17.843],[55.614,17.886],[55.998,17.935],[56.27,17.951],[56.383,17.988],[56.551,18.166],[56.655,18.588],[56.826,18.754],[56.957,18.828],[57.177,18.902],[57.428,18.944],[57.676,18.958],[57.739,18.978],[57.807,19.015],[57.812,19.017],[57.811,19.02],[58.648,20.208],[58.659,20.204],[58.722,20.219],[58.772,20.267],[58.835,20.424],[58.951,20.516],[58.884,20.68],[58.788,20.497],[58.641,20.338],[58.481,20.417],[58.534,20.504],[58.691,20.807],[58.896,21.113],[59.069,21.289],[59.304,21.436],[59.372,21.499],[59.518,21.782],[59.653,21.951],[59.681,22.054],[59.8,22.22],[59.825,22.305],[59.838,22.42],[59.831,22.462],[59.84,22.463],[61.401,25.083],[61.406,25.104],[61.412,25.102],[61.49,25.153],[61.533,25.195],[61.744,25.138],[61.908,25.131],[62.089,25.156],[62.152,25.206],[62.198,25.225],[62.249,25.197],[62.315,25.135],[62.391,25.152],[62.444,25.197],[62.572,25.255],[62.665,25.265],[63.015,25.225],[63.17,25.255],[63.286,25.228],[63.491,25.211],[63.496,25.297],[63.557,25.353],[63.721,25.386],[63.936,25.342],[63.987,25.351],[64.059,25.403],[64.125,25.374],[64.152,25.333],[64.544,25.237],[64.594,25.206],[64.659,25.184],[64.776,25.307],[65.061,25.311],[65.406,25.374],[65.68,25.355],[65.884,25.42],[66.235,25.464],[66.329,25.466],[66.403,25.447],[66.468,25.445],[66.407,25.485],[66.357,25.507],[66.131,25.493],[66.162,25.554],[66.219,25.59],[66.324,25.602],[66.429,25.575],[66.534,25.484],[66.57,25.378],[66.698,25.226],[66.71,25.111],[66.682,24.929],[66.703,24.861],[67.101,24.792],[67.171,24.756],[67.288,24.368],[67.304,24.263],[67.31,24.175],[67.365,24.091],[67.428,24.065],[67.454,24.04],[67.477,24.018],[67.504,23.94],[67.563,23.882],[67.646,23.92],[67.649,23.867],[67.668,23.811],[67.819,23.828],[67.86,23.903],[67.951,23.828],[68.001,23.826],[68.037,23.848],[68.068,23.818],[68.116,23.753],[68.149,23.797],[68.165,23.858],[68.192,23.729],[68.235,23.597],[68.344,23.617],[68.425,23.706],[68.497,23.748],[68.643,23.808],[68.777,23.852],[68.627,23.754],[68.454,23.629],[68.418,23.571],[68.529,23.364],[68.64,23.19],[68.802,23.065],[68.801,23.064],[68.991,22.438],[69.014,22.408],[68.983,22.385],[68.97,22.29],[69.009,22.197],[69.192,21.992],[69.386,21.839],[69.542,21.678],[69.749,21.506],[70.034,21.179],[70.127,21.095],[70.485,20.84],[70.72,20.74],[70.858,20.718],[70.857,20.713],[72.653,19.839],[72.669,19.836],[72.668,19.831],[72.676,19.798],[72.698,19.757],[72.727,19.578],[72.799,19.52],[72.756,19.451],[72.764,19.413],[72.788,19.363],[72.987,19.278],[72.811,19.299],[72.794,19.252],[72.803,19.219],[72.803,19.079],[72.835,18.975],[72.901,19.015],[72.972,19.153],[73.006,19.021],[72.977,18.927],[72.899,18.779],[72.871,18.683],[72.875,18.643],[72.917,18.576],[72.943,18.366],[72.972,18.259],[72.994,18.098],[73.047,17.907],[73.156,17.622],[73.149,17.528],[73.239,17.198],[73.337,16.46],[73.454,16.152],[73.476,16.054],[73.608,15.871],[73.68,15.709],[73.733,15.657],[73.833,15.659],[73.772,15.573],[73.814,15.539],[73.852,15.482],[73.932,15.397],[73.801,15.397],[73.885,15.306],[73.949,15.075],[74.041,14.95],[74.089,14.902],[74.223,14.709],[74.28,14.649],[74.335,14.575],[74.346,14.556],[74.339,14.552],[72.47,13.564],[71.658,13.0],[71.376,12.4],[71.835,9.402],[72.328,4.639],[72.54,0.97],[73.123,-0.68]],[[53.598,12.342],[53.719,12.319],[54.13,12.361],[54.271,12.447],[54.414,12.483],[54.45,12.523],[54.511,12.553],[54.187,12.664],[53.918,12.659],[53.825,12.625],[53.763,12.637],[53.639,12.707],[53.535,12.716],[53.431,12.664],[53.404,12.633],[53.388,12.602],[53.316,12.533],[53.499,12.425],[53.598,12.342]]]}},{"type":"Feature","properties":{"name":"Caspian Sea"},"geometry":{"type":"Polygon","coordinates":[[[52.85,41.2],[52.901,41.1],[52.92,41.082],[52.943,41.038],[52.889,40.863],[52.85,40.686],[52.785,40.547],[52.734,40.399],[52.744,40.22],[52.805,40.054],[52.898,39.912],[52.965,39.834],[53.035,39.774],[52.952,39.896],[52.988,39.988],[53.139,39.979],[53.289,39.958],[53.404,39.961],[53.454,39.941],[53.487,39.909],[53.458,39.831],[53.451,39.748],[53.472,39.669],[53.533,39.642],[53.582,39.608],[53.603,39.547],[53.497,39.533],[53.39,39.536],[53.305,39.557],[53.236,39.609],[53.125,39.432],[53.124,39.347],[53.157,39.265],[53.203,39.317],[53.267,39.343],[53.336,39.341],[53.475,39.305],[53.54,39.274],[53.617,39.216],[53.705,39.21],[53.71,39.154],[53.724,39.103],[53.815,39.018],[53.869,38.949],[53.885,38.864],[53.874,38.742],[53.851,38.622],[53.84,38.515],[53.852,38.406],[53.854,38.286],[53.825,38.047],[53.823,37.928],[53.848,37.67],[53.898,37.414],[53.914,37.343],[53.952,37.182],[54.017,36.952],[54.024,36.901],[54.016,36.85],[53.97,36.818],[53.906,36.813],[53.769,36.818],[53.679,36.853],[53.827,36.881],[53.915,36.93],[53.768,36.93],[53.374,36.869],[52.19,36.622],[51.762,36.615],[51.119,36.743],[50.928,36.81],[50.533,37.014],[50.338,37.149],[50.214,37.34],[50.176,37.38],[50.13,37.407],[49.98,37.445],[49.727,37.48],[49.47,37.497],[49.372,37.52],[49.171,37.601],[49.081,37.668],[49.015,37.776],[48.96,37.89],[48.925,38.015],[48.901,38.143],[48.871,38.393],[48.869,38.436],[48.851,38.815],[48.854,38.839],[48.926,38.962],[48.962,39.079],[49.014,39.134],[49.112,39.085],[49.109,39.029],[49.121,39.004],[49.166,39.03],[49.2,39.073],[49.269,39.285],[49.321,39.329],[49.363,39.349],[49.367,39.399],[49.327,39.501],[49.324,39.608],[49.415,39.84],[49.477,40.087],[49.551,40.194],[49.669,40.249],[49.792,40.288],[49.919,40.316],[50.143,40.323],[50.366,40.28],[50.307,40.412],[50.248,40.462],[50.183,40.505],[50.119,40.535],[49.991,40.577],[49.852,40.577],[49.776,40.584],[49.719,40.608],[49.556,40.716],[49.457,40.8],[49.226,41.026],[49.175,41.116],[49.143,41.218],[49.107,41.302],[49.051,41.374],[48.824,41.63],[48.664,41.787],[48.573,41.844],[48.477,41.905],[48.426,41.924],[48.384,41.953],[48.303,42.08],[48.228,42.181],[48.08,42.353],[47.823,42.613],[47.77,42.645],[47.728,42.681],[47.709,42.811],[47.635,42.903],[47.529,42.967],[47.489,43.0],[47.463,43.035],[47.513,43.219],[47.512,43.271],[47.49,43.382],[47.509,43.51],[47.568,43.685],[47.628,43.806],[47.646,43.884],[47.563,43.835],[47.463,43.555],[47.429,43.78],[47.362,43.993],[47.307,44.103],[47.23,44.192],[47.122,44.262],[47.023,44.343],[46.916,44.387],[46.753,44.42],[46.721,44.452],[46.707,44.503],[46.716,44.561],[46.755,44.656],[46.841,44.718],[46.957,44.782],[46.984,44.826],[47.003,44.876],[47.039,44.838],[47.084,44.817],[47.115,44.906],[47.162,44.97],[47.221,45.024],[47.296,45.15],[47.351,45.218],[47.391,45.295],[47.413,45.421],[47.455,45.433],[47.489,45.455],[47.515,45.491],[47.529,45.53],[47.524,45.602],[47.463,45.68],[47.48,45.688],[47.508,45.674],[47.574,45.634],[47.633,45.584],[47.65,45.657],[47.701,45.686],[47.764,45.666],[47.83,45.663],[48.053,45.721],[48.159,45.737],[48.257,45.778],[48.487,45.935],[48.537,45.942],[48.589,45.935],[48.637,45.906],[48.69,45.889],[48.73,45.897],[48.75,45.921],[48.704,45.976],[48.687,46.029],[48.683,46.086],[48.743,46.101],[48.81,46.101],[49.08,46.189],[49.111,46.229],[49.125,46.281],[49.246,46.292],[49.232,46.337],[49.206,46.386],[49.286,46.437],[49.362,46.41],[49.344,46.486],[49.348,46.519],[49.437,46.537],[49.585,46.545],[49.632,46.568],[49.76,46.571],[49.886,46.596],[50.0,46.634],[50.102,46.696],[50.306,46.795],[50.419,46.879],[50.472,46.883],[50.529,46.873],[50.583,46.882],[50.68,46.939],[50.733,46.951],[50.92,47.041],[51.178,47.11],[51.291,47.097],[51.615,47.03],[51.65,47.018],[51.745,46.934],[51.945,46.895],[52.011,46.902],[52.085,46.84],[52.138,46.829],[52.189,46.84],[52.341,46.895],[52.385,46.922],[52.42,46.964],[52.483,46.991],[52.678,46.957],[52.916,46.955],[53.035,46.893],[53.069,46.856],[53.137,46.742],[53.17,46.669],[53.132,46.609],[53.079,46.548],[53.064,46.475],[53.109,46.414],[53.135,46.192],[53.042,45.968],[52.888,45.779],[52.774,45.573],[52.837,45.497],[53.086,45.407],[53.2,45.332],[53.079,45.307],[52.91,45.319],[52.772,45.343],[52.531,45.399],[52.427,45.405],[52.049,45.388],[51.733,45.399],[51.539,45.343],[51.416,45.358],[51.334,45.28],[51.294,45.23],[51.25,45.122],[51.154,45.04],[51.04,44.98],[51.009,44.922],[51.021,44.854],[51.058,44.811],[51.218,44.709],[51.31,44.619],[51.366,44.6],[51.431,44.602],[51.494,44.578],[51.544,44.531],[51.376,44.541],[51.311,44.533],[51.177,44.501],[51.111,44.508],[51.049,44.53],[50.86,44.629],[50.652,44.633],[50.41,44.624],[50.297,44.582],[50.265,44.527],[50.253,44.462],[50.252,44.407],[50.276,44.355],[50.331,44.326],[50.472,44.295],[50.685,44.265],[50.783,44.228],[50.831,44.193],[50.94,43.958],[51.065,43.75],[51.14,43.649],[51.239,43.577],[51.274,43.533],[51.302,43.482],[51.314,43.421],[51.313,43.356],[51.292,43.231],[51.295,43.174],[51.348,43.167],[51.514,43.171],[51.616,43.158],[51.7,43.104],[51.785,43.004],[51.811,42.955],[51.844,42.911],[51.898,42.869],[51.961,42.85],[52.019,42.86],[52.075,42.88],[52.184,42.869],[52.273,42.8],[52.324,42.816],[52.434,42.824],[52.494,42.82],[52.55,42.805],[52.597,42.76],[52.638,42.556],[52.618,42.428],[52.573,42.331],[52.517,42.237],[52.462,42.101],[52.459,42.048],[52.468,41.886],[52.494,41.78],[52.609,41.53],[52.747,41.366],[52.826,41.231],[52.85,41.2]]]}},{"type":"Feature","properties":{"name":"Red Sea"},"geometry":{"type":"Polygon","coordinates":[[[43.254,13.229],[43.475,12.839],[43.488,12.699],[43.489,12.7],[43.3,12.461],[43.299,12.464],[43.131,12.66],[43.117,12.709],[43.083,12.824],[43.006,12.894],[42.999,12.9],[42.97,12.809],[42.796,12.864],[42.735,13.019],[42.523,13.221],[42.399,13.213],[42.347,13.398],[42.245,13.587],[41.658,13.983],[41.48,14.244],[41.176,14.62],[40.799,14.743],[40.634,14.883],[40.546,14.934],[40.436,14.964],[40.305,14.974],[40.204,15.014],[40.084,15.152],[40.058,15.217],[40.041,15.335],[39.978,15.393],[39.864,15.47],[39.814,15.414],[39.79,15.319],[39.816,15.245],[39.819,15.201],[39.786,15.125],[39.721,15.214],[39.631,15.453],[39.579,15.523],[39.507,15.532],[39.422,15.787],[39.299,15.921],[39.222,16.194],[39.143,16.729],[39.035,17.086],[38.912,17.427],[38.609,18.005],[38.574,18.073],[38.333,18.219],[38.283,18.287],[38.252,18.264],[38.202,18.249],[38.128,18.333],[38.074,18.41],[37.922,18.556],[37.73,18.694],[37.6,18.717],[37.532,18.753],[37.471,18.82],[37.361,19.092],[37.248,19.582],[37.262,19.792],[37.193,20.121],[37.188,20.395],[37.228,20.557],[37.172,20.732],[37.157,20.895],[37.141,20.982],[37.151,21.104],[37.218,21.078],[37.257,21.039],[37.263,21.073],[37.259,21.109],[37.212,21.186],[37.081,21.326],[36.927,21.586],[36.883,21.769],[36.871,21.997],[36.87,22.016],[36.83,22.098],[36.415,22.394],[36.23,22.629],[35.914,22.739],[35.846,22.785],[35.797,22.849],[35.698,22.946],[35.564,23.271],[35.523,23.443],[35.505,23.779],[35.515,23.843],[35.541,23.921],[35.594,23.943],[35.632,23.95],[35.784,23.938],[35.625,24.066],[35.478,24.155],[35.397,24.27],[35.194,24.475],[34.853,25.14],[34.679,25.442],[34.565,25.691],[34.329,26.024],[34.049,26.551],[33.959,26.649],[33.893,27.049],[33.849,27.185],[33.828,27.222],[33.839,27.228],[33.973,27.478],[34.0,27.525],[34.205,27.77],[34.22,27.764],[34.319,27.889],[34.389,27.999],[34.425,27.976],[34.506,27.996],[34.586,28.084],[34.622,28.088],[34.625,28.064],[34.722,28.131],[34.828,28.109],[35.078,28.087],[35.181,28.035],[35.424,27.734],[35.581,27.433],[35.763,27.259],[35.852,27.071],[36.032,26.881],[36.094,26.766],[36.25,26.595],[36.519,26.105],[36.675,26.039],[36.703,25.903],[36.763,25.751],[36.86,25.693],[36.921,25.641],[37.149,25.291],[37.219,25.151],[37.243,25.074],[37.266,24.96],[37.22,24.874],[37.181,24.82],[37.339,24.616],[37.431,24.459],[37.543,24.291],[37.638,24.278],[37.713,24.275],[37.821,24.188],[37.92,24.186],[37.978,24.125],[38.099,24.058],[38.289,23.911],[38.464,23.712],[38.543,23.558],[38.706,23.306],[38.757,23.194],[38.797,23.048],[38.836,22.989],[38.941,22.882],[38.883,22.882],[38.939,22.805],[39.008,22.77],[39.001,22.699],[39.062,22.592],[39.096,22.393],[39.07,22.294],[39.034,22.203],[39.021,22.033],[38.988,21.882],[39.03,21.776],[39.091,21.664],[39.147,21.519],[39.151,21.433],[39.093,21.31],[39.276,20.974],[39.491,20.737],[39.614,20.517],[39.728,20.39],[39.884,20.293],[40.081,20.266],[40.482,19.994],[40.616,19.822],[40.759,19.755],[40.777,19.717],[40.791,19.646],[40.848,19.555],[40.913,19.49],[41.116,19.082],[41.144,18.989],[41.191,18.871],[41.221,18.765],[41.23,18.679],[41.432,18.453],[41.507,18.256],[41.658,18.008],[41.75,17.886],[42.053,17.669],[42.294,17.435],[42.332,17.257],[42.383,17.122],[42.475,17.05],[42.544,16.96],[42.553,16.868],[42.647,16.801],[42.699,16.737],[42.727,16.653],[42.731,16.57],[42.79,16.451],[42.799,16.372],[42.84,16.032],[42.717,15.654],[42.8,15.372],[42.799,15.326],[42.789,15.265],[42.737,15.293],[42.698,15.326],[42.658,15.233],[42.856,15.133],[42.897,15.006],[42.936,14.938],[42.937,14.898],[42.913,14.863],[42.922,14.817],[42.947,14.773],[43.021,14.555],[43.019,14.521],[43.006,14.483],[43.045,14.342],[43.093,14.204],[43.089,14.011],[43.234,13.859],[43.282,13.693],[43.283,13.64],[43.232,13.267],[43.254,13.229]],[[41.897,16.684],[41.964,16.653],[42.072,16.671],[42.102,16.644],[42.109,16.619],[42.128,16.595],[42.158,16.571],[42.167,16.596],[42.17,16.708],[42.06,16.804],[42.027,16.758],[42.033,16.742],[42.065,16.71],[41.988,16.715],[41.947,16.749],[41.963,16.779],[41.954,16.806],[41.948,16.937],[41.917,16.994],[41.86,17.003],[41.885,16.947],[41.858,16.893],[41.816,16.86],[41.776,16.847],[41.802,16.779],[41.897,16.684]],[[40.016,15.733],[40.071,15.677],[40.063,15.666],[40.024,15.655],[39.947,15.696],[39.975,15.613],[40.095,15.591],[40.196,15.598],[40.305,15.577],[40.399,15.58],[40.408,15.629],[40.25,15.704],[40.234,15.666],[40.212,15.648],[40.182,15.643],[40.141,15.696],[40.132,15.795],[40.097,15.839],[40.043,15.876],[39.957,15.889],[40.0,15.828],[39.979,15.807],[39.945,15.789],[39.94,15.744],[40.016,15.733]]]}},{"type":"Feature","properties":{"name":"Persian Gulf"},"geometry":{"type":"Polygon","coordinates":[[[57.204,26.1],[57.165,26.099],[56.425,26.278],[56.43,26.327],[56.413,26.351],[56.379,26.356],[56.346,26.313],[56.306,26.235],[56.228,26.22],[56.197,26.229],[56.164,26.207],[56.081,26.063],[56.075,26.053],[56.025,25.916],[55.941,25.794],[55.523,25.498],[55.434,25.394],[55.322,25.3],[55.303,25.237],[55.098,25.042],[54.747,24.811],[54.659,24.715],[54.624,24.621],[54.581,24.563],[54.534,24.531],[54.499,24.463],[54.458,24.358],[54.397,24.278],[54.304,24.254],[54.148,24.171],[53.893,24.077],[53.802,24.07],[53.33,24.098],[53.026,24.148],[52.648,24.154],[52.511,24.113],[52.251,23.995],[52.119,23.971],[51.906,23.986],[51.843,24.011],[51.792,24.075],[51.767,24.254],[51.735,24.263],[51.665,24.25],[51.623,24.301],[51.606,24.339],[51.569,24.286],[51.535,24.286],[51.477,24.308],[51.395,24.319],[51.31,24.34],[51.37,24.477],[51.418,24.531],[51.411,24.571],[51.338,24.564],[51.268,24.607],[51.397,24.645],[51.428,24.668],[51.534,24.891],[51.587,24.965],[51.609,25.053],[51.602,25.148],[51.562,25.285],[51.52,25.39],[51.51,25.452],[51.485,25.525],[51.527,25.682],[51.572,25.781],[51.543,25.902],[51.389,26.011],[51.262,26.153],[51.108,26.081],[51.003,25.982],[50.904,25.724],[50.868,25.613],[50.803,25.497],[50.763,25.444],[50.755,25.4],[50.777,25.177],[50.847,24.888],[50.836,24.85],[50.804,24.789],[50.726,24.869],[50.667,24.964],[50.558,25.087],[50.509,25.307],[50.455,25.425],[50.281,25.566],[50.239,25.623],[50.189,25.756],[50.13,25.847],[50.081,25.961],[50.032,26.111],[50.054,26.123],[50.096,26.119],[50.136,26.101],[50.156,26.101],[50.214,26.309],[50.185,26.405],[50.111,26.456],[50.028,26.527],[50.011,26.609],[50.008,26.679],[50.026,26.699],[50.087,26.676],[50.134,26.659],[50.15,26.663],[49.986,26.829],[49.716,26.956],[49.538,27.152],[49.405,27.181],[49.281,27.31],[49.175,27.438],[49.237,27.493],[49.158,27.528],[49.087,27.548],[48.906,27.629],[48.797,27.724],[48.807,27.765],[48.833,27.801],[48.809,27.896],[48.774,27.959],[48.626,28.133],[48.523,28.355],[48.499,28.449],[48.443,28.543],[48.39,28.632],[48.371,28.692],[48.339,28.763],[48.253,28.902],[48.184,28.979],[48.1,29.211],[48.086,29.276],[48.052,29.356],[47.998,29.386],[47.935,29.367],[47.845,29.366],[47.722,29.393],[47.725,29.417],[47.817,29.487],[47.97,29.617],[48.048,29.597],[48.09,29.579],[48.143,29.573],[48.136,29.618],[48.077,29.715],[48.006,29.836],[47.974,29.946],[47.979,29.983],[47.982,30.011],[48.073,30.043],[48.142,30.041],[48.355,29.957],[48.454,29.939],[48.546,29.963],[48.596,29.975],[48.671,30.028],[48.832,30.036],[48.87,30.063],[48.919,30.121],[48.909,30.241],[48.891,30.328],[48.917,30.397],[49.037,30.45],[49.002,30.507],[49.131,30.51],[49.224,30.472],[49.247,30.412],[49.19,30.375],[49.096,30.407],[49.049,30.397],[49.002,30.374],[49.028,30.333],[49.054,30.307],[49.43,30.13],[49.555,30.029],[49.983,30.209],[50.071,30.199],[50.129,30.048],[50.169,29.921],[50.23,29.873],[50.387,29.679],[50.544,29.548],[50.65,29.42],[50.668,29.34],[50.646,29.212],[50.675,29.147],[50.795,29.117],[50.876,29.063],[50.876,29.004],[50.843,28.928],[50.867,28.87],[51.021,28.782],[51.062,28.726],[51.094,28.512],[51.128,28.435],[51.276,28.219],[51.279,28.132],[51.519,27.91],[51.589,27.864],[51.666,27.845],[51.842,27.849],[52.031,27.824],[52.192,27.717],[52.476,27.617],[52.603,27.493],[52.638,27.392],[52.691,27.324],[52.982,27.142],[53.342,27.004],[53.455,26.943],[53.507,26.852],[53.706,26.726],[53.823,26.708],[54.069,26.733],[54.247,26.697],[54.522,26.589],[54.645,26.509],[54.759,26.505],[54.896,26.557],[55.155,26.726],[55.294,26.786],[55.424,26.771],[55.519,26.83],[55.592,26.932],[55.65,26.978],[55.941,27.038],[56.118,27.143],[56.284,27.191],[56.356,27.2],[56.728,27.128],[56.813,27.09],[56.91,26.994],[56.982,26.906],[57.036,26.801],[57.072,26.68],[57.104,26.372],[57.201,26.159],[57.204,26.1]],[[55.747,26.692],[55.848,26.731],[55.894,26.733],[55.954,26.701],[56.095,26.801],[56.188,26.921],[56.279,26.952],[56.214,27.003],[56.074,26.983],[55.907,26.91],[55.758,26.948],[55.747,26.931],[55.784,26.857],[55.763,26.812],[55.532,26.71],[55.347,26.648],[55.296,26.657],[55.295,26.639],[55.311,26.593],[55.34,26.586],[55.423,26.583],[55.543,26.618],[55.675,26.686],[55.747,26.692]],[[50.452,26.191],[50.49,26.058],[50.466,25.966],[50.544,25.833],[50.575,25.807],[50.608,25.883],[50.618,26.002],[50.61,26.124],[50.558,26.198],[50.586,26.241],[50.564,26.246],[50.47,26.229],[50.452,26.191]],[[48.228,29.936],[48.185,29.979],[48.159,29.959],[48.139,29.896],[48.12,29.886],[48.114,29.87],[48.115,29.849],[48.081,29.799],[48.143,29.665],[48.18,29.611],[48.218,29.602],[48.275,29.624],[48.34,29.695],[48.347,29.72],[48.348,29.783],[48.228,29.936]]]}},{"type":"Feature","properties":{"name":"Mediterranean Sea"},"geometry":{"type":"Polygon","coordinates":[[[11.059,37.048],[11.054,37.072],[10.951,37.059],[10.766,36.93],[10.571,36.879],[10.518,36.791],[10.413,36.732],[10.294,36.781],[10.334,36.866],[10.189,37.034],[10.197,37.206],[10.087,37.251],[9.988,37.258],[9.875,37.254],[9.88,37.213],[9.897,37.181],[9.83,37.135],[9.784,37.212],[9.816,37.254],[9.838,37.309],[9.759,37.33],[9.688,37.34],[9.142,37.195],[9.059,37.156],[8.823,36.998],[8.576,36.937],[8.127,36.91],[7.911,36.857],[7.792,36.88],[7.608,37.0],[7.432,37.059],[7.204,37.093],[7.239,36.969],[7.143,36.943],[6.927,36.919],[6.576,37.003],[6.487,37.086],[6.328,37.046],[6.249,36.939],[6.065,36.864],[5.726,36.799],[5.425,36.676],[5.296,36.648],[5.195,36.677],[4.995,36.808],[4.878,36.862],[4.758,36.896],[3.779,36.896],[3.521,36.795],[2.973,36.785],[2.847,36.739],[2.594,36.601],[2.343,36.61],[1.974,36.568],[1.257,36.519],[0.972,36.444],[0.791,36.356],[0.515,36.262],[0.312,36.162],[0.151,36.063],[0.048,35.9],[-0.048,35.833],[-0.189,35.819],[-0.351,35.863],[-0.426,35.862],[-0.917,35.669],[-1.088,35.579],[-1.205,35.496],[-1.25,35.452],[-1.252,35.454],[-2.073,36.777],[-2.091,36.796],[-1.939,36.946],[-1.797,37.233],[-1.641,37.387],[-1.328,37.561],[-0.938,37.571],[-0.822,37.581],[-0.772,37.596],[-0.722,37.631],[-0.823,37.712],[-0.815,37.77],[-0.753,37.85],[-0.742,37.886],[-0.683,37.992],[-0.647,38.152],[-0.551,38.203],[-0.521,38.317],[-0.381,38.436],[-0.053,38.586],[0.136,38.697],[0.202,38.759],[0.228,38.74],[1.563,38.66],[1.505,38.671],[1.406,38.671],[1.402,38.711],[1.417,38.74],[1.436,38.768],[1.497,38.712],[1.593,38.702],[1.594,38.672],[1.573,38.66],[1.58,38.659],[3.184,39.317],[4.282,39.816],[4.275,39.83],[4.294,39.842],[4.322,39.898],[4.315,39.917],[4.226,40.033],[4.128,40.057],[3.272,41.963],[3.263,41.962],[3.263,41.962],[5.406,43.23],[5.407,43.229],[5.672,43.178],[5.809,43.098],[6.031,43.101],[6.116,43.072],[6.305,43.139],[6.494,43.169],[6.57,43.199],[6.657,43.262],[6.687,43.335],[6.717,43.374],[6.864,43.438],[7.181,43.659],[7.261,43.696],[7.493,43.767],[7.733,43.802],[7.822,43.827],[9.384,43.021],[9.384,43.019],[9.363,43.018],[9.331,42.944],[9.323,42.814],[9.338,42.767],[9.313,42.713],[9.288,42.695],[9.254,42.712],[9.198,42.729],[9.138,42.733],[9.089,42.705],[9.044,42.661],[8.995,42.646],[8.815,42.608],[8.713,42.55],[8.64,42.427],[8.587,42.385],[8.566,42.358],[8.592,42.344],[8.626,42.343],[8.675,42.284],[8.608,42.258],[8.566,42.219],[8.588,42.161],[8.641,42.118],[8.701,42.096],[8.702,42.043],[8.654,41.996],[8.615,41.959],[8.622,41.931],[8.674,41.922],[8.74,41.925],[8.759,41.87],[8.719,41.804],[8.718,41.761],[8.771,41.737],[8.887,41.701],[8.879,41.669],[8.83,41.627],[8.808,41.588],[8.842,41.559],[8.895,41.516],[9.003,41.477],[9.186,41.385],[9.187,41.387],[9.198,41.262],[9.202,41.249],[9.182,41.242],[9.163,41.185],[9.107,41.143],[8.998,41.11],[8.821,40.95],[8.699,40.895],[8.572,40.85],[8.468,40.834],[8.363,40.846],[8.31,40.858],[8.245,40.907],[8.224,40.913],[8.204,40.871],[8.181,40.771],[8.19,40.652],[8.23,40.606],[8.295,40.559],[8.353,40.5],[8.385,40.443],[8.409,40.352],[8.471,40.293],[8.471,40.131],[8.455,40.078],[8.409,40.038],[8.399,39.978],[8.408,39.917],[8.496,39.898],[8.548,39.839],[8.539,39.77],[8.54,39.731],[8.511,39.721],[8.471,39.748],[8.451,39.721],[8.461,39.648],[8.447,39.563],[8.419,39.523],[8.399,39.482],[8.411,39.292],[8.418,39.205],[8.486,39.111],[8.553,39.03],[8.595,38.964],[8.648,38.927],[8.719,38.927],[8.801,38.91],[8.881,38.913],[8.902,38.926],[8.906,38.919],[12.453,37.73],[12.475,37.744],[12.527,37.669],[12.64,37.594],[12.699,37.572],[12.757,37.567],[12.871,37.575],[12.924,37.57],[13.04,37.506],[13.17,37.479],[13.221,37.452],[13.265,37.411],[13.361,37.349],[13.587,37.254],[13.801,37.136],[13.906,37.1],[14.024,37.107],[14.143,37.104],[14.259,37.046],[14.368,36.973],[14.502,36.799],[14.555,36.777],[14.614,36.767],[14.776,36.71],[14.89,36.724],[15.003,36.694],[15.113,36.688],[15.112,36.634],[22.454,36.463],[22.489,36.447],[22.489,36.568],[22.608,36.78],[22.717,36.794],[22.78,36.786],[22.832,36.687],[22.983,36.528],[23.061,36.487],[23.086,36.468],[23.077,36.455],[23.009,36.319],[23.097,36.246],[23.054,36.19],[23.042,36.146],[23.027,36.151],[23.222,35.789],[23.578,35.541],[23.57,35.535],[23.548,35.416],[23.562,35.295],[23.593,35.257],[23.638,35.235],[23.704,35.234],[23.884,35.246],[23.994,35.222],[24.463,35.161],[24.584,35.116],[24.709,35.089],[24.735,35.058],[24.744,35.014],[24.745,34.95],[24.8,34.935],[25.206,34.959],[25.611,35.007],[25.83,35.025],[26.047,35.014],[26.165,35.019],[26.244,35.045],[26.256,35.095],[26.281,35.159],[26.299,35.268],[26.319,35.313],[26.322,35.311],[27.107,35.447],[27.099,35.456],[27.116,35.511],[27.071,35.598],[27.156,35.726],[27.158,35.789],[27.223,35.82],[27.207,35.715],[27.157,35.629],[27.17,35.612],[27.171,35.612],[27.738,35.923],[27.746,35.911],[27.771,35.908],[27.843,35.929],[27.966,36.047],[28.088,36.065],[28.068,36.129],[28.144,36.21],[28.23,36.37],[28.232,36.434],[28.171,36.426],[28.136,36.415],[28.085,36.643],[28.112,36.646],[28.196,36.686],[28.304,36.812],[28.484,36.804],[28.718,36.701],[28.817,36.676],[28.896,36.673],[28.969,36.715],[29.038,36.694],[29.058,36.638],[29.066,36.59],[29.116,36.52],[29.143,36.397],[29.224,36.325],[29.348,36.259],[29.689,36.156],[29.789,36.168],[30.083,36.25],[30.231,36.307],[30.295,36.288],[30.388,36.243],[30.446,36.27],[30.484,36.31],[30.506,36.451],[30.558,36.526],[30.582,36.797],[30.644,36.866],[30.95,36.849],[31.241,36.822],[31.353,36.801],[31.778,36.613],[32.022,36.535],[32.131,36.449],[32.284,36.268],[32.378,36.183],[32.534,36.101],[32.795,36.036],[32.93,36.096],[33.1,36.103],[33.442,36.153],[33.523,36.144],[33.695,36.182],[33.955,36.295],[34.023,36.341],[34.3,36.604],[34.601,36.785],[34.703,36.817],[34.811,36.799],[34.943,36.726],[35.176,36.635],[35.393,36.575],[35.537,36.597],[35.626,36.653],[35.661,36.724],[35.734,36.764],[35.801,36.778],[35.905,36.848],[36.049,36.91],[36.135,36.852],[36.18,36.807],[36.188,36.743],[36.188,36.659],[36.032,36.523],[35.883,36.406],[35.811,36.31],[35.887,36.159],[35.957,35.998],[35.892,35.917],[35.84,35.849],[35.764,35.572],[35.902,35.421],[35.916,35.351],[35.918,35.3],[35.943,35.224],[35.89,35.061],[35.888,34.949],[35.899,34.852],[35.976,34.629],[35.978,34.547],[35.922,34.493],[35.804,34.437],[35.648,34.248],[35.612,34.032],[35.511,33.88],[35.336,33.504],[35.252,33.393],[35.203,33.259],[35.155,33.16],[35.109,33.084],[35.077,32.967],[35.006,32.826],[34.922,32.614],[34.804,32.196],[34.679,31.896],[34.484,31.592],[34.477,31.585],[34.387,31.484],[34.198,31.322],[34.176,31.304],[33.903,31.181],[33.666,31.13],[33.378,31.131],[33.194,31.084],[33.157,31.126],[33.13,31.168],[32.902,31.111],[32.855,31.118],[32.685,31.074],[32.603,31.068],[32.533,31.101],[32.324,31.256],[32.251,31.295],[32.216,31.294],[32.243,31.246],[32.282,31.201],[32.206,31.119],[32.101,31.093],[32.066,31.153],[32.008,31.22],[31.902,31.24],[31.771,31.292],[31.876,31.414],[31.893,31.482],[32.076,31.345],[32.136,31.341],[31.964,31.502],[31.889,31.542],[31.839,31.526],[31.607,31.456],[31.524,31.458],[31.194,31.588],[31.083,31.603],[31.052,31.591],[31.031,31.508],[31.002,31.463],[30.842,31.44],[30.7,31.404],[30.563,31.417],[30.884,31.523],[30.924,31.567],[30.571,31.473],[30.395,31.457],[30.344,31.403],[30.312,31.357],[30.262,31.317],[30.222,31.258],[30.128,31.256],[30.049,31.265],[29.93,31.227],[29.592,31.011],[29.429,30.928],[29.279,30.867],[29.16,30.835],[29.072,30.83],[28.973,30.857],[28.807,30.943],[28.515,31.05],[27.968,31.098],[27.83,31.195],[27.62,31.192],[27.54,31.212],[27.248,31.378],[26.769,31.47],[26.457,31.512],[25.893,31.621],[25.382,31.513],[25.226,31.534],[25.15,31.655],[25.115,31.712],[25.025,31.883],[24.951,31.954],[24.878,31.984],[24.684,32.016],[24.48,31.997],[24.13,32.009],[24.039,32.037],[23.898,32.127],[23.798,32.159],[23.286,32.214],[23.106,32.332],[23.11,32.397],[23.129,32.448],[23.091,32.619],[22.917,32.687],[22.754,32.741],[22.524,32.794],[22.34,32.88],[22.188,32.918],[21.839,32.909],[21.721,32.942],[21.636,32.937],[21.425,32.799],[21.319,32.778],[21.063,32.776],[20.621,32.58],[20.37,32.431],[20.122,32.219],[20.031,32.108],[19.988,32.027],[19.984,32.029],[15.359,32.149],[15.359,32.16],[15.267,32.311],[15.177,32.391],[14.514,32.511],[14.424,32.55],[14.237,32.681],[14.156,32.71],[13.835,32.792],[13.648,32.799],[13.536,32.824],[13.283,32.915],[13.138,32.897],[12.754,32.801],[12.427,32.829],[12.28,32.859],[11.813,33.094],[11.657,33.119],[11.505,33.182],[11.401,33.225],[11.338,33.209],[11.234,33.234],[11.203,33.249],[11.232,33.271],[11.27,33.286],[11.258,33.309],[11.15,33.369],[11.085,33.563],[10.958,33.626],[10.898,33.534],[10.828,33.519],[10.723,33.514],[10.704,33.61],[10.713,33.689],[10.708,33.688],[10.747,33.723],[10.757,33.718],[10.785,33.718],[10.858,33.687],[10.883,33.69],[10.931,33.718],[10.958,33.722],[10.993,33.746],[11.037,33.785],[11.034,33.805],[11.018,33.823],[10.926,33.89],[11.182,34.709],[11.124,34.682],[11.153,34.745],[11.188,34.771],[11.113,35.231],[11.12,35.24],[11.043,35.335],[11.032,35.454],[11.0,35.552],[11.004,35.634],[10.784,35.772],[10.689,35.799],[10.591,35.887],[10.506,36.033],[10.477,36.175],[10.488,36.255],[10.526,36.323],[10.642,36.419],[10.798,36.493],[10.967,36.743],[11.057,36.842],[11.127,36.874],[11.077,36.967],[11.059,37.048]],[[32.317,34.953],[32.414,34.778],[32.449,34.729],[32.506,34.707],[32.693,34.649],[32.75,34.648],[32.867,34.661],[32.914,34.636],[32.942,34.576],[33.008,34.569],[33.024,34.6],[33.025,34.637],[33.062,34.675],[33.115,34.695],[33.176,34.698],[33.296,34.718],[33.415,34.751],[33.514,34.807],[33.7,34.97],[33.759,34.973],[33.822,34.966],[33.937,34.972],[34.05,34.989],[34.023,35.046],[34.004,35.065],[33.931,35.14],[33.908,35.202],[33.942,35.292],[34.463,35.593],[34.556,35.662],[34.411,35.629],[34.272,35.57],[34.192,35.546],[34.064,35.474],[33.607,35.354],[33.459,35.336],[33.308,35.342],[33.123,35.358],[32.942,35.39],[32.926,35.278],[32.88,35.181],[32.773,35.159],[32.713,35.171],[32.652,35.183],[32.556,35.156],[32.475,35.09],[32.391,35.05],[32.301,35.083],[32.317,34.953]]]}},{"type":"Feature","properties":{"name":"Gulf of Aden"},"geometry":{"type":"Polygon","coordinates":[[[51.261,15.209],[51.267,15.187],[51.267,11.831],[51.255,11.831],[51.191,11.842],[50.792,11.984],[50.636,11.944],[50.528,11.823],[50.466,11.727],[50.11,11.53],[49.642,11.451],[49.388,11.343],[49.062,11.271],[48.939,11.259],[48.903,11.255],[48.674,11.323],[48.572,11.321],[48.439,11.29],[48.019,11.14],[47.712,11.112],[47.474,11.175],[47.405,11.174],[47.23,11.1],[46.973,10.925],[46.565,10.746],[46.46,10.734],[46.254,10.781],[46.024,10.793],[45.816,10.836],[45.696,10.804],[45.338,10.65],[44.943,10.437],[44.387,10.43],[44.279,10.472],[44.158,10.551],[43.853,10.784],[43.631,11.035],[43.441,11.346],[43.246,11.5],[43.162,11.566],[43.043,11.588],[42.911,11.587],[42.79,11.562],[42.653,11.509],[42.584,11.497],[42.54,11.504],[42.522,11.572],[42.64,11.56],[42.799,11.74],[43.048,11.829],[43.272,11.97],[43.337,12.027],[43.38,12.092],[43.41,12.19],[43.41,12.19],[43.354,12.367],[43.351,12.372],[43.308,12.447],[43.3,12.461],[43.489,12.7],[43.629,12.743],[43.634,12.744],[43.737,12.709],[43.835,12.675],[43.857,12.661],[43.905,12.632],[43.925,12.62],[43.93,12.616],[44.006,12.607],[44.111,12.639],[44.26,12.645],[44.359,12.669],[44.618,12.817],[44.755,12.764],[44.89,12.784],[45.039,12.816],[45.109,12.939],[45.164,12.999],[45.394,13.067],[45.534,13.233],[45.657,13.339],[45.92,13.394],[46.203,13.424],[46.502,13.415],[46.664,13.433],[46.789,13.466],[46.976,13.547],[47.243,13.609],[47.408,13.662],[47.634,13.858],[47.855,13.957],[47.916,14.013],[47.99,14.048],[48.278,13.998],[48.449,14.006],[48.593,14.046],[48.668,14.05],[48.78,14.124],[48.928,14.267],[49.005,14.355],[49.048,14.456],[49.103,14.5],[49.35,14.638],[49.549,14.723],[49.906,14.828],[50.167,14.851],[50.339,14.927],[50.527,15.038],[51.015,15.141],[51.261,15.209]]]}},{"type":"Feature","properties":{"name":"Gulf of Oman"},"geometry":{"type":"Polygon","coordinates":[[[61.406,25.104],[61.401,25.083],[59.84,22.463],[59.831,22.462],[59.824,22.509],[59.695,22.546],[59.535,22.579],[59.429,22.661],[59.311,22.793],[59.195,22.972],[59.03,23.13],[58.983,23.235],[58.912,23.334],[58.83,23.398],[58.773,23.517],[58.578,23.643],[58.5,23.646],[58.393,23.618],[58.324,23.624],[58.121,23.717],[57.825,23.759],[57.611,23.804],[57.22,23.923],[57.123,23.981],[56.913,24.15],[56.774,24.335],[56.641,24.47],[56.49,24.716],[56.388,24.979],[56.373,25.019],[56.363,25.569],[56.298,25.651],[56.307,25.709],[56.329,25.752],[56.374,25.804],[56.416,26.109],[56.418,26.208],[56.425,26.278],[57.165,26.099],[57.204,26.1],[57.206,26.037],[57.261,25.919],[57.335,25.792],[57.733,25.725],[57.796,25.653],[57.936,25.692],[58.022,25.641],[58.203,25.592],[58.314,25.581],[58.531,25.593],[58.798,25.555],[59.046,25.418],[59.227,25.428],[59.456,25.482],[59.616,25.403],[59.818,25.401],[59.897,25.362],[60.025,25.384],[60.4,25.312],[60.51,25.437],[60.588,25.413],[60.615,25.33],[60.664,25.282],[61.109,25.184],[61.243,25.142],[61.406,25.104]]]}},{"type":"Feature","properties":{"name":"Adriatic Sea"},"geometry":{"type":"Polygon","coordinates":[[[19.998,39.757],[19.991,39.756],[19.941,39.765],[19.931,39.761],[19.926,39.774],[19.892,39.797],[19.839,39.82],[19.707,39.798],[19.647,39.767],[19.648,39.745],[19.627,39.743],[18.369,39.801],[18.344,39.821],[18.393,39.903],[18.423,39.987],[18.486,40.105],[18.461,40.221],[18.328,40.371],[18.036,40.565],[17.955,40.655],[17.474,40.841],[17.275,40.976],[17.103,41.062],[16.552,41.232],[16.013,41.435],[15.901,41.512],[15.914,41.621],[16.034,41.701],[16.151,41.759],[16.189,41.814],[16.165,41.896],[16.061,41.928],[15.964,41.94],[15.405,41.913],[15.169,41.934],[14.866,42.052],[14.541,42.244],[14.183,42.506],[14.01,42.69],[13.925,42.851],[13.805,43.181],[13.693,43.39],[13.564,43.571],[13.508,43.612],[13.295,43.686],[12.907,43.921],[12.691,43.995],[12.487,44.134],[12.396,44.224],[12.305,44.429],[12.248,44.723],[12.279,44.832],[12.319,44.833],[12.385,44.798],[12.464,44.845],[12.498,44.899],[12.523,44.968],[12.393,45.04],[12.286,45.208],[12.225,45.242],[12.249,45.369],[12.274,45.446],[12.354,45.492],[12.492,45.546],[12.536,45.545],[12.432,45.468],[12.497,45.462],[12.612,45.497],[12.761,45.544],[12.903,45.611],[13.03,45.637],[13.12,45.698],[13.157,45.747],[13.207,45.771],[13.465,45.71],[13.558,45.771],[13.628,45.771],[13.783,45.627],[13.72,45.588],[13.637,45.536],[13.578,45.517],[13.517,45.482],[13.603,45.232],[13.613,45.163],[13.629,45.108],[13.743,44.991],[13.861,44.837],[13.9,44.829],[13.966,44.836],[14.042,44.927],[14.091,44.998],[14.236,45.16],[14.269,45.282],[14.312,45.338],[14.386,45.342],[14.551,45.298],[14.632,45.223],[14.854,45.081],[14.907,44.971],[14.885,44.818],[14.895,44.707],[14.981,44.603],[15.27,44.383],[15.381,44.328],[15.471,44.272],[15.37,44.289],[15.284,44.289],[15.231,44.271],[15.185,44.273],[15.123,44.257],[15.186,44.172],[15.499,43.909],[15.656,43.811],[15.821,43.736],[15.941,43.657],[15.949,43.607],[15.943,43.569],[15.986,43.52],[16.046,43.505],[16.131,43.507],[16.269,43.531],[16.394,43.544],[16.6,43.464],[16.903,43.392],[17.129,43.211],[17.33,43.115],[17.537,42.962],[17.585,42.938],[17.667,42.897],[17.723,42.851],[17.22,43.026],[17.127,43.026],[17.046,43.015],[17.258,42.968],[17.585,42.837],[17.824,42.797],[18.161,42.634],[18.333,42.528],[18.517,42.433],[18.554,42.429],[18.591,42.444],[18.646,42.443],[18.633,42.423],[18.619,42.398],[18.633,42.378],[18.894,42.249],[19.122,42.06],[19.187,41.949],[19.342,41.869],[19.468,41.856],[19.578,41.787],[19.576,41.64],[19.546,41.597],[19.497,41.563],[19.441,41.425],[19.453,41.321],[19.48,41.236],[19.456,41.106],[19.461,40.933],[19.384,40.791],[19.337,40.664],[19.344,40.622],[19.439,40.47],[19.459,40.406],[19.441,40.375],[19.395,40.393],[19.359,40.409],[19.322,40.407],[19.36,40.348],[19.398,40.285],[19.485,40.21],[19.852,40.044],[19.965,39.872],[19.996,39.801],[19.998,39.757]],[[16.656,43.214],[16.521,43.229],[16.376,43.214],[16.406,43.198],[16.55,43.144],[16.679,43.123],[17.124,43.115],[17.194,43.126],[17.061,43.144],[16.697,43.175],[16.656,43.214]],[[16.602,43.382],[16.449,43.387],[16.428,43.344],[16.423,43.317],[16.49,43.286],[16.628,43.268],[16.785,43.271],[16.874,43.298],[16.891,43.314],[16.835,43.351],[16.602,43.382]],[[14.804,44.648],[14.742,44.697],[14.761,44.665],[14.885,44.545],[14.913,44.486],[14.996,44.434],[15.039,44.393],[15.098,44.358],[15.163,44.309],[15.188,44.336],[15.214,44.347],[15.24,44.35],[15.113,44.436],[15.006,44.534],[14.898,44.611],[14.855,44.618],[14.804,44.648]],[[14.628,44.994],[14.687,44.955],[14.81,44.977],[14.739,45.065],[14.701,45.09],[14.63,45.178],[14.571,45.225],[14.525,45.147],[14.438,45.099],[14.451,45.079],[14.511,45.035],[14.613,45.025],[14.628,44.994]],[[14.482,44.693],[14.468,44.725],[14.453,44.869],[14.468,44.97],[14.394,45.031],[14.369,45.081],[14.358,45.168],[14.331,45.165],[14.286,45.145],[14.34,45.02],[14.342,44.98],[14.302,44.941],[14.312,44.9],[14.389,44.759],[14.419,44.67],[14.48,44.622],[14.488,44.66],[14.482,44.693]]]}},{"type":"Feature","properties":{"name":"Aegean Sea"},"geometry":{"type":"Polygon","coordinates":[[[26.218,40.08],[26.185,39.992],[26.185,39.991],[26.181,39.99],[26.15,39.873],[26.155,39.657],[26.101,39.569],[26.096,39.521],[26.113,39.467],[26.351,39.484],[26.484,39.521],[26.827,39.563],[26.899,39.549],[26.911,39.517],[26.814,39.419],[26.711,39.34],[26.682,39.292],[26.719,39.261],[26.854,39.116],[26.85,39.057],[26.808,39.014],[26.815,38.961],[26.866,38.923],[26.92,38.934],[26.97,38.919],[27.014,38.887],[26.909,38.776],[26.79,38.736],[26.764,38.71],[26.788,38.66],[26.796,38.627],[26.838,38.558],[26.907,38.482],[26.97,38.448],[27.144,38.452],[27.099,38.416],[26.862,38.373],[26.77,38.388],[26.727,38.419],[26.697,38.405],[26.674,38.336],[26.641,38.352],[26.595,38.419],[26.61,38.487],[26.587,38.557],[26.514,38.629],[26.442,38.641],[26.378,38.624],[26.372,38.562],[26.429,38.441],[26.417,38.368],[26.344,38.37],[26.291,38.277],[26.333,38.242],[26.428,38.214],[26.525,38.163],[26.582,38.149],[26.621,38.176],[26.683,38.198],[26.807,38.138],[26.879,38.055],[26.944,38.063],[27.159,37.987],[27.232,37.979],[27.255,37.883],[27.224,37.725],[27.078,37.688],[27.068,37.658],[27.148,37.604],[27.204,37.492],[27.219,37.389],[27.29,37.349],[27.376,37.341],[27.4,37.307],[27.52,37.249],[27.535,37.164],[27.368,37.122],[27.3,37.127],[27.25,37.079],[27.263,36.977],[27.311,36.982],[27.349,37.019],[27.669,37.007],[28.134,37.03],[28.242,37.029],[28.224,36.996],[28.083,36.921],[28.005,36.832],[27.934,36.809],[27.631,36.787],[27.554,36.759],[27.467,36.746],[27.467,36.745],[27.304,36.851],[27.193,36.809],[27.151,36.778],[27.034,36.771],[26.95,36.727],[26.918,36.726],[26.946,36.762],[26.454,36.592],[26.461,36.586],[26.382,36.562],[26.331,36.511],[26.27,36.547],[26.27,36.59],[25.4,36.706],[25.382,36.674],[25.364,36.659],[25.288,36.722],[25.275,36.739],[24.74,36.934],[24.721,36.922],[24.703,36.917],[24.676,36.959],[24.674,36.977],[24.507,37.118],[24.486,37.11],[24.425,37.132],[24.441,37.187],[24.444,37.188],[24.401,37.316],[24.398,37.325],[24.379,37.314],[24.389,37.353],[24.331,37.547],[24.322,37.552],[24.289,37.528],[24.281,37.577],[24.056,37.712],[24.062,37.775],[24.061,37.818],[24.033,37.955],[24.024,38.14],[24.005,38.227],[23.967,38.275],[23.836,38.325],[23.684,38.352],[23.57,38.49],[23.369,38.526],[23.253,38.661],[23.138,38.668],[23.02,38.742],[22.774,38.8],[22.688,38.849],[22.634,38.851],[22.569,38.867],[22.597,38.891],[22.677,38.899],[22.802,38.902],[22.931,38.948],[23.067,39.038],[22.965,39.031],[22.939,39.111],[22.886,39.17],[22.839,39.258],[22.922,39.307],[22.993,39.331],[23.162,39.258],[23.169,39.21],[23.119,39.133],[23.155,39.101],[23.218,39.104],[23.328,39.175],[23.288,39.289],[23.233,39.358],[23.104,39.492],[22.979,39.564],[22.919,39.629],[22.836,39.801],[22.592,40.037],[22.569,40.119],[22.606,40.277],[22.643,40.366],[22.625,40.428],[22.629,40.496],[22.742,40.536],[22.811,40.579],[22.922,40.591],[22.893,40.524],[22.851,40.491],[22.897,40.4],[23.098,40.305],[23.312,40.216],[23.328,40.09],[23.396,39.99],[23.627,39.924],[23.658,39.935],[23.674,39.959],[23.467,40.074],[23.433,40.116],[23.387,40.222],[23.426,40.264],[23.664,40.224],[23.835,40.023],[23.947,39.965],[23.982,39.994],[24.0,40.025],[23.968,40.115],[23.917,40.155],[23.824,40.205],[23.721,40.286],[23.728,40.33],[23.823,40.368],[23.913,40.359],[24.056,40.303],[24.159,40.28],[24.232,40.215],[24.343,40.148],[24.293,40.242],[24.213,40.328],[24.031,40.409],[23.932,40.406],[23.867,40.418],[23.832,40.481],[23.879,40.544],[23.779,40.628],[23.743,40.677],[23.763,40.748],[23.946,40.749],[24.082,40.724],[24.234,40.786],[24.384,40.913],[24.477,40.948],[24.557,40.935],[24.679,40.87],[24.793,40.858],[25.005,40.968],[25.104,40.995],[25.25,40.933],[25.326,40.943],[25.497,40.888],[25.856,40.844],[26.011,40.769],[26.039,40.727],[26.068,40.683],[26.106,40.611],[26.224,40.618],[26.361,40.606],[26.578,40.625],[26.792,40.627],[26.72,40.544],[26.447,40.445],[26.355,40.39],[26.254,40.315],[26.253,40.248],[26.26,40.202],[26.226,40.142],[26.203,40.075],[26.218,40.08]],[[26.72,37.705],[26.788,37.657],[26.845,37.645],[26.978,37.701],[27.055,37.71],[27.04,37.77],[26.981,37.782],[26.947,37.778],[26.825,37.812],[26.743,37.81],[26.638,37.781],[26.581,37.724],[26.613,37.711],[26.72,37.705]],[[26.089,39.304],[26.027,39.285],[25.91,39.287],[25.844,39.2],[25.856,39.178],[25.906,39.139],[26.072,39.095],[26.176,39.194],[26.273,39.198],[26.245,39.164],[26.108,39.081],[26.161,39.026],[26.39,38.974],[26.469,38.973],[26.547,38.994],[26.503,39.031],[26.489,39.075],[26.531,39.064],[26.584,39.031],[26.596,39.049],[26.578,39.11],[26.531,39.172],[26.393,39.27],[26.41,39.329],[26.348,39.383],[26.165,39.374],[26.165,39.332],[26.089,39.304]],[[25.892,38.243],[25.999,38.161],[26.094,38.218],[26.103,38.234],[26.111,38.279],[26.157,38.303],[26.149,38.468],[26.141,38.486],[26.161,38.541],[26.11,38.545],[26.012,38.602],[25.846,38.574],[25.852,38.509],[25.96,38.416],[25.991,38.354],[25.953,38.303],[25.874,38.269],[25.892,38.243]],[[25.526,37.196],[25.362,37.07],[25.396,36.985],[25.457,36.93],[25.546,36.968],[25.584,37.039],[25.588,37.152],[25.564,37.185],[25.526,37.196]],[[25.374,40.016],[25.348,39.985],[25.286,39.956],[25.234,40.006],[25.058,40.0],[25.052,39.976],[25.065,39.91],[25.062,39.852],[25.127,39.826],[25.185,39.83],[25.203,39.849],[25.224,39.892],[25.249,39.894],[25.252,39.854],[25.264,39.823],[25.299,39.806],[25.357,39.808],[25.372,39.891],[25.4,39.95],[25.438,39.983],[25.449,40.035],[25.374,40.016]],[[24.764,37.987],[24.7,37.961],[24.714,37.899],[24.767,37.871],[24.798,37.824],[24.884,37.77],[24.962,37.693],[24.992,37.76],[24.981,37.797],[24.948,37.858],[24.956,37.905],[24.855,37.914],[24.791,37.99],[24.764,37.987]],[[24.646,40.579],[24.774,40.615],[24.769,40.659],[24.786,40.704],[24.774,40.73],[24.719,40.786],[24.623,40.793],[24.586,40.769],[24.516,40.687],[24.515,40.647],[24.646,40.579]],[[23.415,38.959],[23.313,39.035],[23.258,39.031],[23.146,39.003],[22.986,38.916],[22.87,38.871],[22.881,38.848],[22.936,38.84],[23.029,38.873],[23.144,38.845],[23.252,38.801],[23.364,38.735],[23.466,38.656],[23.505,38.613],[23.553,38.582],[23.617,38.552],[23.651,38.443],[23.759,38.401],[23.886,38.401],[24.04,38.39],[24.042,38.374],[24.063,38.337],[24.103,38.317],[24.144,38.243],[24.189,38.204],[24.193,38.152],[24.212,38.118],[24.318,38.06],[24.359,38.019],[24.416,38.016],[24.446,38.005],[24.472,37.98],[24.502,37.97],[24.537,37.98],[24.578,38.02],[24.588,38.124],[24.564,38.148],[24.464,38.145],[24.36,38.163],[24.276,38.22],[24.22,38.339],[24.187,38.464],[24.211,38.504],[24.199,38.541],[24.154,38.588],[24.127,38.648],[24.099,38.671],[23.878,38.686],[23.688,38.765],[23.636,38.77],[23.525,38.813],[23.472,38.85],[23.415,38.959]]]}}]}