{"type":"FeatureCollection","features":[{"type":"Feature","properties":{"era":"conquest","name":"Canaan","color":"#6b8f47"},"geometry":{"type":"Polygon","coordinates":[[[34.75,32.05],[35.15,33.05],[35.55,33.25],[35.65,33.0],[35.6,31.95],[35.45,31.9],[35.45,31.18],[35.2,31.0],[34.84,31.245],[34.7,31.55],[34.46,31.5],[34.75,32.05]]]}},{"type":"Feature","properties":{"era":"conquest","name":"Amorites (Og & Sihon)","color":"#7c7f8a"},"geometry":{"type":"Polygon","coordinates":[[[35.65,33.0],[35.85,33.35],[36.05,32.95],[36.3,32.2],[36.2,31.2],[35.75,31.25],[35.6,31.95],[35.65,33.0]]]}},{"type":"Feature","properties":{"era":"conquest","name":"Ammon","color":"#c8963e"},"geometry":{"type":"Polygon","coordinates":[[[36.3,32.2],[36.6,32.1],[36.5,31.7],[36.2,31.8],[36.3,32.2]]]}},{"type":"Feature","properties":{"era":"conquest","name":"Moab","color":"#b08a5a"},"geometry":{"type":"Polygon","coordinates":[[[35.75,31.25],[36.2,31.2],[36.2,30.95],[35.75,30.95],[35.7,31.18],[35.75,31.25]]]}},{"type":"Feature","properties":{"era":"conquest","name":"Edom","color":"#9c4a4a"},"geometry":{"type":"Polygon","coordinates":[[[35.75,30.95],[36.2,30.95],[36.4,30.3],[35.6,29.4],[34.9,30.85],[35.2,31.0],[35.75,30.95]]]}},{"type":"Feature","properties":{"era":"conquest","name":"Phoenicia","color":"#8a5ba0"},"geometry":{"type":"Polygon","coordinates":[[[35.05,34.05],[35.37,33.56],[35.21,33.27],[35.15,33.05],[35.35,33.05],[35.55,33.55],[35.35,34.05],[35.05,34.05]]]}},{"type":"Feature","properties":{"era":"conquest","name":"Amalekites","color":"#a15c4a"},"geometry":{"type":"Polygon","coordinates":[[[34.9,30.85],[34.6,30.6],[34.3,30.8],[34.46,31.2],[34.84,31.245],[34.9,30.85]]]}},{"type":"Feature","properties":{"era":"monarchy","name":"Israel","color":"#c8963e"},"geometry":{"type":"Polygon","coordinates":[[[35.15,33.05],[35.55,33.25],[35.85,33.35],[36.05,32.95],[36.05,32.57],[35.75,32.3],[35.6,31.95],[35.45,31.9],[35.22,31.93],[34.75,32.05],[35.15,33.05]]]}},{"type":"Feature","properties":{"era":"monarchy","name":"Judah","color":"#6b8f47"},"geometry":{"type":"Polygon","coordinates":[[[35.22,31.93],[35.45,31.9],[35.45,31.18],[35.2,31.0],[34.84,31.245],[34.7,31.55],[34.85,31.75],[35.05,31.85],[35.22,31.93]]]}},{"type":"Feature","properties":{"era":"monarchy","name":"Philistia","color":"#a15c4a"},"geometry":{"type":"Polygon","coordinates":[[[34.46,31.5],[34.55,31.66],[34.66,31.76],[34.85,31.78],[34.84,31.69],[34.7,31.55],[34.55,31.4],[34.46,31.5]]]}},{"type":"Feature","properties":{"era":"monarchy","name":"Phoenicia","color":"#8a5ba0"},"geometry":{"type":"Polygon","coordinates":[[[35.05,34.05],[35.37,33.56],[35.21,33.27],[35.15,33.05],[35.35,33.05],[35.55,33.55],[35.35,34.05],[35.05,34.05]]]}},{"type":"Feature","properties":{"era":"monarchy","name":"Aram","color":"#7c7f8a"},"geometry":{"type":"Polygon","coordinates":[[[35.85,33.35],[35.9,32.9],[36.3,32.9],[37.2,33.3],[37.0,34.3],[36.75,35.14],[35.9,34.6],[35.85,33.35]]]}},{"type":"Feature","properties":{"era":"monarchy","name":"Ammon","color":"#c8963e"},"geometry":{"type":"Polygon","coordinates":[[[35.6,31.95],[35.75,32.3],[36.3,32.2],[36.3,31.8],[35.81,31.75],[35.6,31.9],[35.6,31.95]]]}},{"type":"Feature","properties":{"era":"monarchy","name":"Moab","color":"#b08a5a"},"geometry":{"type":"Polygon","coordinates":[[[35.81,31.75],[36.3,31.8],[36.2,31.2],[35.75,30.95],[35.7,31.18],[35.75,31.25],[35.78,31.5],[35.81,31.75]]]}},{"type":"Feature","properties":{"era":"monarchy","name":"Edom","color":"#9c4a4a"},"geometry":{"type":"Polygon","coordinates":[[[35.75,30.95],[36.2,31.2],[36.4,30.3],[35.6,29.4],[34.9,30.85],[35.2,31.0],[35.75,30.95]]]}},{"type":"Feature","properties":{"era":"assyrian","name":"Assyrian Empire","color":"#a15c4a"},"geometry":{"type":"Polygon","coordinates":[[[35.15,33.05],[36.75,35.14],[38.5,37.0],[44.0,38.0],[48.5,34.8],[49.0,32.0],[48.0,29.0],[44.5,30.0],[42.0,29.0],[37.0,31.0],[34.9,31.0],[34.46,31.5],[35.15,33.05]]]}},{"type":"Feature","properties":{"era":"assyrian","name":"Egypt","color":"#6b8f47"},"geometry":{"type":"Polygon","coordinates":[[[30.0,31.5],[32.2,31.3],[33.0,30.5],[32.9,29.0],[32.64,25.7],[31.5,25.0],[30.0,27.0],[29.0,30.0],[30.0,31.5]]]}},{"type":"Feature","properties":{"era":"persian","name":"Persian Empire","color":"#c8963e"},"geometry":{"type":"Polygon","coordinates":[[[23.0,40.0],[28.1,38.5],[36.0,37.0],[44.0,39.0],[50.0,40.0],[62.0,37.0],[70.0,30.0],[67.0,25.0],[57.0,26.0],[48.0,29.0],[44.5,30.0],[37.0,31.0],[32.9,29.0],[32.64,25.7],[31.5,20.0],[28.0,25.0],[25.0,32.0],[23.0,35.0],[23.0,40.0]]]}},{"type":"Feature","properties":{"era":"roman","name":"Galilee","color":"#c8963e"},"geometry":{"type":"Polygon","coordinates":[[[34.75,33.0],[35.15,33.05],[35.55,33.25],[35.65,33.0],[35.6,32.75],[35.2,32.6],[34.95,32.75],[34.75,33.0]]]}},{"type":"Feature","properties":{"era":"roman","name":"Samaria","color":"#b08a5a"},"geometry":{"type":"Polygon","coordinates":[[[34.85,32.6],[35.2,32.65],[35.6,32.55],[35.55,32.15],[35.3,31.95],[34.95,32.05],[34.8,32.3],[34.85,32.6]]]}},{"type":"Feature","properties":{"era":"roman","name":"Judea","color":"#6b8f47"},"geometry":{"type":"Polygon","coordinates":[[[35.3,31.95],[35.55,32.15],[35.45,31.9],[35.45,31.18],[35.2,31.0],[34.84,31.245],[34.7,31.55],[34.85,31.75],[34.95,32.05],[35.3,31.95]]]}},{"type":"Feature","properties":{"era":"roman","name":"Perea","color":"#7c7f8a"},"geometry":{"type":"Polygon","coordinates":[[[35.55,32.1],[35.9,32.05],[35.95,31.6],[35.7,31.15],[35.55,31.2],[35.5,31.8],[35.55,32.1]]]}},{"type":"Feature","properties":{"era":"roman","name":"Decapolis","color":"#8a5ba0"},"geometry":{"type":"Polygon","coordinates":[[[35.55,32.75],[36.0,32.7],[36.1,32.2],[35.9,32.05],[35.55,32.1],[35.5,32.5],[35.55,32.75]]]}},{"type":"Feature","properties":{"era":"roman","name":"Idumea","color":"#a15c4a"},"geometry":{"type":"Polygon","coordinates":[[[35.2,31.0],[34.84,31.1],[34.6,30.8],[34.9,30.5],[35.3,30.6],[35.2,31.0]]]}},{"type":"Feature","properties":{"era":"roman","name":"Nabatea","color":"#9c4a4a"},"geometry":{"type":"Polygon","coordinates":[[[35.75,30.95],[36.4,30.3],[36.0,29.5],[35.3,29.6],[35.0,30.4],[35.6,30.9],[35.75,30.95]]]}},{"type":"Feature","properties":{"era":"roman","name":"Phoenicia","color":"#8a5ba0"},"geometry":{"type":"Polygon","coordinates":[[[35.05,34.05],[35.37,33.56],[35.21,33.27],[35.15,33.05],[35.35,33.05],[35.55,33.55],[35.35,34.05],[35.05,34.05]]]}}],"eras":[{"key":"conquest","label":"Conquest & Judges","years":"c. 1400–1050 BC","start":-1400,"end":-1050},{"key":"monarchy","label":"Divided Monarchy","years":"c. 930–722 BC","start":-930,"end":-722},{"key":"assyrian","label":"Assyrian Empire","years":"c. 700 BC","start":-700,"end":null},{"key":"persian","label":"Babylonian & Persian Empire","years":"c. 550–450 BC","start":-550,"end":-450},{"key":"roman","label":"Roman / New Testament","years":"1st century AD","start":1,"end":100}]}